{"type": "FeatureCollection", "features": [{"type": "Feature", "geometry": {"type": "Polygon", "coordinates": [[[37.5865246122703, 55.75830935529357], [37.586504453793175, 55.758298746462444], [37.58656492922456, 55.75827752880021], [37.586585087701685, 55.75827752880021], [37.58662540465594, 55.75826338369205], [37.58668588008732, 55.758259847415005], [37.58665564237163, 55.75827045624612], [37.586635483894504, 55.75827045624612], [37.5865246122703, 55.75830935529357]]]}, "properties": {"id": 0, "bound": true, "edge_id": 4, "ID": "{e9782032-e7b8-42a9-baa9-b6b8e0ec2b4f}", "na_obj": "\u041d\u0438\u043a\u0438\u0442\u0441\u043a\u0430\u044f \u0411\u043e\u043b\u044c\u0448\u0430\u044f \u0443\u043b\u0438\u0446\u0430", "um_code": "004730", "no_omk": "-", "ao": "\u0426\u0410\u041e", "rajon": "\u041f\u0440\u0435\u0441\u043d\u0435\u043d\u0441\u043a\u0438\u0439", "status": "\u0421\u0443\u0449\u0435\u0441\u0442\u0432\u0443\u044e\u0449\u0438\u0435", "length": 270.8, "type_uds": "\u041e\u0434\u043d\u0430 \u043f\u0440\u043e\u0435\u0437\u0436\u0430\u044f \u0447\u0430\u0441\u0442\u044c", "rlane": "\u0414\u0430", "one_way": "\u043d\u0435\u0442", "kl_gp": "\u041c\u0430\u0433\u0438\u0441\u0442\u0440\u0430\u043b\u044c\u043d\u044b\u0435 \u0443\u043b\u0438\u0446\u044b \u043e\u0431\u0449\u0435\u0433\u043e\u0440\u043e\u0434\u0441\u043a\u043e\u0433\u043e \u0437\u043d\u0430\u0447\u0435\u043d\u0438\u044f II \u043a\u043b\u0430\u0441\u0441\u0430 \u0446\u0435\u043d\u0442\u0440\u0430", "class_active_2016": "\u041c\u0430\u0433\u0438\u0441\u0442\u0440\u0430\u043b\u044c\u043d\u044b\u0435 \u0443\u043b\u0438\u0446\u044b \u0440\u0430\u0439\u043e\u043d\u043d\u043e\u0433\u043e \u0437\u043d\u0430\u0447\u0435\u043d\u0438\u044f", "offer_2016": "\u041c\u0430\u0433\u0438\u0441\u0442\u0440\u0430\u043b\u044c\u043d\u044b\u0435 \u0443\u043b\u0438\u0446\u044b \u0440\u0430\u0439\u043e\u043d\u043d\u043e\u0433\u043e \u0437\u043d\u0430\u0447\u0435\u043d\u0438\u044f"}}, {"type": "Feature", "geometry": {"type": "Polygon", "coordinates": [[[37.58210990577937, 55.75831996412469], [37.58208974730224, 55.758312891570604], [37.58207966806368, 55.758259847415005], [37.58200911339373, 55.75823862975277], [37.58202927187086, 55.75822802092164], [37.582099826540805, 55.75822448464461], [37.58207966806368, 55.758231557198684], [37.58207966806368, 55.7582421660298], [37.58210990577937, 55.758249238583886], [37.58216030197219, 55.758231557198684], [37.58216030197219, 55.75822448464461], [37.582634026184685, 55.75822448464461], [37.58237196598203, 55.758273992523165], [37.582341728266336, 55.758273992523165], [37.58230141131208, 55.75829521018541], [37.582230856642134, 55.75829521018541], [37.582150222733624, 55.758316427847646], [37.58210990577937, 55.75831996412469]]]}, "properties": {"id": 1, "bound": true, "edge_id": 2, "ID": "{0a673a7d-e495-4de2-a566-cb0b69c38a79}", "na_obj": "\u041a\u0443\u0434\u0440\u0438\u043d\u0441\u043a\u0438\u0439 \u043f\u0435\u0440\u0435\u0443\u043b\u043e\u043a", "um_code": "012610", "no_omk": "-", "ao": "\u0426\u0410\u041e", "rajon": "\u041f\u0440\u0435\u0441\u043d\u0435\u043d\u0441\u043a\u0438\u0439", "status": "\u0421\u0443\u0449\u0435\u0441\u0442\u0432\u0443\u044e\u0449\u0438\u0435", "length": 200.5, "type_uds": "\u041e\u0434\u043d\u0430 \u043f\u0440\u043e\u0435\u0437\u0436\u0430\u044f \u0447\u0430\u0441\u0442\u044c", "rlane": "\u0414\u0430", "one_way": "\u0434\u0430", "kl_gp": "\u041f\u0440\u043e\u0447\u0430\u044f \u0443\u043b\u0438\u0447\u043d\u043e-\u0434\u043e\u0440\u043e\u0436\u043d\u0430\u044f \u0441\u0435\u0442\u044c \u041c\u043e\u0441\u043a\u0432\u044b", "class_active_2016": "\u0423\u043b\u0438\u0446\u044b \u0438 \u0434\u043e\u0440\u043e\u0433\u0438 \u043c\u0435\u0441\u0442\u043d\u043e\u0433\u043e \u0437\u043d\u0430\u0447\u0435\u043d\u0438\u044f", "offer_2016": "\u0423\u043b\u0438\u0446\u044b \u0438 \u0434\u043e\u0440\u043e\u0433\u0438 \u043c\u0435\u0441\u0442\u043d\u043e\u0433\u043e \u0437\u043d\u0430\u0447\u0435\u043d\u0438\u044f"}}, {"type": "Feature", "geometry": {"type": "Polygon", "coordinates": [[[37.58221069816501, 55.75836239944917], [37.58222077740357, 55.75834825434101], [37.5822409358807, 55.758341181786925], [37.58227117359639, 55.758341181786925], [37.582311490550644, 55.75832350040173], [37.58237196598203, 55.758312891570604], [37.582422362174846, 55.758316427847646], [37.582422362174846, 55.758327036678764], [37.58232156978921, 55.758355326895085], [37.58228125283495, 55.75834471806397], [37.582230856642134, 55.75836593572621], [37.58221069816501, 55.75836239944917]]]}, "properties": {"id": 2, "bound": true, "edge_id": 2, "ID": "{0a673a7d-e495-4de2-a566-cb0b69c38a79}", "na_obj": "\u041a\u0443\u0434\u0440\u0438\u043d\u0441\u043a\u0438\u0439 \u043f\u0435\u0440\u0435\u0443\u043b\u043e\u043a", "um_code": "012610", "no_omk": "-", "ao": "\u0426\u0410\u041e", "rajon": "\u041f\u0440\u0435\u0441\u043d\u0435\u043d\u0441\u043a\u0438\u0439", "status": "\u0421\u0443\u0449\u0435\u0441\u0442\u0432\u0443\u044e\u0449\u0438\u0435", "length": 200.5, "type_uds": "\u041e\u0434\u043d\u0430 \u043f\u0440\u043e\u0435\u0437\u0436\u0430\u044f \u0447\u0430\u0441\u0442\u044c", "rlane": "\u0414\u0430", "one_way": "\u0434\u0430", "kl_gp": "\u041f\u0440\u043e\u0447\u0430\u044f \u0443\u043b\u0438\u0447\u043d\u043e-\u0434\u043e\u0440\u043e\u0436\u043d\u0430\u044f \u0441\u0435\u0442\u044c \u041c\u043e\u0441\u043a\u0432\u044b", "class_active_2016": "\u0423\u043b\u0438\u0446\u044b \u0438 \u0434\u043e\u0440\u043e\u0433\u0438 \u043c\u0435\u0441\u0442\u043d\u043e\u0433\u043e \u0437\u043d\u0430\u0447\u0435\u043d\u0438\u044f", "offer_2016": "\u0423\u043b\u0438\u0446\u044b \u0438 \u0434\u043e\u0440\u043e\u0433\u0438 \u043c\u0435\u0441\u0442\u043d\u043e\u0433\u043e \u0437\u043d\u0430\u0447\u0435\u043d\u0438\u044f"}}, {"type": "Feature", "geometry": {"type": "Polygon", "coordinates": [[[37.586826989427216, 55.758369472003245], [37.58685722714291, 55.75825631113796], [37.58683706866578, 55.758249238583886], [37.58680683095009, 55.758249238583886], [37.5867765932344, 55.758259847415005], [37.586746355518706, 55.758259847415005], [37.58672619704158, 55.758249238583886], [37.58676651399583, 55.75822448464461], [37.5868874648586, 55.75822448464461], [37.58689754409716, 55.7582421660298], [37.5868874648586, 55.758298746462444], [37.58686730638147, 55.75831996412469], [37.586877385620035, 55.75834825434101], [37.58689754409716, 55.75835886317213], [37.586877385620035, 55.758369472003245], [37.586826989427216, 55.758369472003245]]]}, "properties": {"id": 3, "bound": true, "edge_id": 4, "ID": "{e9782032-e7b8-42a9-baa9-b6b8e0ec2b4f}", "na_obj": "\u041d\u0438\u043a\u0438\u0442\u0441\u043a\u0430\u044f \u0411\u043e\u043b\u044c\u0448\u0430\u044f \u0443\u043b\u0438\u0446\u0430", "um_code": "004730", "no_omk": "-", "ao": "\u0426\u0410\u041e", "rajon": "\u041f\u0440\u0435\u0441\u043d\u0435\u043d\u0441\u043a\u0438\u0439", "status": "\u0421\u0443\u0449\u0435\u0441\u0442\u0432\u0443\u044e\u0449\u0438\u0435", "length": 270.8, "type_uds": "\u041e\u0434\u043d\u0430 \u043f\u0440\u043e\u0435\u0437\u0436\u0430\u044f \u0447\u0430\u0441\u0442\u044c", "rlane": "\u0414\u0430", "one_way": "\u043d\u0435\u0442", "kl_gp": "\u041c\u0430\u0433\u0438\u0441\u0442\u0440\u0430\u043b\u044c\u043d\u044b\u0435 \u0443\u043b\u0438\u0446\u044b \u043e\u0431\u0449\u0435\u0433\u043e\u0440\u043e\u0434\u0441\u043a\u043e\u0433\u043e \u0437\u043d\u0430\u0447\u0435\u043d\u0438\u044f II \u043a\u043b\u0430\u0441\u0441\u0430 \u0446\u0435\u043d\u0442\u0440\u0430", "class_active_2016": "\u041c\u0430\u0433\u0438\u0441\u0442\u0440\u0430\u043b\u044c\u043d\u044b\u0435 \u0443\u043b\u0438\u0446\u044b \u0440\u0430\u0439\u043e\u043d\u043d\u043e\u0433\u043e \u0437\u043d\u0430\u0447\u0435\u043d\u0438\u044f", "offer_2016": "\u041c\u0430\u0433\u0438\u0441\u0442\u0440\u0430\u043b\u044c\u043d\u044b\u0435 \u0443\u043b\u0438\u0446\u044b \u0440\u0430\u0439\u043e\u043d\u043d\u043e\u0433\u043e \u0437\u043d\u0430\u0447\u0435\u043d\u0438\u044f"}}, {"type": "Feature", "geometry": {"type": "Polygon", "coordinates": [[[37.58273481857032, 55.75853214074709], [37.58270458085463, 55.75851445936189], [37.58275497704745, 55.75848616914557], [37.58277513552458, 55.75848263286853], [37.582795294001706, 55.75848970542261], [37.58281545247883, 55.75848263286853], [37.58283561095596, 55.75850031425373], [37.58278521476314, 55.758521531915974], [37.58273481857032, 55.75853214074709]]]}, "properties": {"id": 4, "bound": true, "edge_id": 2, "ID": "{0a673a7d-e495-4de2-a566-cb0b69c38a79}", "na_obj": "\u041a\u0443\u0434\u0440\u0438\u043d\u0441\u043a\u0438\u0439 \u043f\u0435\u0440\u0435\u0443\u043b\u043e\u043a", "um_code": "012610", "no_omk": "-", "ao": "\u0426\u0410\u041e", "rajon": "\u041f\u0440\u0435\u0441\u043d\u0435\u043d\u0441\u043a\u0438\u0439", "status": "\u0421\u0443\u0449\u0435\u0441\u0442\u0432\u0443\u044e\u0449\u0438\u0435", "length": 200.5, "type_uds": "\u041e\u0434\u043d\u0430 \u043f\u0440\u043e\u0435\u0437\u0436\u0430\u044f \u0447\u0430\u0441\u0442\u044c", "rlane": "\u0414\u0430", "one_way": "\u0434\u0430", "kl_gp": "\u041f\u0440\u043e\u0447\u0430\u044f \u0443\u043b\u0438\u0447\u043d\u043e-\u0434\u043e\u0440\u043e\u0436\u043d\u0430\u044f \u0441\u0435\u0442\u044c \u041c\u043e\u0441\u043a\u0432\u044b", "class_active_2016": "\u0423\u043b\u0438\u0446\u044b \u0438 \u0434\u043e\u0440\u043e\u0433\u0438 \u043c\u0435\u0441\u0442\u043d\u043e\u0433\u043e \u0437\u043d\u0430\u0447\u0435\u043d\u0438\u044f", "offer_2016": "\u0423\u043b\u0438\u0446\u044b \u0438 \u0434\u043e\u0440\u043e\u0433\u0438 \u043c\u0435\u0441\u0442\u043d\u043e\u0433\u043e \u0437\u043d\u0430\u0447\u0435\u043d\u0438\u044f"}}, {"type": "Feature", "geometry": {"type": "Polygon", "coordinates": [[[37.58505304343999, 55.75864883788942], [37.58507320191712, 55.75865237416645], [37.585113518871374, 55.75863822905829], [37.58515383582563, 55.75863822905829], [37.585305024404086, 55.758592257456776], [37.58532518288121, 55.75859579373381], [37.58536549983547, 55.758574576071574], [37.585385658312596, 55.758578112348616], [37.58539573755116, 55.75858518490269], [37.585305024404086, 55.75861347511901], [37.58528486592696, 55.75861347511901], [37.5852445489727, 55.75862762022717], [37.58521431125701, 55.75862762022717], [37.585143756587065, 55.75866298299758], [37.58509336039425, 55.758659446720536], [37.58505304343999, 55.75864883788942]]]}, "properties": {"id": 5, "bound": true, "edge_id": 6, "ID": "{de7cf949-eb19-4553-ab72-31e367383301}", "na_obj": "\u041d\u0438\u043a\u0438\u0442\u0441\u043a\u0430\u044f \u0411\u043e\u043b\u044c\u0448\u0430\u044f \u0443\u043b\u0438\u0446\u0430", "um_code": "004730", "no_omk": "-", "ao": "\u0426\u0410\u041e", "rajon": "\u041f\u0440\u0435\u0441\u043d\u0435\u043d\u0441\u043a\u0438\u0439", "status": "\u0421\u0443\u0449\u0435\u0441\u0442\u0432\u0443\u044e\u0449\u0438\u0435", "length": 56.5, "type_uds": "\u041e\u0434\u043d\u0430 \u043f\u0440\u043e\u0435\u0437\u0436\u0430\u044f \u0447\u0430\u0441\u0442\u044c", "rlane": "\u0414\u0430", "one_way": "\u043d\u0435\u0442", "kl_gp": "\u041c\u0430\u0433\u0438\u0441\u0442\u0440\u0430\u043b\u044c\u043d\u044b\u0435 \u0443\u043b\u0438\u0446\u044b \u043e\u0431\u0449\u0435\u0433\u043e\u0440\u043e\u0434\u0441\u043a\u043e\u0433\u043e \u0437\u043d\u0430\u0447\u0435\u043d\u0438\u044f II \u043a\u043b\u0430\u0441\u0441\u0430 \u0446\u0435\u043d\u0442\u0440\u0430", "class_active_2016": "\u041c\u0430\u0433\u0438\u0441\u0442\u0440\u0430\u043b\u044c\u043d\u044b\u0435 \u0443\u043b\u0438\u0446\u044b \u0440\u0430\u0439\u043e\u043d\u043d\u043e\u0433\u043e \u0437\u043d\u0430\u0447\u0435\u043d\u0438\u044f", "offer_2016": "\u041c\u0430\u0433\u0438\u0441\u0442\u0440\u0430\u043b\u044c\u043d\u044b\u0435 \u0443\u043b\u0438\u0446\u044b \u0440\u0430\u0439\u043e\u043d\u043d\u043e\u0433\u043e \u0437\u043d\u0430\u0447\u0435\u043d\u0438\u044f"}}, {"type": "Feature", "geometry": {"type": "Polygon", "coordinates": [[[37.585839224047966, 55.75943742766935], [37.58581906557084, 55.75943035511527], [37.585839224047966, 55.75941974628415], [37.585839224047966, 55.75939852862191], [37.58586946176366, 55.75940913745303], [37.58586946176366, 55.75941974628415], [37.585839224047966, 55.75943742766935]]]}, "properties": {"id": 6, "bound": true, "edge_id": 12, "ID": "{bf3eb126-fd8c-48d9-8821-3e6d283b4381}", "na_obj": "\u041d\u0438\u043a\u0438\u0442\u0441\u043a\u0430\u044f \u041c\u0430\u043b\u0430\u044f \u0443\u043b\u0438\u0446\u0430", "um_code": "009790", "no_omk": "-", "ao": "\u0426\u0410\u041e", "rajon": "\u041f\u0440\u0435\u0441\u043d\u0435\u043d\u0441\u043a\u0438\u0439", "status": "\u0421\u0443\u0449\u0435\u0441\u0442\u0432\u0443\u044e\u0449\u0438\u0435", "length": 108.4, "type_uds": "\u041e\u0434\u043d\u0430 \u043f\u0440\u043e\u0435\u0437\u0436\u0430\u044f \u0447\u0430\u0441\u0442\u044c", "rlane": "\u0414\u0430", "one_way": "\u043d\u0435\u0442", "kl_gp": "\u041c\u0430\u0433\u0438\u0441\u0442\u0440\u0430\u043b\u044c\u043d\u044b\u0435 \u0443\u043b\u0438\u0446\u044b \u043e\u0431\u0449\u0435\u0433\u043e\u0440\u043e\u0434\u0441\u043a\u043e\u0433\u043e \u0437\u043d\u0430\u0447\u0435\u043d\u0438\u044f II \u043a\u043b\u0430\u0441\u0441\u0430 \u0446\u0435\u043d\u0442\u0440\u0430", "class_active_2016": "\u0423\u043b\u0438\u0446\u044b \u0438 \u0434\u043e\u0440\u043e\u0433\u0438 \u043c\u0435\u0441\u0442\u043d\u043e\u0433\u043e \u0437\u043d\u0430\u0447\u0435\u043d\u0438\u044f", "offer_2016": "\u041c\u0430\u0433\u0438\u0441\u0442\u0440\u0430\u043b\u044c\u043d\u044b\u0435 \u0443\u043b\u0438\u0446\u044b \u0440\u0430\u0439\u043e\u043d\u043d\u043e\u0433\u043e \u0437\u043d\u0430\u0447\u0435\u043d\u0438\u044f"}}, {"type": "Feature", "geometry": {"type": "Polygon", "coordinates": [[[37.5864137406461, 55.75967789450807], [37.58638350293041, 55.75966021312287], [37.5864137406461, 55.759642531737676], [37.58644397836179, 55.75964960429175], [37.586474216077484, 55.759638995460634], [37.58651453303174, 55.75958241502799], [37.58654477074743, 55.75959302385911], [37.58657500846312, 55.75959302385911], [37.586635483894504, 55.759575342473916], [37.58667580084876, 55.75952937087239], [37.586665721610196, 55.75950815321015], [37.58660524617881, 55.75949754437903], [37.58657500846312, 55.759504616933114], [37.58653469150887, 55.759504616933114], [37.586474216077484, 55.759518762041274], [37.586454057600356, 55.75951168948719], [37.58643389912323, 55.759518762041274], [37.58640366140754, 55.759518762041274], [37.58633310673759, 55.75953644342647], [37.586292789783336, 55.75951522576423], [37.58627263130621, 55.75952229831831], [37.586262552067645, 55.75950108065607], [37.5863028690219, 55.75945157277751], [37.58632302749903, 55.75944450022343], [37.58635326521472, 55.75945864533159], [37.58638350293041, 55.75944803650047], [37.58643389912323, 55.75947986299383], [37.58643389912323, 55.759490471824954], [37.58646413683892, 55.75950108065607], [37.58649437455461, 55.75950108065607], [37.58656492922456, 55.75948693554791], [37.58662540465594, 55.75946571788567], [37.586635483894504, 55.75944096394639], [37.58660524617881, 55.75942681883823], [37.586635483894504, 55.75942681883823], [37.58664556313307, 55.75944096394639], [37.58670603856445, 55.75945864533159], [37.586746355518706, 55.75944450022343], [37.58681691018865, 55.75943742766935], [37.58686730638147, 55.75940913745303], [37.5868874648586, 55.75942328256119], [37.58696809876711, 55.75945157277751], [37.58701849495993, 55.75943389139231], [37.58707897039131, 55.75944096394639], [37.58709912886844, 55.75943742766935], [37.58709912886844, 55.759575342473916], [37.58706889115275, 55.75958241502799], [37.586988257244236, 55.759575342473916], [37.586927781812854, 55.759585951305034], [37.5868874648586, 55.75956826991983], [37.58685722714291, 55.75956473364279], [37.586826989427216, 55.75957887875095], [37.58680683095009, 55.759575342473916], [37.58673627628014, 55.75959302385911], [37.58673627628014, 55.75961777779839], [37.58676651399583, 55.75964960429175], [37.58675643475727, 55.75966021312287], [37.58670603856445, 55.75964606801471], [37.586665721610196, 55.759653140568794], [37.58662540465594, 55.759638995460634], [37.586554849985994, 55.75964606801471], [37.58651453303174, 55.759667285676954], [37.5864137406461, 55.75967789450807]]]}, "properties": {"id": 7, "bound": true, "edge_id": 13, "ID": "{af679a6e-6874-44d0-a2a0-8920101c7f53}", "na_obj": "\u0412\u0441\u043f\u043e\u043b\u044c\u043d\u044b\u0439 \u043f\u0435\u0440\u0435\u0443\u043b\u043e\u043a", "um_code": "004310", "no_omk": "-", "ao": "\u0426\u0410\u041e", "rajon": "\u041f\u0440\u0435\u0441\u043d\u0435\u043d\u0441\u043a\u0438\u0439", "status": "\u0421\u0443\u0449\u0435\u0441\u0442\u0432\u0443\u044e\u0449\u0438\u0435", "length": 88.2, "type_uds": "\u041e\u0434\u043d\u0430 \u043f\u0440\u043e\u0435\u0437\u0436\u0430\u044f \u0447\u0430\u0441\u0442\u044c", "rlane": "\u0414\u0430", "one_way": "\u043d\u0435\u0442", "kl_gp": "\u041f\u0440\u043e\u0447\u0430\u044f \u0443\u043b\u0438\u0447\u043d\u043e-\u0434\u043e\u0440\u043e\u0436\u043d\u0430\u044f \u0441\u0435\u0442\u044c \u041c\u043e\u0441\u043a\u0432\u044b", "class_active_2016": "\u0423\u043b\u0438\u0446\u044b \u0438 \u0434\u043e\u0440\u043e\u0433\u0438 \u043c\u0435\u0441\u0442\u043d\u043e\u0433\u043e \u0437\u043d\u0430\u0447\u0435\u043d\u0438\u044f", "offer_2016": "\u0423\u043b\u0438\u0446\u044b \u0438 \u0434\u043e\u0440\u043e\u0433\u0438 \u043c\u0435\u0441\u0442\u043d\u043e\u0433\u043e \u0437\u043d\u0430\u0447\u0435\u043d\u0438\u044f"}}, {"type": "Feature", "geometry": {"type": "Polygon", "coordinates": [[[37.58709912886844, 55.759805200481516], [37.587089049629874, 55.759791055373356], [37.587038653437055, 55.759776910265195], [37.58702857419849, 55.759762765157035], [37.58702857419849, 55.759738011217756], [37.58704873267562, 55.75973093866367], [37.58702857419849, 55.759709721001435], [37.587038653437055, 55.75969203961623], [37.58705881191418, 55.75969203961623], [37.58709912886844, 55.75967789450807], [37.58709912886844, 55.759805200481516]]]}, "properties": {"id": 8, "bound": true, "edge_id": 13, "ID": "{af679a6e-6874-44d0-a2a0-8920101c7f53}", "na_obj": "\u0412\u0441\u043f\u043e\u043b\u044c\u043d\u044b\u0439 \u043f\u0435\u0440\u0435\u0443\u043b\u043e\u043a", "um_code": "004310", "no_omk": "-", "ao": "\u0426\u0410\u041e", "rajon": "\u041f\u0440\u0435\u0441\u043d\u0435\u043d\u0441\u043a\u0438\u0439", "status": "\u0421\u0443\u0449\u0435\u0441\u0442\u0432\u0443\u044e\u0449\u0438\u0435", "length": 88.2, "type_uds": "\u041e\u0434\u043d\u0430 \u043f\u0440\u043e\u0435\u0437\u0436\u0430\u044f \u0447\u0430\u0441\u0442\u044c", "rlane": "\u0414\u0430", "one_way": "\u043d\u0435\u0442", "kl_gp": "\u041f\u0440\u043e\u0447\u0430\u044f \u0443\u043b\u0438\u0447\u043d\u043e-\u0434\u043e\u0440\u043e\u0436\u043d\u0430\u044f \u0441\u0435\u0442\u044c \u041c\u043e\u0441\u043a\u0432\u044b", "class_active_2016": "\u0423\u043b\u0438\u0446\u044b \u0438 \u0434\u043e\u0440\u043e\u0433\u0438 \u043c\u0435\u0441\u0442\u043d\u043e\u0433\u043e \u0437\u043d\u0430\u0447\u0435\u043d\u0438\u044f", "offer_2016": "\u0423\u043b\u0438\u0446\u044b \u0438 \u0434\u043e\u0440\u043e\u0433\u0438 \u043c\u0435\u0441\u0442\u043d\u043e\u0433\u043e \u0437\u043d\u0430\u0447\u0435\u043d\u0438\u044f"}}, {"type": "Feature", "geometry": {"type": "Polygon", "coordinates": [[[37.58683706866578, 55.759829954420795], [37.58683706866578, 55.759805200481516], [37.58681691018865, 55.75978398281928], [37.586826989427216, 55.75977337398815], [37.58689754409716, 55.75976983771112], [37.586927781812854, 55.759791055373356], [37.58696809876711, 55.759776910265195], [37.58701849495993, 55.759787519096314], [37.58701849495993, 55.75980873675856], [37.5869983364828, 55.759815809312634], [37.586907623335726, 55.759815809312634], [37.58683706866578, 55.759829954420795]]]}, "properties": {"id": 9, "bound": true, "edge_id": 13, "ID": "{af679a6e-6874-44d0-a2a0-8920101c7f53}", "na_obj": "\u0412\u0441\u043f\u043e\u043b\u044c\u043d\u044b\u0439 \u043f\u0435\u0440\u0435\u0443\u043b\u043e\u043a", "um_code": "004310", "no_omk": "-", "ao": "\u0426\u0410\u041e", "rajon": "\u041f\u0440\u0435\u0441\u043d\u0435\u043d\u0441\u043a\u0438\u0439", "status": "\u0421\u0443\u0449\u0435\u0441\u0442\u0432\u0443\u044e\u0449\u0438\u0435", "length": 88.2, "type_uds": "\u041e\u0434\u043d\u0430 \u043f\u0440\u043e\u0435\u0437\u0436\u0430\u044f \u0447\u0430\u0441\u0442\u044c", "rlane": "\u0414\u0430", "one_way": "\u043d\u0435\u0442", "kl_gp": "\u041f\u0440\u043e\u0447\u0430\u044f \u0443\u043b\u0438\u0447\u043d\u043e-\u0434\u043e\u0440\u043e\u0436\u043d\u0430\u044f \u0441\u0435\u0442\u044c \u041c\u043e\u0441\u043a\u0432\u044b", "class_active_2016": "\u0423\u043b\u0438\u0446\u044b \u0438 \u0434\u043e\u0440\u043e\u0433\u0438 \u043c\u0435\u0441\u0442\u043d\u043e\u0433\u043e \u0437\u043d\u0430\u0447\u0435\u043d\u0438\u044f", "offer_2016": "\u0423\u043b\u0438\u0446\u044b \u0438 \u0434\u043e\u0440\u043e\u0433\u0438 \u043c\u0435\u0441\u0442\u043d\u043e\u0433\u043e \u0437\u043d\u0430\u0447\u0435\u043d\u0438\u044f"}}, {"type": "Feature", "geometry": {"type": "Polygon", "coordinates": [[[37.58389393100516, 55.76002798593504], [37.58388385176659, 55.76001737710392], [37.5838536140509, 55.760010304549844], [37.58384353481234, 55.75998555061056], [37.58381329709665, 55.75997494177944], [37.58382337633521, 55.75996786922536], [37.583863693289466, 55.75996786922536], [37.58390401024372, 55.75994311528608], [37.58392416872085, 55.75995018784016], [37.583914089482285, 55.75996433294832], [37.58393424795941, 55.75998555061056], [37.583964485675104, 55.75999262316464], [37.58398464415223, 55.75998555061056], [37.583994723390795, 55.75999262316464], [37.583994723390795, 55.76002091338096], [37.58398464415223, 55.76002798593504], [37.58389393100516, 55.76002798593504]]]}, "properties": {"id": 10, "bound": true, "edge_id": 15, "ID": "{cf477ab7-d067-459f-a1da-815569bac2c7}", "na_obj": "\u0411\u0430\u0440\u0440\u0438\u043a\u0430\u0434\u043d\u0430\u044f \u0443\u043b\u0438\u0446\u0430", "um_code": "001270", "no_omk": "-", "ao": "\u0426\u0410\u041e", "rajon": "\u041f\u0440\u0435\u0441\u043d\u0435\u043d\u0441\u043a\u0438\u0439", "status": "\u0421\u0443\u0449\u0435\u0441\u0442\u0432\u0443\u044e\u0449\u0438\u0435", "length": 254.1, "type_uds": "\u041e\u0434\u043d\u0430 \u043f\u0440\u043e\u0435\u0437\u0436\u0430\u044f \u0447\u0430\u0441\u0442\u044c", "rlane": "\u0414\u0430", "one_way": "\u043d\u0435\u0442", "kl_gp": "\u041c\u0430\u0433\u0438\u0441\u0442\u0440\u0430\u043b\u044c\u043d\u044b\u0435 \u0443\u043b\u0438\u0446\u044b \u043e\u0431\u0449\u0435\u0433\u043e\u0440\u043e\u0434\u0441\u043a\u043e\u0433\u043e \u0437\u043d\u0430\u0447\u0435\u043d\u0438\u044f I \u043a\u043b\u0430\u0441\u0441\u0430 \u0446\u0435\u043d\u0442\u0440\u0430", "class_active_2016": "\u041c\u0430\u0433\u0438\u0441\u0442\u0440\u0430\u043b\u044c\u043d\u044b\u0435 \u0443\u043b\u0438\u0446\u044b \u043e\u0431\u0449\u0435\u0433\u043e\u0440\u043e\u0434\u0441\u043a\u043e\u0433\u043e \u0437\u043d\u0430\u0447\u0435\u043d\u0438\u044f 2-\u0433\u043e \u043a\u043b\u0430\u0441\u0441\u0430 - \u0440\u0435\u0433\u0443\u043b\u0438\u0440\u0443\u0435\u043c\u043e\u0433\u043e \u0434\u0432\u0438\u0436\u0435\u043d\u0438\u044f", "offer_2016": "\u041c\u0430\u0433\u0438\u0441\u0442\u0440\u0430\u043b\u044c\u043d\u044b\u0435 \u0443\u043b\u0438\u0446\u044b \u043e\u0431\u0449\u0435\u0433\u043e\u0440\u043e\u0434\u0441\u043a\u043e\u0433\u043e \u0437\u043d\u0430\u0447\u0435\u043d\u0438\u044f 1-\u0433\u043e \u043a\u043b\u0430\u0441\u0441\u0430 - \u043d\u0435\u043f\u0440\u0435\u0440\u044b\u0432\u043d\u043e\u0433\u043e \u0434\u0432\u0438\u0436\u0435\u043d\u0438\u044f"}}, {"type": "Feature", "geometry": {"type": "Polygon", "coordinates": [[[37.582472758367665, 55.76003152221208], [37.582472758367665, 55.760024449658005], [37.58243244141341, 55.760010304549844], [37.58245259989054, 55.75996079667128], [37.58249291684479, 55.75993957900904], [37.58251307532192, 55.75994311528608], [37.58253323379905, 55.759936042732], [37.58253323379905, 55.75992543390088], [37.582502996083356, 55.75991482506976], [37.58249291684479, 55.7598653171912], [37.5824626791291, 55.75985470836008], [37.58238204522059, 55.7598653171912], [37.582392124459155, 55.75980873675856], [37.582341728266336, 55.759791055373356], [37.58237196598203, 55.75977337398815], [37.58237196598203, 55.75975922887999], [37.582341728266336, 55.759752156325916], [37.582311490550644, 55.759762765157035], [37.58228125283495, 55.75975922887999], [37.5822409358807, 55.75978044654224], [37.58225101511926, 55.75979812792744], [37.58216030197219, 55.75982288186672], [37.58208974730224, 55.759787519096314], [37.582019192632295, 55.75976630143408], [37.58199903415517, 55.75976983771112], [37.58197887567804, 55.75979812792744], [37.58195871720091, 55.759805200481516], [37.58194863796235, 55.759829954420795], [37.58194863796235, 55.759571806196874], [37.58203935110942, 55.75956473364279], [37.58208974730224, 55.759547052257595], [37.58221069816501, 55.75946218160863], [37.58221069816501, 55.75945510905455], [37.58217038121075, 55.75944096394639], [37.58205950958655, 55.759504616933114], [37.58203935110942, 55.75949754437903], [37.58194863796235, 55.75951522576423], [37.58194863796235, 55.75950108065607], [37.58197887567804, 55.759490471824954], [37.581968796439476, 55.75948339927087], [37.5819889549166, 55.75947986299383], [37.58202927187086, 55.75948693554791], [37.58208974730224, 55.75946925416271], [37.582130064256496, 55.75939852862191], [37.582130064256496, 55.75938438351375], [37.58207966806368, 55.759366702128546], [37.582019192632295, 55.75937731095967], [37.5819889549166, 55.75939145606783], [37.58195871720091, 55.759380847236706], [37.5819889549166, 55.75934548446631], [37.58194863796235, 55.75933487563519], [37.58194863796235, 55.759161598060224], [37.58199903415517, 55.75914391667502], [37.58194863796235, 55.7591333078439], [37.58194863796235, 55.75869480949093], [37.58210990577937, 55.75866651927461], [37.58214014349506, 55.75864883788942], [37.58214014349506, 55.758641765335334], [37.582099826540805, 55.75862762022717], [37.582069588825114, 55.758631156504215], [37.582019192632295, 55.758606402564936], [37.58203935110942, 55.758602866287895], [37.58205950958655, 55.75860993884197], [37.58210990577937, 55.75861347511901], [37.58214014349506, 55.75860993884197], [37.582180460449315, 55.758592257456776], [37.58221069816501, 55.758602866287895], [37.58227117359639, 55.758578112348616], [37.58229133207352, 55.758574576071574], [37.58232156978921, 55.75858518490269], [37.58243244141341, 55.75855335840933], [37.58248283760623, 55.75855335840933], [37.58253323379905, 55.75852860447005], [37.5825735507533, 55.758549822132295], [37.5824626791291, 55.758588721179734], [37.5824626791291, 55.758606402564936], [37.58249291684479, 55.758617011396055], [37.58261386770756, 55.75858518490269], [37.58264410542325, 55.758592257456776], [37.58283561095596, 55.75853921330117], [37.58286584867165, 55.75853921330117], [37.58289608638734, 55.758549822132295], [37.58298679953442, 55.75852860447005], [37.58306743344293, 55.75856043096341], [37.5830472749658, 55.75857103979453], [37.5830472749658, 55.75859579373381], [37.58310775039718, 55.758617011396055], [37.58314806735144, 55.75859933001085], [37.58314806735144, 55.75856043096341], [37.58312790887431, 55.758535677024135], [37.583137988112874, 55.75852860447005], [37.583218622021384, 55.758493241699654], [37.58325893897564, 55.75850385053077], [37.58327909745277, 55.75849677797669], [37.58336981059984, 55.75844373382109], [37.58336981059984, 55.75841897988181], [37.58327909745277, 55.75839422594253], [37.58334965212271, 55.758369472003245], [37.583379889838405, 55.75837300828029], [37.583460523746915, 55.75833764550989], [37.583510919939734, 55.758249238583886], [37.58350084070117, 55.75822448464461], [37.58373266318814, 55.75822448464461], [37.583752821665264, 55.758235093475726], [37.58377298014239, 55.758235093475726], [37.58379313861952, 55.75822448464461], [37.584498685318984, 55.75822448464461], [37.584498685318984, 55.75825631113796], [37.58459947770462, 55.75829167390837], [37.58461963618175, 55.75828460135428], [37.58467003237457, 55.75829167390837], [37.584690190851695, 55.75828460135428], [37.584690190851695, 55.75825277486093], [37.58472042856739, 55.75822802092164], [37.58481114171446, 55.75822802092164], [37.58479098323733, 55.75825277486093], [37.584821220953025, 55.758259847415005], [37.58489177562297, 55.75823862975277], [37.58489177562297, 55.75822448464461], [37.58520423201845, 55.75822448464461], [37.58521431125701, 55.758249238583886], [37.5852445489727, 55.758259847415005], [37.58525462821127, 55.758273992523165], [37.585224390495576, 55.758288137631325], [37.58525462821127, 55.758298746462444], [37.58528486592696, 55.758298746462444], [37.585305024404086, 55.758327036678764], [37.58534534135834, 55.758341181786925], [37.58536549983547, 55.75833410923285], [37.58536549983547, 55.75831996412469], [37.58533526211978, 55.75830581901653], [37.585355420596905, 55.75829521018541], [37.585355420596905, 55.758249238583886], [37.585305024404086, 55.75822448464461], [37.58547637145967, 55.75822448464461], [37.58537557907403, 55.758259847415005], [37.585405816789724, 55.75829521018541], [37.585436054505415, 55.758302282739486], [37.585466292221106, 55.758298746462444], [37.585436054505415, 55.75831996412469], [37.58544613374398, 55.75833764550989], [37.585486450698234, 55.75837300828029], [37.58552676765249, 55.758383617111406], [37.58557716384531, 55.75836239944917], [37.58565779775382, 55.75838715338845], [37.585677956230946, 55.75838008083437], [37.585677956230946, 55.75836239944917], [37.5857182731852, 55.75834471806397], [37.585728352423764, 55.75830581901653], [37.58569811470807, 55.75828106507725], [37.58562756003813, 55.75826691996909], [37.58562756003813, 55.75822448464461], [37.58576866937802, 55.75822802092164], [37.58581906557084, 55.7582421660298], [37.58584930328653, 55.758259847415005], [37.5858291448094, 55.75827045624612], [37.5858291448094, 55.75829167390837], [37.585889620240785, 55.75830581901653], [37.58599041262642, 55.758273992523165], [37.58599041262642, 55.75826691996909], [37.586020650342114, 55.75825631113796], [37.586020650342114, 55.75822448464461], [37.58615168044344, 55.75822448464461], [37.58615168044344, 55.758235093475726], [37.586181918159134, 55.7582421660298], [37.586212155874826, 55.758231557198684], [37.586212155874826, 55.75822448464461], [37.5864137406461, 55.75822448464461], [37.58640366140754, 55.75823862975277], [37.58636334445328, 55.758249238583886], [37.58635326521472, 55.75827045624612], [37.58635326521472, 55.75828106507725], [37.586373423691846, 55.758288137631325], [37.58636334445328, 55.758302282739486], [37.58638350293041, 55.758316427847646], [37.58636334445328, 55.75830935529357], [37.58631294826046, 55.75830581901653], [37.586262552067645, 55.758327036678764], [37.586262552067645, 55.75834471806397], [37.58623231435195, 55.758355326895085], [37.58622223511339, 55.75837300828029], [37.58620207663626, 55.75838008083437], [37.58612144272775, 55.75839422594253], [37.58607104653493, 55.75841897988181], [37.58601057110355, 55.75842958871293], [37.58596017491073, 55.75844727009813], [37.585940016433604, 55.75844727009813], [37.585889620240785, 55.75846495148333], [37.58586946176366, 55.75846495148333], [37.585808986332275, 55.75848616914557], [37.58573843166233, 55.758493241699654], [37.58563763927669, 55.75853214074709], [37.58544613374398, 55.758574576071574], [37.585436054505415, 55.75856750351749], [37.58554692612962, 55.758535677024135], [37.58554692612962, 55.75849677797669], [37.58553684689105, 55.75848616914557], [37.58542597526685, 55.75845080637517], [37.585436054505415, 55.75841897988181], [37.585405816789724, 55.75840837105069], [37.58536549983547, 55.75840837105069], [37.58533526211978, 55.75841897988181], [37.58533526211978, 55.75844019754405], [37.58531510364265, 55.75844727009813], [37.58529494516552, 55.75845080637517], [37.5852445489727, 55.75843666126701], [37.58520423201845, 55.75844373382109], [37.58515383582563, 55.75847909659149], [37.58510343963281, 55.758493241699654], [37.585063122678555, 55.75849677797669], [37.585063122678555, 55.75847202403741], [37.58504296420143, 55.75846495148333], [37.585012726485736, 55.75846495148333], [37.584932092577226, 55.75848970542261], [37.58487161714584, 55.75849677797669], [37.584821220953025, 55.75844373382109], [37.584821220953025, 55.75841897988181], [37.5848010624759, 55.75840837105069], [37.58476074552164, 55.75833764550989], [37.58473050780595, 55.758330572955806], [37.58470027009026, 55.758341181786925], [37.584690190851695, 55.75836239944917], [37.584740587044514, 55.75841544360477], [37.584740587044514, 55.75843666126701], [37.58478090399877, 55.75845434265221], [37.58478090399877, 55.75848616914557], [37.5848010624759, 55.75850031425373], [37.58481114171446, 55.758535677024135], [37.58484137943015, 55.75856043096341], [37.58487161714584, 55.75857103979453], [37.5849119341001, 55.75856750351749], [37.584952251054354, 55.75855335840933], [37.584982488770045, 55.75858164862565], [37.58496233029292, 55.758588721179734], [37.58494217181579, 55.758631156504215], [37.58499256800861, 55.75870541832205], [37.58499256800861, 55.75874785364653], [37.585063122678555, 55.75876907130878], [37.58509336039425, 55.75875846247766], [37.5851336773485, 55.75875846247766], [37.58520423201845, 55.758723099707254], [37.5852445489727, 55.758726635984296], [37.585305024404086, 55.75870188204502], [37.58536549983547, 55.75869127321389], [37.585385658312596, 55.758673591828696], [37.58544613374398, 55.75868773693686], [37.58550660917536, 55.75868066438277], [37.58550660917536, 55.75873017226134], [37.58555700536818, 55.758751389923574], [37.58555700536818, 55.75876907130878], [37.58558724308387, 55.758779680139895], [37.58561748079956, 55.75876907130878], [37.58565779775382, 55.75873017226134], [37.5857182731852, 55.75870895459909], [37.58573843166233, 55.75868773693686], [37.58576866937802, 55.75868066438277], [37.5858291448094, 55.75871956343021], [37.58585938252509, 55.75870541832205], [37.58585938252509, 55.75866651927461], [37.5858291448094, 55.758659446720536], [37.58581906557084, 55.75864883788942], [37.58584930328653, 55.75863822905829], [37.58584930328653, 55.75862762022717], [37.58578882785515, 55.758602866287895], [37.585758590139456, 55.75861347511901], [37.58573843166233, 55.758606402564936], [37.58562756003813, 55.75863469278126], [37.58557716384531, 55.75863469278126], [37.58554692612962, 55.758645301612376], [37.58553684689105, 55.758631156504215], [37.58555700536818, 55.75862408395013], [37.58555700536818, 55.758592257456776], [37.58561748079956, 55.75857103979453], [37.58573843166233, 55.75854628585525], [37.58576866937802, 55.75855689468637], [37.58581906557084, 55.75853921330117], [37.58587954100222, 55.75852860447005], [37.58586946176366, 55.758535677024135], [37.58589969947935, 55.75854628585525], [37.58592993719504, 55.75855335840933], [37.585970254149295, 55.758549822132295], [37.58607104653493, 55.75850385053077], [37.58606096729637, 55.75847909659149], [37.58622223511339, 55.75841897988181], [37.58624239359052, 55.75843312498997], [37.58623231435195, 55.75846848776037], [37.58625247282908, 55.75847909659149], [37.58628271054477, 55.75848970542261], [37.58638350293041, 55.75848970542261], [37.58648429531605, 55.75846141520629], [37.58648429531605, 55.75845080637517], [37.58656492922456, 55.75842605243589], [37.58657500846312, 55.75841190732773], [37.58661532541738, 55.75840483477365], [37.586665721610196, 55.75840483477365], [37.586746355518706, 55.75839068966549], [37.5867765932344, 55.75839422594253], [37.58672619704158, 55.75840129849661], [37.58667580084876, 55.75841897988181], [37.58668588008732, 55.75842605243589], [37.586665721610196, 55.75843312498997], [37.586665721610196, 55.75844373382109], [37.58669595932589, 55.75845787892925], [37.58683706866578, 55.75842605243589], [37.58686730638147, 55.75843312498997], [37.58691770257429, 55.75841544360477], [37.586927781812854, 55.75837300828029], [37.586988257244236, 55.75837300828029], [37.58696809876711, 55.758397762219566], [37.58696809876711, 55.75840837105069], [37.586988257244236, 55.75841544360477], [37.58704873267562, 55.75839068966549], [37.58705881191418, 55.75840129849661], [37.58709912886844, 55.75841190732773], [37.58706889115275, 55.75842251615885], [37.58706889115275, 55.75845787892925], [37.58709912886844, 55.75846141520629], [37.58709912886844, 55.75848263286853], [37.58707897039131, 55.75848970542261], [37.58709912886844, 55.75850385053077], [37.58709912886844, 55.75864883788942], [37.587038653437055, 55.75863469278126], [37.587008415721364, 55.75863469278126], [37.58681691018865, 55.758684200659815], [37.58676651399583, 55.758684200659815], [37.58672619704158, 55.758698345767975], [37.58670603856445, 55.758698345767975], [37.58668588008732, 55.75870541832205], [37.58668588008732, 55.75871956343021], [37.58670603856445, 55.758754926200616], [37.58672619704158, 55.75876199875469], [37.58676651399583, 55.758754926200616], [37.586796751711525, 55.75877260758582], [37.58678667247296, 55.75878321641694], [37.586826989427216, 55.75880089780214], [37.586877385620035, 55.75880089780214], [37.586907623335726, 55.758793825248055], [37.586927781812854, 55.75878675269398], [37.58693786105142, 55.758765535031735], [37.5869983364828, 55.75874785364653], [37.587008415721364, 55.75876199875469], [37.58697817800567, 55.75877260758582], [37.58697817800567, 55.758793825248055], [37.5869983364828, 55.75880089780214], [37.58704873267562, 55.758804434079174], [37.58709912886844, 55.758793825248055], [37.587089049629874, 55.75893174005262], [37.58706889115275, 55.75893527632966], [37.587038653437055, 55.75892466749854], [37.5869983364828, 55.75893174005262], [37.58697817800567, 55.7588857684511], [37.58694794028998, 55.758875159619976], [37.58691770257429, 55.7588857684511], [37.58694794028998, 55.7589741753771], [37.586988257244236, 55.75897771165414], [37.58709912886844, 55.7589564939919], [37.587089049629874, 55.75932073052703], [37.58706889115275, 55.75932073052703], [37.587008415721364, 55.759295976587744], [37.586958019528545, 55.759189888276545], [37.586927781812854, 55.759179279445426], [37.58689754409716, 55.759179279445426], [37.586877385620035, 55.75917220689134], [37.586847147904344, 55.75918281572246], [37.58678667247296, 55.759179279445426], [37.58672619704158, 55.75919696083062], [37.58664556313307, 55.759165134337266], [37.58661532541738, 55.759165134337266], [37.586504453793175, 55.7591863519995], [37.5865246122703, 55.759232323601026], [37.58648429531605, 55.759242932432144], [37.586423819884665, 55.75923585987807], [37.586373423691846, 55.759246468709186], [37.58635326521472, 55.7592393961551], [37.58632302749903, 55.7592393961551], [37.58628271054477, 55.75926061381735], [37.58624239359052, 55.759242932432144], [37.58616175968201, 55.75923585987807], [37.58612144272775, 55.75925000498623], [37.586101284250624, 55.759246468709186], [37.58606096729637, 55.75926768637142], [37.5860811257735, 55.75930304914183], [37.585970254149295, 55.75932073052703], [37.58598033338786, 55.75934548446631], [37.58592993719504, 55.759324266804065], [37.58589969947935, 55.75933487563519], [37.58589969947935, 55.759352557020385], [37.58587954100222, 55.75935609329743], [37.58585938252509, 55.75934902074335], [37.585839224047966, 55.759324266804065], [37.585808986332275, 55.75931719424999], [37.58579890709371, 55.75935962957447], [37.58576866937802, 55.759352557020385], [37.58574851090089, 55.75935962957447], [37.58574851090089, 55.75938438351375], [37.585728352423764, 55.75940560117599], [37.58576866937802, 55.75942328256119], [37.58578882785515, 55.75947632671679], [37.585808986332275, 55.75948339927087], [37.585839224047966, 55.75946571788567], [37.58585938252509, 55.75948339927087], [37.58563763927669, 55.75952229831831], [37.585597322322435, 55.75953997970351], [37.58563763927669, 55.75955412481167], [37.58569811470807, 55.75954351598055], [37.585728352423764, 55.75956473364279], [37.58576866937802, 55.759561197365755], [37.58579890709371, 55.75957887875095], [37.58579890709371, 55.75959656013615], [37.58586946176366, 55.75962131407543], [37.58586946176366, 55.759638995460634], [37.585889620240785, 55.75964606801471], [37.585919857956476, 55.75963545918359], [37.58592993719504, 55.75962131407543], [37.58595009567217, 55.75962131407543], [37.58599041262642, 55.75960716896727], [37.586020650342114, 55.75960716896727], [37.58604080881924, 55.759600096413195], [37.5860811257735, 55.75960716896727], [37.58612144272775, 55.75959302385911], [37.586181918159134, 55.75958948758207], [37.58622223511339, 55.75960363269023], [37.58624239359052, 55.759600096413195], [37.58632302749903, 55.75962485035247], [37.58632302749903, 55.759656676845836], [37.586292789783336, 55.759653140568794], [37.586262552067645, 55.75966374939991], [37.58625247282908, 55.759695575893275], [37.586131521966315, 55.75971679355551], [37.58615168044344, 55.759752156325916], [37.586181918159134, 55.759762765157035], [37.58620207663626, 55.75975569260296], [37.58631294826046, 55.759752156325916], [37.58643389912323, 55.75971679355551], [37.58648429531605, 55.759720329832554], [37.58653469150887, 55.75969911217032], [37.58657500846312, 55.75969911217032], [37.58659516694025, 55.75969203961623], [37.58665564237163, 55.75970618472439], [37.58668588008732, 55.759695575893275], [37.58673627628014, 55.75971679355551], [37.58673627628014, 55.759748620048875], [37.58675643475727, 55.759762765157035], [37.58672619704158, 55.75977337398815], [37.58672619704158, 55.7598122730356], [37.58676651399583, 55.75983349069784], [37.586746355518706, 55.75984056325192], [37.586716117803014, 55.75983349069784], [37.58669595932589, 55.75984056325192], [37.58669595932589, 55.75986178091416], [37.586716117803014, 55.75986885346824], [37.58670603856445, 55.759936042732], [37.5867765932344, 55.75996433294832], [37.5867765932344, 55.75997494177944], [37.58673627628014, 55.759982014333524], [37.58670603856445, 55.7599714055024], [37.58670603856445, 55.75995726039424], [37.58668588008732, 55.75995018784016], [37.58665564237163, 55.75996433294832], [37.58661532541738, 55.75996433294832], [37.586585087701685, 55.7599714055024], [37.58656492922456, 55.75996433294832], [37.58654477074743, 55.75996786922536], [37.58651453303174, 55.75998555061056], [37.58649437455461, 55.75997847805648], [37.58638350293041, 55.75998555061056], [37.58636334445328, 55.75997847805648], [37.58632302749903, 55.759982014333524], [37.5863028690219, 55.75996079667128], [37.58631294826046, 55.75994665156312], [37.58624239359052, 55.75991128879272], [37.586212155874826, 55.75992189762384], [37.586212155874826, 55.75994311528608], [37.58624239359052, 55.7599537241172], [37.58622223511339, 55.75996433294832], [37.58622223511339, 55.75998555061056], [37.58625247282908, 55.75999969571872], [37.58620207663626, 55.76002091338096], [37.58623231435195, 55.76003152221208], [37.58607104653493, 55.76002798593504], [37.58614160120488, 55.76000323199576], [37.58614160120488, 55.75997847805648], [37.58606096729637, 55.75994311528608], [37.58606096729637, 55.75992189762384], [37.58609120501206, 55.75992543390088], [37.58612144272775, 55.75991482506976], [37.58612144272775, 55.75989714368456], [37.5860811257735, 55.7598829985764], [37.5860811257735, 55.759847635806], [37.586050888057805, 55.759819345589676], [37.58598033338786, 55.759815809312634], [37.58596017491073, 55.75982288186672], [37.58589969947935, 55.75982641814376], [37.58587954100222, 55.759819345589676], [37.58584930328653, 55.759776910265195], [37.58585938252509, 55.7597415474948], [37.585839224047966, 55.759723866109596], [37.585808986332275, 55.75971679355551], [37.585758590139456, 55.75962131407543], [37.58569811470807, 55.75958948758207], [37.58562756003813, 55.75960363269023], [37.58557716384531, 55.75960363269023], [37.58552676765249, 55.75961777779839], [37.58550660917536, 55.75962485035247], [37.58550660917536, 55.759638995460634], [37.585436054505415, 55.75966374939991], [37.58542597526685, 55.759681430785115], [37.58539573755116, 55.75968850333919], [37.58534534135834, 55.759681430785115], [37.58526470744983, 55.75969911217032], [37.58528486592696, 55.759738011217756], [37.58531510364265, 55.75974508377183], [37.58533526211978, 55.759738011217756], [37.58533526211978, 55.75972740238664], [37.58539573755116, 55.75971679355551], [37.585466292221106, 55.7597415474948], [37.58555700536818, 55.75971325727848], [37.58562756003813, 55.75970618472439], [37.58566787699238, 55.75969203961623], [37.58569811470807, 55.759695575893275], [37.58574851090089, 55.759720329832554], [37.58574851090089, 55.75976630143408], [37.58576866937802, 55.759776910265195], [37.58576866937802, 55.759805200481516], [37.58581906557084, 55.759819345589676], [37.58584930328653, 55.75986885346824], [37.585889620240785, 55.75987946229936], [37.585919857956476, 55.759872389745276], [37.585940016433604, 55.759886534853436], [37.58587954100222, 55.75989714368456], [37.585839224047966, 55.75989360740752], [37.58581906557084, 55.75991128879272], [37.5858291448094, 55.75992543390088], [37.58579890709371, 55.75993957900904], [37.585808986332275, 55.75994665156312], [37.58578882785515, 55.75995726039424], [37.58578882785515, 55.75997847805648], [37.58576866937802, 55.75998555061056], [37.58569811470807, 55.75997494177944], [37.58566787699238, 55.75998555061056], [37.58566787699238, 55.76003152221208], [37.5854965299368, 55.76003152221208], [37.58550660917536, 55.76001737710392], [37.58547637145967, 55.7600067682728], [37.58544613374398, 55.76001737710392], [37.58545621298254, 55.76003152221208], [37.58541589602829, 55.76003152221208], [37.58539573755116, 55.76002091338096], [37.58536549983547, 55.76001737710392], [37.58534534135834, 55.76003152221208], [37.58528486592696, 55.76003152221208], [37.58529494516552, 55.76000323199576], [37.58531510364265, 55.759996159441684], [37.58534534135834, 55.76001384082688], [37.585405816789724, 55.75999969571872], [37.585405816789724, 55.7599890868876], [37.585385658312596, 55.759982014333524], [37.58539573755116, 55.75996433294832], [37.58536549983547, 55.75995726039424], [37.58531510364265, 55.75996786922536], [37.5852445489727, 55.75996786922536], [37.5852445489727, 55.759936042732], [37.58521431125701, 55.75992189762384], [37.58520423201845, 55.75989007113048], [37.58517399430276, 55.7598829985764], [37.585143756587065, 55.75989714368456], [37.585143756587065, 55.75992189762384], [37.58512359810994, 55.75993957900904], [37.58512359810994, 55.75996786922536], [37.58516391506419, 55.76003152221208], [37.58473050780595, 55.76003152221208], [37.58470027009026, 55.76002091338096], [37.58468011161313, 55.76003152221208], [37.58463979465888, 55.76003152221208], [37.58462971542031, 55.759996159441684], [37.58456923998893, 55.759982014333524], [37.58450876455755, 55.76001384082688], [37.58450876455755, 55.76003152221208], [37.584397892933346, 55.76003152221208], [37.584397892933346, 55.760024449658005], [37.58435757597909, 55.76001384082688], [37.5843273382634, 55.760024449658005], [37.5843273382634, 55.76003152221208], [37.58430717978627, 55.76003152221208], [37.584287021309144, 55.75997494177944], [37.58418622892351, 55.75994665156312], [37.58418622892351, 55.75992897017792], [37.584155991207815, 55.7599183613468], [37.58411567425356, 55.75992189762384], [37.58409551577643, 55.75991482506976], [37.58403504034505, 55.75993957900904], [37.584045119583614, 55.75994665156312], [37.584024961106486, 55.7599537241172], [37.58397456491367, 55.75994311528608], [37.583964485675104, 55.75992189762384], [37.58393424795941, 55.75991128879272], [37.58389393100516, 55.7599183613468], [37.583863693289466, 55.75990775251568], [37.58382337633521, 55.7599183613468], [37.58379313861952, 55.75991128879272], [37.58377298014239, 55.7599183613468], [37.58377298014239, 55.7599714055024], [37.583752821665264, 55.75997847805648], [37.5837427424267, 55.7600067682728], [37.58372258394957, 55.76000323199576], [37.58369234623388, 55.76001384082688], [37.58369234623388, 55.76003152221208], [37.58366210851819, 55.76003152221208], [37.58368226699532, 55.76001737710392], [37.58368226699532, 55.75999969571872], [37.58365202927963, 55.7599890868876], [37.583702425472445, 55.75995018784016], [37.58368226699532, 55.75994311528608], [37.58368226699532, 55.75992543390088], [37.58366210851819, 55.75991482506976], [37.58366210851819, 55.7598829985764], [37.5836318708025, 55.759872389745276], [37.58355123689399, 55.75989360740752], [37.583490761462606, 55.75989360740752], [37.583329493645586, 55.75995018784016], [37.583329493645586, 55.75996079667128], [37.58336981059984, 55.75997494177944], [37.58342020679266, 55.7599714055024], [37.58350084070117, 55.75993957900904], [37.583571395371116, 55.75996079667128], [37.58358147460968, 55.759982014333524], [37.583510919939734, 55.7600067682728], [37.58350084070117, 55.76003152221208], [37.58289608638734, 55.76003152221208], [37.58281545247883, 55.759982014333524], [37.58278521476314, 55.7599714055024], [37.58274489780889, 55.75997494177944], [37.58274489780889, 55.75994665156312], [37.58270458085463, 55.759936042732], [37.58267434313894, 55.75990775251568], [37.582634026184685, 55.75989360740752], [37.582583629991866, 55.75991128879272], [37.582553392276175, 55.75994665156312], [37.582603788468994, 55.75995018784016], [37.58264410542325, 55.75996786922536], [37.58270458085463, 55.76003152221208], [37.582472758367665, 55.76003152221208]]]}, "properties": {"id": 11, "bound": true, "edge_id": 9, "ID": "{9827d56d-27d1-4378-858d-676600f4152a}", "na_obj": "\u0431/\u043d", "um_code": "-", "no_omk": "-", "ao": "\u0426\u0410\u041e", "rajon": "\u041f\u0440\u0435\u0441\u043d\u0435\u043d\u0441\u043a\u0438\u0439", "status": "\u0421\u0443\u0449\u0435\u0441\u0442\u0432\u0443\u044e\u0449\u0438\u0435", "length": 55.8, "type_uds": "\u0421\u044a\u0435\u0437\u0434", "rlane": "\u0414\u0430", "one_way": "\u0434\u0430", "kl_gp": "\u041c\u0430\u0433\u0438\u0441\u0442\u0440\u0430\u043b\u044c\u043d\u044b\u0435 \u0443\u043b\u0438\u0446\u044b \u043e\u0431\u0449\u0435\u0433\u043e\u0440\u043e\u0434\u0441\u043a\u043e\u0433\u043e \u0437\u043d\u0430\u0447\u0435\u043d\u0438\u044f I \u043a\u043b\u0430\u0441\u0441\u0430 \u0446\u0435\u043d\u0442\u0440\u0430", "class_active_2016": "-", "offer_2016": "-"}}, {"type": "Feature", "geometry": {"type": "Polygon", "coordinates": [[[37.58194863796235, 55.76003152221208], [37.58194863796235, 55.75983702697488], [37.58197887567804, 55.759886534853436], [37.582099826540805, 55.75993250645496], [37.58211998501793, 55.7600067682728], [37.582230856642134, 55.76003152221208], [37.58194863796235, 55.76003152221208]]]}, "properties": {"id": 12, "bound": true, "edge_id": 15, "ID": "{cf477ab7-d067-459f-a1da-815569bac2c7}", "na_obj": "\u0411\u0430\u0440\u0440\u0438\u043a\u0430\u0434\u043d\u0430\u044f \u0443\u043b\u0438\u0446\u0430", "um_code": "001270", "no_omk": "-", "ao": "\u0426\u0410\u041e", "rajon": "\u041f\u0440\u0435\u0441\u043d\u0435\u043d\u0441\u043a\u0438\u0439", "status": "\u0421\u0443\u0449\u0435\u0441\u0442\u0432\u0443\u044e\u0449\u0438\u0435", "length": 254.1, "type_uds": "\u041e\u0434\u043d\u0430 \u043f\u0440\u043e\u0435\u0437\u0436\u0430\u044f \u0447\u0430\u0441\u0442\u044c", "rlane": "\u0414\u0430", "one_way": "\u043d\u0435\u0442", "kl_gp": "\u041c\u0430\u0433\u0438\u0441\u0442\u0440\u0430\u043b\u044c\u043d\u044b\u0435 \u0443\u043b\u0438\u0446\u044b \u043e\u0431\u0449\u0435\u0433\u043e\u0440\u043e\u0434\u0441\u043a\u043e\u0433\u043e \u0437\u043d\u0430\u0447\u0435\u043d\u0438\u044f I \u043a\u043b\u0430\u0441\u0441\u0430 \u0446\u0435\u043d\u0442\u0440\u0430", "class_active_2016": "\u041c\u0430\u0433\u0438\u0441\u0442\u0440\u0430\u043b\u044c\u043d\u044b\u0435 \u0443\u043b\u0438\u0446\u044b \u043e\u0431\u0449\u0435\u0433\u043e\u0440\u043e\u0434\u0441\u043a\u043e\u0433\u043e \u0437\u043d\u0430\u0447\u0435\u043d\u0438\u044f 2-\u0433\u043e \u043a\u043b\u0430\u0441\u0441\u0430 - \u0440\u0435\u0433\u0443\u043b\u0438\u0440\u0443\u0435\u043c\u043e\u0433\u043e \u0434\u0432\u0438\u0436\u0435\u043d\u0438\u044f", "offer_2016": "\u041c\u0430\u0433\u0438\u0441\u0442\u0440\u0430\u043b\u044c\u043d\u044b\u0435 \u0443\u043b\u0438\u0446\u044b \u043e\u0431\u0449\u0435\u0433\u043e\u0440\u043e\u0434\u0441\u043a\u043e\u0433\u043e \u0437\u043d\u0430\u0447\u0435\u043d\u0438\u044f 1-\u0433\u043e \u043a\u043b\u0430\u0441\u0441\u0430 - \u043d\u0435\u043f\u0440\u0435\u0440\u044b\u0432\u043d\u043e\u0433\u043e \u0434\u0432\u0438\u0436\u0435\u043d\u0438\u044f"}}]}