{"type": "FeatureCollection", "features": [{"type": "Feature", "geometry": {"type": "Polygon", "coordinates": [[[37.581640183925636, 55.760037557317666], [37.581640183925636, 55.75821395513332], [37.587117265211425, 55.75821395513332], [37.587117265211425, 55.760037557317666], [37.581640183925636, 55.760037557317666]]]}, "properties": {"id": 0, "bound": true, "edge_id": 9, "ID": "{9827d56d-27d1-4378-858d-676600f4152a}", "na_obj": "\u0431/\u043d", "um_code": "-", "no_omk": "-", "ao": "\u0426\u0410\u041e", "rajon": "\u041f\u0440\u0435\u0441\u043d\u0435\u043d\u0441\u043a\u0438\u0439", "status": "\u0421\u0443\u0449\u0435\u0441\u0442\u0432\u0443\u044e\u0449\u0438\u0435", "length": 55.8, "type_uds": "\u0421\u044a\u0435\u0437\u0434", "rlane": "\u0414\u0430", "one_way": "\u0434\u0430", "kl_gp": "\u041c\u0430\u0433\u0438\u0441\u0442\u0440\u0430\u043b\u044c\u043d\u044b\u0435 \u0443\u043b\u0438\u0446\u044b \u043e\u0431\u0449\u0435\u0433\u043e\u0440\u043e\u0434\u0441\u043a\u043e\u0433\u043e \u0437\u043d\u0430\u0447\u0435\u043d\u0438\u044f I \u043a\u043b\u0430\u0441\u0441\u0430 \u0446\u0435\u043d\u0442\u0440\u0430", "class_active_2016": "-", "offer_2016": "-"}}]}