{"type": "FeatureCollection", "features": [{"type": "Feature", "geometry": {"type": "Polygon", "coordinates": [[[37.593417328802836, 55.76586511466277], [37.59340879497767, 55.76585804933736], [37.593477065579, 55.76585804933736], [37.5934514641035, 55.76586511466277], [37.593417328802836, 55.76586511466277]]]}, "properties": {"id": 0, "bound": true, "edge_id": 1, "ID": "{8c3457b3-9075-439f-9835-7e3044231d47}", "na_obj": "\u0415\u0440\u043c\u043e\u043b\u0430\u0435\u0432\u0441\u043a\u0438\u0439 \u043f\u0435\u0440\u0435\u0443\u043b\u043e\u043a", "um_code": "007460", "no_omk": "-", "ao": "\u0426\u0410\u041e", "rajon": "\u041f\u0440\u0435\u0441\u043d\u0435\u043d\u0441\u043a\u0438\u0439", "status": "\u0421\u0443\u0449\u0435\u0441\u0442\u0432\u0443\u044e\u0449\u0438\u0435", "length": 142.1, "type_uds": "\u041e\u0434\u043d\u0430 \u043f\u0440\u043e\u0435\u0437\u0436\u0430\u044f \u0447\u0430\u0441\u0442\u044c", "rlane": "\u0414\u0430", "one_way": "\u0434\u0430", "kl_gp": "\u041f\u0440\u043e\u0447\u0430\u044f \u0443\u043b\u0438\u0447\u043d\u043e-\u0434\u043e\u0440\u043e\u0436\u043d\u0430\u044f \u0441\u0435\u0442\u044c \u041c\u043e\u0441\u043a\u0432\u044b", "class_active_2016": "\u0423\u043b\u0438\u0446\u044b \u0438 \u0434\u043e\u0440\u043e\u0433\u0438 \u043c\u0435\u0441\u0442\u043d\u043e\u0433\u043e \u0437\u043d\u0430\u0447\u0435\u043d\u0438\u044f", "offer_2016": "\u0423\u043b\u0438\u0446\u044b \u0438 \u0434\u043e\u0440\u043e\u0433\u0438 \u043c\u0435\u0441\u0442\u043d\u043e\u0433\u043e \u0437\u043d\u0430\u0447\u0435\u043d\u0438\u044f"}}, {"type": "Feature", "geometry": {"type": "Polygon", "coordinates": [[[37.59024274584089, 55.765872179988186], [37.59020861054022, 55.76586511466277], [37.59020007671506, 55.76585804933736], [37.59023421201572, 55.76585804933736], [37.590251279666056, 55.76586511466277], [37.590276881141556, 55.76586158200007], [37.59024274584089, 55.765872179988186]]]}, "properties": {"id": 1, "bound": true, "edge_id": 8, "ID": "{b327554a-ee32-484d-b1f9-a64cd298391e}", "na_obj": "\u041a\u0440\u0430\u0441\u0438\u043d\u0430 \u0443\u043b\u0438\u0446\u0430", "um_code": "011550", "no_omk": "-", "ao": "\u0426\u0410\u041e", "rajon": "\u041f\u0440\u0435\u0441\u043d\u0435\u043d\u0441\u043a\u0438\u0439", "status": "\u0421\u0443\u0449\u0435\u0441\u0442\u0432\u0443\u044e\u0449\u0438\u0435", "length": 276.6, "type_uds": "\u041e\u0434\u043d\u0430 \u043f\u0440\u043e\u0435\u0437\u0436\u0430\u044f \u0447\u0430\u0441\u0442\u044c", "rlane": "\u0414\u0430", "one_way": "\u0434\u0430", "kl_gp": "\u041c\u0430\u0433\u0438\u0441\u0442\u0440\u0430\u043b\u044c\u043d\u044b\u0435 \u0443\u043b\u0438\u0446\u044b \u0440\u0430\u0439\u043e\u043d\u043d\u043e\u0433\u043e \u0437\u043d\u0430\u0447\u0435\u043d\u0438\u044f \u0446\u0435\u043d\u0442\u0440\u0430", "class_active_2016": "\u0423\u043b\u0438\u0446\u044b \u0438 \u0434\u043e\u0440\u043e\u0433\u0438 \u043c\u0435\u0441\u0442\u043d\u043e\u0433\u043e \u0437\u043d\u0430\u0447\u0435\u043d\u0438\u044f", "offer_2016": "\u041c\u0430\u0433\u0438\u0441\u0442\u0440\u0430\u043b\u044c\u043d\u044b\u0435 \u0443\u043b\u0438\u0446\u044b \u0440\u0430\u0439\u043e\u043d\u043d\u043e\u0433\u043e \u0437\u043d\u0430\u0447\u0435\u043d\u0438\u044f"}}, {"type": "Feature", "geometry": {"type": "Polygon", "coordinates": [[[37.592435938908686, 55.765875712650896], [37.592461540384186, 55.76585804933736], [37.59247860803452, 55.76585804933736], [37.59247007420935, 55.765872179988186], [37.592435938908686, 55.765875712650896]]]}, "properties": {"id": 2, "bound": true, "edge_id": 1, "ID": "{8c3457b3-9075-439f-9835-7e3044231d47}", "na_obj": "\u0415\u0440\u043c\u043e\u043b\u0430\u0435\u0432\u0441\u043a\u0438\u0439 \u043f\u0435\u0440\u0435\u0443\u043b\u043e\u043a", "um_code": "007460", "no_omk": "-", "ao": "\u0426\u0410\u041e", "rajon": "\u041f\u0440\u0435\u0441\u043d\u0435\u043d\u0441\u043a\u0438\u0439", "status": "\u0421\u0443\u0449\u0435\u0441\u0442\u0432\u0443\u044e\u0449\u0438\u0435", "length": 142.1, "type_uds": "\u041e\u0434\u043d\u0430 \u043f\u0440\u043e\u0435\u0437\u0436\u0430\u044f \u0447\u0430\u0441\u0442\u044c", "rlane": "\u0414\u0430", "one_way": "\u0434\u0430", "kl_gp": "\u041f\u0440\u043e\u0447\u0430\u044f \u0443\u043b\u0438\u0447\u043d\u043e-\u0434\u043e\u0440\u043e\u0436\u043d\u0430\u044f \u0441\u0435\u0442\u044c \u041c\u043e\u0441\u043a\u0432\u044b", "class_active_2016": "\u0423\u043b\u0438\u0446\u044b \u0438 \u0434\u043e\u0440\u043e\u0433\u0438 \u043c\u0435\u0441\u0442\u043d\u043e\u0433\u043e \u0437\u043d\u0430\u0447\u0435\u043d\u0438\u044f", "offer_2016": "\u0423\u043b\u0438\u0446\u044b \u0438 \u0434\u043e\u0440\u043e\u0433\u0438 \u043c\u0435\u0441\u0442\u043d\u043e\u0433\u043e \u0437\u043d\u0430\u0447\u0435\u043d\u0438\u044f"}}, {"type": "Feature", "geometry": {"type": "Polygon", "coordinates": [[[37.59126680486087, 55.7658792453136], [37.59124120338537, 55.76586864732548], [37.59124120338537, 55.76585804933736], [37.591258271035706, 55.76585804933736], [37.591283872511205, 55.765872179988186], [37.59126680486087, 55.7658792453136]]]}, "properties": {"id": 3, "bound": true, "edge_id": 4, "ID": "{20444462-4e3f-43b9-ba10-212301728357}", "na_obj": "\u0421\u0430\u0434\u043e\u0432\u043e\u0435 \u041a\u043e\u043b\u044c\u0446\u043e (\u0421\u0430\u0434\u043e\u0432\u0430\u044f \u0411\u043e\u043b\u044c\u0448\u0430\u044f \u0443\u043b\u0438\u0446\u0430)", "um_code": "024120", "no_omk": "-", "ao": "\u0426\u0410\u041e", "rajon": "\u041f\u0440\u0435\u0441\u043d\u0435\u043d\u0441\u043a\u0438\u0439", "status": "\u0421\u0443\u0449\u0435\u0441\u0442\u0432\u0443\u044e\u0449\u0438\u0435", "length": 134.6, "type_uds": "\u041e\u0434\u043d\u0430 \u043f\u0440\u043e\u0435\u0437\u0436\u0430\u044f \u0447\u0430\u0441\u0442\u044c", "rlane": "\u0414\u0430", "one_way": "\u043d\u0435\u0442", "kl_gp": "\u041c\u0430\u0433\u0438\u0441\u0442\u0440\u0430\u043b\u044c\u043d\u044b\u0435 \u0443\u043b\u0438\u0446\u044b \u043e\u0431\u0449\u0435\u0433\u043e\u0440\u043e\u0434\u0441\u043a\u043e\u0433\u043e \u0437\u043d\u0430\u0447\u0435\u043d\u0438\u044f I \u043a\u043b\u0430\u0441\u0441\u0430 \u0446\u0435\u043d\u0442\u0440\u0430", "class_active_2016": "\u041c\u0430\u0433\u0438\u0441\u0442\u0440\u0430\u043b\u044c\u043d\u044b\u0435 \u0443\u043b\u0438\u0446\u044b \u043e\u0431\u0449\u0435\u0433\u043e\u0440\u043e\u0434\u0441\u043a\u043e\u0433\u043e \u0437\u043d\u0430\u0447\u0435\u043d\u0438\u044f 2-\u0433\u043e \u043a\u043b\u0430\u0441\u0441\u0430 - \u0440\u0435\u0433\u0443\u043b\u0438\u0440\u0443\u0435\u043c\u043e\u0433\u043e \u0434\u0432\u0438\u0436\u0435\u043d\u0438\u044f", "offer_2016": "\u041c\u0430\u0433\u0438\u0441\u0442\u0440\u0430\u043b\u044c\u043d\u044b\u0435 \u0443\u043b\u0438\u0446\u044b \u043e\u0431\u0449\u0435\u0433\u043e\u0440\u043e\u0434\u0441\u043a\u043e\u0433\u043e \u0437\u043d\u0430\u0447\u0435\u043d\u0438\u044f 1-\u0433\u043e \u043a\u043b\u0430\u0441\u0441\u0430 - \u043d\u0435\u043f\u0440\u0435\u0440\u044b\u0432\u043d\u043e\u0433\u043e \u0434\u0432\u0438\u0436\u0435\u043d\u0438\u044f"}}, {"type": "Feature", "geometry": {"type": "Polygon", "coordinates": [[[37.59122413573504, 55.76590044128984], [37.59124973721054, 55.76588631063901], [37.59126680486087, 55.765893375964424], [37.59124120338537, 55.76590397395254], [37.59122413573504, 55.76590044128984]]]}, "properties": {"id": 4, "bound": true, "edge_id": 4, "ID": "{20444462-4e3f-43b9-ba10-212301728357}", "na_obj": "\u0421\u0430\u0434\u043e\u0432\u043e\u0435 \u041a\u043e\u043b\u044c\u0446\u043e (\u0421\u0430\u0434\u043e\u0432\u0430\u044f \u0411\u043e\u043b\u044c\u0448\u0430\u044f \u0443\u043b\u0438\u0446\u0430)", "um_code": "024120", "no_omk": "-", "ao": "\u0426\u0410\u041e", "rajon": "\u041f\u0440\u0435\u0441\u043d\u0435\u043d\u0441\u043a\u0438\u0439", "status": "\u0421\u0443\u0449\u0435\u0441\u0442\u0432\u0443\u044e\u0449\u0438\u0435", "length": 134.6, "type_uds": "\u041e\u0434\u043d\u0430 \u043f\u0440\u043e\u0435\u0437\u0436\u0430\u044f \u0447\u0430\u0441\u0442\u044c", "rlane": "\u0414\u0430", "one_way": "\u043d\u0435\u0442", "kl_gp": "\u041c\u0430\u0433\u0438\u0441\u0442\u0440\u0430\u043b\u044c\u043d\u044b\u0435 \u0443\u043b\u0438\u0446\u044b \u043e\u0431\u0449\u0435\u0433\u043e\u0440\u043e\u0434\u0441\u043a\u043e\u0433\u043e \u0437\u043d\u0430\u0447\u0435\u043d\u0438\u044f I \u043a\u043b\u0430\u0441\u0441\u0430 \u0446\u0435\u043d\u0442\u0440\u0430", "class_active_2016": "\u041c\u0430\u0433\u0438\u0441\u0442\u0440\u0430\u043b\u044c\u043d\u044b\u0435 \u0443\u043b\u0438\u0446\u044b \u043e\u0431\u0449\u0435\u0433\u043e\u0440\u043e\u0434\u0441\u043a\u043e\u0433\u043e \u0437\u043d\u0430\u0447\u0435\u043d\u0438\u044f 2-\u0433\u043e \u043a\u043b\u0430\u0441\u0441\u0430 - \u0440\u0435\u0433\u0443\u043b\u0438\u0440\u0443\u0435\u043c\u043e\u0433\u043e \u0434\u0432\u0438\u0436\u0435\u043d\u0438\u044f", "offer_2016": "\u041c\u0430\u0433\u0438\u0441\u0442\u0440\u0430\u043b\u044c\u043d\u044b\u0435 \u0443\u043b\u0438\u0446\u044b \u043e\u0431\u0449\u0435\u0433\u043e\u0440\u043e\u0434\u0441\u043a\u043e\u0433\u043e \u0437\u043d\u0430\u0447\u0435\u043d\u0438\u044f 1-\u0433\u043e \u043a\u043b\u0430\u0441\u0441\u0430 - \u043d\u0435\u043f\u0440\u0435\u0440\u044b\u0432\u043d\u043e\u0433\u043e \u0434\u0432\u0438\u0436\u0435\u043d\u0438\u044f"}}, {"type": "Feature", "geometry": {"type": "Polygon", "coordinates": [[[37.590498760595885, 55.766002888508304], [37.59050729442105, 55.76598875785748], [37.59054142972172, 55.766002888508304], [37.590524362071385, 55.766009953833716], [37.590498760595885, 55.766002888508304]]]}, "properties": {"id": 5, "bound": true, "edge_id": 8, "ID": "{b327554a-ee32-484d-b1f9-a64cd298391e}", "na_obj": "\u041a\u0440\u0430\u0441\u0438\u043d\u0430 \u0443\u043b\u0438\u0446\u0430", "um_code": "011550", "no_omk": "-", "ao": "\u0426\u0410\u041e", "rajon": "\u041f\u0440\u0435\u0441\u043d\u0435\u043d\u0441\u043a\u0438\u0439", "status": "\u0421\u0443\u0449\u0435\u0441\u0442\u0432\u0443\u044e\u0449\u0438\u0435", "length": 276.6, "type_uds": "\u041e\u0434\u043d\u0430 \u043f\u0440\u043e\u0435\u0437\u0436\u0430\u044f \u0447\u0430\u0441\u0442\u044c", "rlane": "\u0414\u0430", "one_way": "\u0434\u0430", "kl_gp": "\u041c\u0430\u0433\u0438\u0441\u0442\u0440\u0430\u043b\u044c\u043d\u044b\u0435 \u0443\u043b\u0438\u0446\u044b \u0440\u0430\u0439\u043e\u043d\u043d\u043e\u0433\u043e \u0437\u043d\u0430\u0447\u0435\u043d\u0438\u044f \u0446\u0435\u043d\u0442\u0440\u0430", "class_active_2016": "\u0423\u043b\u0438\u0446\u044b \u0438 \u0434\u043e\u0440\u043e\u0433\u0438 \u043c\u0435\u0441\u0442\u043d\u043e\u0433\u043e \u0437\u043d\u0430\u0447\u0435\u043d\u0438\u044f", "offer_2016": "\u041c\u0430\u0433\u0438\u0441\u0442\u0440\u0430\u043b\u044c\u043d\u044b\u0435 \u0443\u043b\u0438\u0446\u044b \u0440\u0430\u0439\u043e\u043d\u043d\u043e\u0433\u043e \u0437\u043d\u0430\u0447\u0435\u043d\u0438\u044f"}}, {"type": "Feature", "geometry": {"type": "Polygon", "coordinates": [[[37.593630674432, 55.76604174779806], [37.59353680235517, 55.76601348649642], [37.59353680235517, 55.765999355845594], [37.593570937655834, 55.76600642117101], [37.59359653913133, 55.766024084484535], [37.59362214060683, 55.766027617147245], [37.593613606781666, 55.76603468247266], [37.593630674432, 55.76604174779806]]]}, "properties": {"id": 6, "bound": true, "edge_id": 3, "ID": "{63705a30-b4cc-49ff-ad3f-98e55b5f4809}", "na_obj": "\u0415\u0440\u043c\u043e\u043b\u0430\u0435\u0432\u0441\u043a\u0438\u0439 \u043f\u0435\u0440\u0435\u0443\u043b\u043e\u043a", "um_code": "007460", "no_omk": "-", "ao": "\u0426\u0410\u041e", "rajon": "\u041f\u0440\u0435\u0441\u043d\u0435\u043d\u0441\u043a\u0438\u0439", "status": "\u0421\u0443\u0449\u0435\u0441\u0442\u0432\u0443\u044e\u0449\u0438\u0435", "length": 171.3, "type_uds": "\u041e\u0434\u043d\u0430 \u043f\u0440\u043e\u0435\u0437\u0436\u0430\u044f \u0447\u0430\u0441\u0442\u044c", "rlane": "\u0414\u0430", "one_way": "\u0434\u0430", "kl_gp": "\u041f\u0440\u043e\u0447\u0430\u044f \u0443\u043b\u0438\u0447\u043d\u043e-\u0434\u043e\u0440\u043e\u0436\u043d\u0430\u044f \u0441\u0435\u0442\u044c \u041c\u043e\u0441\u043a\u0432\u044b", "class_active_2016": "\u0423\u043b\u0438\u0446\u044b \u0438 \u0434\u043e\u0440\u043e\u0433\u0438 \u043c\u0435\u0441\u0442\u043d\u043e\u0433\u043e \u0437\u043d\u0430\u0447\u0435\u043d\u0438\u044f", "offer_2016": "\u0423\u043b\u0438\u0446\u044b \u0438 \u0434\u043e\u0440\u043e\u0433\u0438 \u043c\u0435\u0441\u0442\u043d\u043e\u0433\u043e \u0437\u043d\u0430\u0447\u0435\u043d\u0438\u044f"}}, {"type": "Feature", "geometry": {"type": "Polygon", "coordinates": [[[37.59336612585184, 55.76621131560795], [37.59334052437634, 55.76620071761983], [37.593349058201504, 55.76619011963171], [37.593374659677, 55.76620071761983], [37.59339172732734, 55.76620071761983], [37.59336612585184, 55.76621131560795]]]}, "properties": {"id": 7, "bound": true, "edge_id": 5, "ID": "{a5a007dc-436d-432f-a0ce-32e87a3781a7}", "na_obj": "\u0410\u0440\u0445\u0438\u0442\u0435\u043a\u0442\u043e\u0440\u0430 \u0428\u0435\u0445\u0442\u0435\u043b\u044f \u0430\u043b\u043b\u0435\u044f", "um_code": "048995", "no_omk": "-", "ao": "\u0426\u0410\u041e", "rajon": "\u041f\u0440\u0435\u0441\u043d\u0435\u043d\u0441\u043a\u0438\u0439", "status": "\u0421\u0443\u0449\u0435\u0441\u0442\u0432\u0443\u044e\u0449\u0438\u0435", "length": 137.2, "type_uds": "\u041e\u0434\u043d\u0430 \u043f\u0440\u043e\u0435\u0437\u0436\u0430\u044f \u0447\u0430\u0441\u0442\u044c", "rlane": "\u0414\u0430", "one_way": "\u0434\u0430", "kl_gp": "\u041f\u0440\u043e\u0447\u0430\u044f \u0443\u043b\u0438\u0447\u043d\u043e-\u0434\u043e\u0440\u043e\u0436\u043d\u0430\u044f \u0441\u0435\u0442\u044c \u041c\u043e\u0441\u043a\u0432\u044b", "class_active_2016": "\u0423\u043b\u0438\u0446\u044b \u0438 \u0434\u043e\u0440\u043e\u0433\u0438 \u043c\u0435\u0441\u0442\u043d\u043e\u0433\u043e \u0437\u043d\u0430\u0447\u0435\u043d\u0438\u044f", "offer_2016": "\u0423\u043b\u0438\u0446\u044b \u0438 \u0434\u043e\u0440\u043e\u0433\u0438 \u043c\u0435\u0441\u0442\u043d\u043e\u0433\u043e \u0437\u043d\u0430\u0447\u0435\u043d\u0438\u044f"}}, {"type": "Feature", "geometry": {"type": "Polygon", "coordinates": [[[37.58961124277857, 55.76628903418747], [37.58958564130307, 55.766271370873945], [37.58964537807923, 55.76628196886206], [37.58961124277857, 55.76628903418747]]]}, "properties": {"id": 8, "bound": true, "edge_id": 8, "ID": "{b327554a-ee32-484d-b1f9-a64cd298391e}", "na_obj": "\u041a\u0440\u0430\u0441\u0438\u043d\u0430 \u0443\u043b\u0438\u0446\u0430", "um_code": "011550", "no_omk": "-", "ao": "\u0426\u0410\u041e", "rajon": "\u041f\u0440\u0435\u0441\u043d\u0435\u043d\u0441\u043a\u0438\u0439", "status": "\u0421\u0443\u0449\u0435\u0441\u0442\u0432\u0443\u044e\u0449\u0438\u0435", "length": 276.6, "type_uds": "\u041e\u0434\u043d\u0430 \u043f\u0440\u043e\u0435\u0437\u0436\u0430\u044f \u0447\u0430\u0441\u0442\u044c", "rlane": "\u0414\u0430", "one_way": "\u0434\u0430", "kl_gp": "\u041c\u0430\u0433\u0438\u0441\u0442\u0440\u0430\u043b\u044c\u043d\u044b\u0435 \u0443\u043b\u0438\u0446\u044b \u0440\u0430\u0439\u043e\u043d\u043d\u043e\u0433\u043e \u0437\u043d\u0430\u0447\u0435\u043d\u0438\u044f \u0446\u0435\u043d\u0442\u0440\u0430", "class_active_2016": "\u0423\u043b\u0438\u0446\u044b \u0438 \u0434\u043e\u0440\u043e\u0433\u0438 \u043c\u0435\u0441\u0442\u043d\u043e\u0433\u043e \u0437\u043d\u0430\u0447\u0435\u043d\u0438\u044f", "offer_2016": "\u041c\u0430\u0433\u0438\u0441\u0442\u0440\u0430\u043b\u044c\u043d\u044b\u0435 \u0443\u043b\u0438\u0446\u044b \u0440\u0430\u0439\u043e\u043d\u043d\u043e\u0433\u043e \u0437\u043d\u0430\u0447\u0435\u043d\u0438\u044f"}}, {"type": "Feature", "geometry": {"type": "Polygon", "coordinates": [[[37.59389522301216, 55.76633495880265], [37.59384402006116, 55.766317295489124], [37.593886689186995, 55.766306697501], [37.59389522301216, 55.76633495880265]]]}, "properties": {"id": 9, "bound": true, "edge_id": 3, "ID": "{63705a30-b4cc-49ff-ad3f-98e55b5f4809}", "na_obj": "\u0415\u0440\u043c\u043e\u043b\u0430\u0435\u0432\u0441\u043a\u0438\u0439 \u043f\u0435\u0440\u0435\u0443\u043b\u043e\u043a", "um_code": "007460", "no_omk": "-", "ao": "\u0426\u0410\u041e", "rajon": "\u041f\u0440\u0435\u0441\u043d\u0435\u043d\u0441\u043a\u0438\u0439", "status": "\u0421\u0443\u0449\u0435\u0441\u0442\u0432\u0443\u044e\u0449\u0438\u0435", "length": 171.3, "type_uds": "\u041e\u0434\u043d\u0430 \u043f\u0440\u043e\u0435\u0437\u0436\u0430\u044f \u0447\u0430\u0441\u0442\u044c", "rlane": "\u0414\u0430", "one_way": "\u0434\u0430", "kl_gp": "\u041f\u0440\u043e\u0447\u0430\u044f \u0443\u043b\u0438\u0447\u043d\u043e-\u0434\u043e\u0440\u043e\u0436\u043d\u0430\u044f \u0441\u0435\u0442\u044c \u041c\u043e\u0441\u043a\u0432\u044b", "class_active_2016": "\u0423\u043b\u0438\u0446\u044b \u0438 \u0434\u043e\u0440\u043e\u0433\u0438 \u043c\u0435\u0441\u0442\u043d\u043e\u0433\u043e \u0437\u043d\u0430\u0447\u0435\u043d\u0438\u044f", "offer_2016": "\u0423\u043b\u0438\u0446\u044b \u0438 \u0434\u043e\u0440\u043e\u0433\u0438 \u043c\u0435\u0441\u0442\u043d\u043e\u0433\u043e \u0437\u043d\u0430\u0447\u0435\u043d\u0438\u044f"}}, {"type": "Feature", "geometry": {"type": "Polygon", "coordinates": [[[37.59056703119722, 55.76635968744159], [37.590549963546884, 55.76635262211618], [37.59056703119722, 55.766338491465355], [37.59060116649788, 55.76635262211618], [37.59056703119722, 55.76635968744159]]]}, "properties": {"id": 10, "bound": true, "edge_id": 8, "ID": "{b327554a-ee32-484d-b1f9-a64cd298391e}", "na_obj": "\u041a\u0440\u0430\u0441\u0438\u043d\u0430 \u0443\u043b\u0438\u0446\u0430", "um_code": "011550", "no_omk": "-", "ao": "\u0426\u0410\u041e", "rajon": "\u041f\u0440\u0435\u0441\u043d\u0435\u043d\u0441\u043a\u0438\u0439", "status": "\u0421\u0443\u0449\u0435\u0441\u0442\u0432\u0443\u044e\u0449\u0438\u0435", "length": 276.6, "type_uds": "\u041e\u0434\u043d\u0430 \u043f\u0440\u043e\u0435\u0437\u0436\u0430\u044f \u0447\u0430\u0441\u0442\u044c", "rlane": "\u0414\u0430", "one_way": "\u0434\u0430", "kl_gp": "\u041c\u0430\u0433\u0438\u0441\u0442\u0440\u0430\u043b\u044c\u043d\u044b\u0435 \u0443\u043b\u0438\u0446\u044b \u0440\u0430\u0439\u043e\u043d\u043d\u043e\u0433\u043e \u0437\u043d\u0430\u0447\u0435\u043d\u0438\u044f \u0446\u0435\u043d\u0442\u0440\u0430", "class_active_2016": "\u0423\u043b\u0438\u0446\u044b \u0438 \u0434\u043e\u0440\u043e\u0433\u0438 \u043c\u0435\u0441\u0442\u043d\u043e\u0433\u043e \u0437\u043d\u0430\u0447\u0435\u043d\u0438\u044f", "offer_2016": "\u041c\u0430\u0433\u0438\u0441\u0442\u0440\u0430\u043b\u044c\u043d\u044b\u0435 \u0443\u043b\u0438\u0446\u044b \u0440\u0430\u0439\u043e\u043d\u043d\u043e\u0433\u043e \u0437\u043d\u0430\u0447\u0435\u043d\u0438\u044f"}}, {"type": "Feature", "geometry": {"type": "Polygon", "coordinates": [[[37.589986731085894, 55.76639148140594], [37.58999526491106, 55.766380883417824], [37.59001233256139, 55.76637381809241], [37.590029400211726, 55.766380883417824], [37.59001233256139, 55.76639148140594], [37.589986731085894, 55.76639148140594]]]}, "properties": {"id": 11, "bound": true, "edge_id": 8, "ID": "{b327554a-ee32-484d-b1f9-a64cd298391e}", "na_obj": "\u041a\u0440\u0430\u0441\u0438\u043d\u0430 \u0443\u043b\u0438\u0446\u0430", "um_code": "011550", "no_omk": "-", "ao": "\u0426\u0410\u041e", "rajon": "\u041f\u0440\u0435\u0441\u043d\u0435\u043d\u0441\u043a\u0438\u0439", "status": "\u0421\u0443\u0449\u0435\u0441\u0442\u0432\u0443\u044e\u0449\u0438\u0435", "length": 276.6, "type_uds": "\u041e\u0434\u043d\u0430 \u043f\u0440\u043e\u0435\u0437\u0436\u0430\u044f \u0447\u0430\u0441\u0442\u044c", "rlane": "\u0414\u0430", "one_way": "\u0434\u0430", "kl_gp": "\u041c\u0430\u0433\u0438\u0441\u0442\u0440\u0430\u043b\u044c\u043d\u044b\u0435 \u0443\u043b\u0438\u0446\u044b \u0440\u0430\u0439\u043e\u043d\u043d\u043e\u0433\u043e \u0437\u043d\u0430\u0447\u0435\u043d\u0438\u044f \u0446\u0435\u043d\u0442\u0440\u0430", "class_active_2016": "\u0423\u043b\u0438\u0446\u044b \u0438 \u0434\u043e\u0440\u043e\u0433\u0438 \u043c\u0435\u0441\u0442\u043d\u043e\u0433\u043e \u0437\u043d\u0430\u0447\u0435\u043d\u0438\u044f", "offer_2016": "\u041c\u0430\u0433\u0438\u0441\u0442\u0440\u0430\u043b\u044c\u043d\u044b\u0435 \u0443\u043b\u0438\u0446\u044b \u0440\u0430\u0439\u043e\u043d\u043d\u043e\u0433\u043e \u0437\u043d\u0430\u0447\u0435\u043d\u0438\u044f"}}, {"type": "Feature", "geometry": {"type": "Polygon", "coordinates": [[[37.59292236694318, 55.766409144719475], [37.59288823164251, 55.76639501406865], [37.59291383311801, 55.766384416080534], [37.59293943459351, 55.76639501406865], [37.59292236694318, 55.766409144719475]]]}, "properties": {"id": 12, "bound": true, "edge_id": 5, "ID": "{a5a007dc-436d-432f-a0ce-32e87a3781a7}", "na_obj": "\u0410\u0440\u0445\u0438\u0442\u0435\u043a\u0442\u043e\u0440\u0430 \u0428\u0435\u0445\u0442\u0435\u043b\u044f \u0430\u043b\u043b\u0435\u044f", "um_code": "048995", "no_omk": "-", "ao": "\u0426\u0410\u041e", "rajon": "\u041f\u0440\u0435\u0441\u043d\u0435\u043d\u0441\u043a\u0438\u0439", "status": "\u0421\u0443\u0449\u0435\u0441\u0442\u0432\u0443\u044e\u0449\u0438\u0435", "length": 137.2, "type_uds": "\u041e\u0434\u043d\u0430 \u043f\u0440\u043e\u0435\u0437\u0436\u0430\u044f \u0447\u0430\u0441\u0442\u044c", "rlane": "\u0414\u0430", "one_way": "\u0434\u0430", "kl_gp": "\u041f\u0440\u043e\u0447\u0430\u044f \u0443\u043b\u0438\u0447\u043d\u043e-\u0434\u043e\u0440\u043e\u0436\u043d\u0430\u044f \u0441\u0435\u0442\u044c \u041c\u043e\u0441\u043a\u0432\u044b", "class_active_2016": "\u0423\u043b\u0438\u0446\u044b \u0438 \u0434\u043e\u0440\u043e\u0433\u0438 \u043c\u0435\u0441\u0442\u043d\u043e\u0433\u043e \u0437\u043d\u0430\u0447\u0435\u043d\u0438\u044f", "offer_2016": "\u0423\u043b\u0438\u0446\u044b \u0438 \u0434\u043e\u0440\u043e\u0433\u0438 \u043c\u0435\u0441\u0442\u043d\u043e\u0433\u043e \u0437\u043d\u0430\u0447\u0435\u043d\u0438\u044f"}}, {"type": "Feature", "geometry": {"type": "Polygon", "coordinates": [[[37.59330638907567, 55.76641974270759], [37.593297855250505, 55.766409144719475], [37.59328078760017, 55.76639501406865], [37.59330638907567, 55.766405612056765], [37.59334052437634, 55.766405612056765], [37.59334052437634, 55.76641621004488], [37.593323456726004, 55.76641267738218], [37.59330638907567, 55.76641974270759]]]}, "properties": {"id": 13, "bound": true, "edge_id": 5, "ID": "{a5a007dc-436d-432f-a0ce-32e87a3781a7}", "na_obj": "\u0410\u0440\u0445\u0438\u0442\u0435\u043a\u0442\u043e\u0440\u0430 \u0428\u0435\u0445\u0442\u0435\u043b\u044f \u0430\u043b\u043b\u0435\u044f", "um_code": "048995", "no_omk": "-", "ao": "\u0426\u0410\u041e", "rajon": "\u041f\u0440\u0435\u0441\u043d\u0435\u043d\u0441\u043a\u0438\u0439", "status": "\u0421\u0443\u0449\u0435\u0441\u0442\u0432\u0443\u044e\u0449\u0438\u0435", "length": 137.2, "type_uds": "\u041e\u0434\u043d\u0430 \u043f\u0440\u043e\u0435\u0437\u0436\u0430\u044f \u0447\u0430\u0441\u0442\u044c", "rlane": "\u0414\u0430", "one_way": "\u0434\u0430", "kl_gp": "\u041f\u0440\u043e\u0447\u0430\u044f \u0443\u043b\u0438\u0447\u043d\u043e-\u0434\u043e\u0440\u043e\u0436\u043d\u0430\u044f \u0441\u0435\u0442\u044c \u041c\u043e\u0441\u043a\u0432\u044b", "class_active_2016": "\u0423\u043b\u0438\u0446\u044b \u0438 \u0434\u043e\u0440\u043e\u0433\u0438 \u043c\u0435\u0441\u0442\u043d\u043e\u0433\u043e \u0437\u043d\u0430\u0447\u0435\u043d\u0438\u044f", "offer_2016": "\u0423\u043b\u0438\u0446\u044b \u0438 \u0434\u043e\u0440\u043e\u0433\u0438 \u043c\u0435\u0441\u0442\u043d\u043e\u0433\u043e \u0437\u043d\u0430\u0447\u0435\u043d\u0438\u044f"}}, {"type": "Feature", "geometry": {"type": "Polygon", "coordinates": [[[37.593374659677, 55.766451536671944], [37.593417328802836, 55.76644093868382], [37.59340879497767, 55.76645860199735], [37.593374659677, 55.766451536671944]]]}, "properties": {"id": 14, "bound": true, "edge_id": 5, "ID": "{a5a007dc-436d-432f-a0ce-32e87a3781a7}", "na_obj": "\u0410\u0440\u0445\u0438\u0442\u0435\u043a\u0442\u043e\u0440\u0430 \u0428\u0435\u0445\u0442\u0435\u043b\u044f \u0430\u043b\u043b\u0435\u044f", "um_code": "048995", "no_omk": "-", "ao": "\u0426\u0410\u041e", "rajon": "\u041f\u0440\u0435\u0441\u043d\u0435\u043d\u0441\u043a\u0438\u0439", "status": "\u0421\u0443\u0449\u0435\u0441\u0442\u0432\u0443\u044e\u0449\u0438\u0435", "length": 137.2, "type_uds": "\u041e\u0434\u043d\u0430 \u043f\u0440\u043e\u0435\u0437\u0436\u0430\u044f \u0447\u0430\u0441\u0442\u044c", "rlane": "\u0414\u0430", "one_way": "\u0434\u0430", "kl_gp": "\u041f\u0440\u043e\u0447\u0430\u044f \u0443\u043b\u0438\u0447\u043d\u043e-\u0434\u043e\u0440\u043e\u0436\u043d\u0430\u044f \u0441\u0435\u0442\u044c \u041c\u043e\u0441\u043a\u0432\u044b", "class_active_2016": "\u0423\u043b\u0438\u0446\u044b \u0438 \u0434\u043e\u0440\u043e\u0433\u0438 \u043c\u0435\u0441\u0442\u043d\u043e\u0433\u043e \u0437\u043d\u0430\u0447\u0435\u043d\u0438\u044f", "offer_2016": "\u0423\u043b\u0438\u0446\u044b \u0438 \u0434\u043e\u0440\u043e\u0433\u0438 \u043c\u0435\u0441\u0442\u043d\u043e\u0433\u043e \u0437\u043d\u0430\u0447\u0435\u043d\u0438\u044f"}}, {"type": "Feature", "geometry": {"type": "Polygon", "coordinates": [[[37.59367334355783, 55.76663876779535], [37.59364774208233, 55.766628169807234], [37.5936562759075, 55.76661403915641], [37.593681877383, 55.766624637144524], [37.593664809732665, 55.76663170246994], [37.59367334355783, 55.76663876779535]]]}, "properties": {"id": 15, "bound": true, "edge_id": 3, "ID": "{63705a30-b4cc-49ff-ad3f-98e55b5f4809}", "na_obj": "\u0415\u0440\u043c\u043e\u043b\u0430\u0435\u0432\u0441\u043a\u0438\u0439 \u043f\u0435\u0440\u0435\u0443\u043b\u043e\u043a", "um_code": "007460", "no_omk": "-", "ao": "\u0426\u0410\u041e", "rajon": "\u041f\u0440\u0435\u0441\u043d\u0435\u043d\u0441\u043a\u0438\u0439", "status": "\u0421\u0443\u0449\u0435\u0441\u0442\u0432\u0443\u044e\u0449\u0438\u0435", "length": 171.3, "type_uds": "\u041e\u0434\u043d\u0430 \u043f\u0440\u043e\u0435\u0437\u0436\u0430\u044f \u0447\u0430\u0441\u0442\u044c", "rlane": "\u0414\u0430", "one_way": "\u0434\u0430", "kl_gp": "\u041f\u0440\u043e\u0447\u0430\u044f \u0443\u043b\u0438\u0447\u043d\u043e-\u0434\u043e\u0440\u043e\u0436\u043d\u0430\u044f \u0441\u0435\u0442\u044c \u041c\u043e\u0441\u043a\u0432\u044b", "class_active_2016": "\u0423\u043b\u0438\u0446\u044b \u0438 \u0434\u043e\u0440\u043e\u0433\u0438 \u043c\u0435\u0441\u0442\u043d\u043e\u0433\u043e \u0437\u043d\u0430\u0447\u0435\u043d\u0438\u044f", "offer_2016": "\u0423\u043b\u0438\u0446\u044b \u0438 \u0434\u043e\u0440\u043e\u0433\u0438 \u043c\u0435\u0441\u0442\u043d\u043e\u0433\u043e \u0437\u043d\u0430\u0447\u0435\u043d\u0438\u044f"}}, {"type": "Feature", "geometry": {"type": "Polygon", "coordinates": [[[37.59036221939322, 55.766744747676526], [37.59034515174289, 55.766727084363], [37.59036221939322, 55.766727084363], [37.59038782086872, 55.76673768235111], [37.59038782086872, 55.766744747676526], [37.59036221939322, 55.766744747676526]]]}, "properties": {"id": 16, "bound": true, "edge_id": 8, "ID": "{b327554a-ee32-484d-b1f9-a64cd298391e}", "na_obj": "\u041a\u0440\u0430\u0441\u0438\u043d\u0430 \u0443\u043b\u0438\u0446\u0430", "um_code": "011550", "no_omk": "-", "ao": "\u0426\u0410\u041e", "rajon": "\u041f\u0440\u0435\u0441\u043d\u0435\u043d\u0441\u043a\u0438\u0439", "status": "\u0421\u0443\u0449\u0435\u0441\u0442\u0432\u0443\u044e\u0449\u0438\u0435", "length": 276.6, "type_uds": "\u041e\u0434\u043d\u0430 \u043f\u0440\u043e\u0435\u0437\u0436\u0430\u044f \u0447\u0430\u0441\u0442\u044c", "rlane": "\u0414\u0430", "one_way": "\u0434\u0430", "kl_gp": "\u041c\u0430\u0433\u0438\u0441\u0442\u0440\u0430\u043b\u044c\u043d\u044b\u0435 \u0443\u043b\u0438\u0446\u044b \u0440\u0430\u0439\u043e\u043d\u043d\u043e\u0433\u043e \u0437\u043d\u0430\u0447\u0435\u043d\u0438\u044f \u0446\u0435\u043d\u0442\u0440\u0430", "class_active_2016": "\u0423\u043b\u0438\u0446\u044b \u0438 \u0434\u043e\u0440\u043e\u0433\u0438 \u043c\u0435\u0441\u0442\u043d\u043e\u0433\u043e \u0437\u043d\u0430\u0447\u0435\u043d\u0438\u044f", "offer_2016": "\u041c\u0430\u0433\u0438\u0441\u0442\u0440\u0430\u043b\u044c\u043d\u044b\u0435 \u0443\u043b\u0438\u0446\u044b \u0440\u0430\u0439\u043e\u043d\u043d\u043e\u0433\u043e \u0437\u043d\u0430\u0447\u0435\u043d\u0438\u044f"}}, {"type": "Feature", "geometry": {"type": "Polygon", "coordinates": [[[37.593630674432, 55.76679773761711], [37.593639208257166, 55.766783606966285], [37.59367334355783, 55.766804802942524], [37.593630674432, 55.76679773761711]]]}, "properties": {"id": 17, "bound": true, "edge_id": 11, "ID": "{c8a9585b-aa6d-44a6-8a2f-aff1978eb04f}", "na_obj": "\u0431/\u043d", "um_code": "-", "no_omk": "-", "ao": "\u0426\u0410\u041e", "rajon": "\u041f\u0440\u0435\u0441\u043d\u0435\u043d\u0441\u043a\u0438\u0439,\u0422\u0432\u0435\u0440\u0441\u043a\u043e\u0439", "status": "\u0421\u0443\u0449\u0435\u0441\u0442\u0432\u0443\u044e\u0449\u0438\u0435", "length": 329.1, "type_uds": "\u0421\u044a\u0435\u0437\u0434", "rlane": "\u0414\u0430", "one_way": "\u0434\u0430", "kl_gp": "\u041c\u0430\u0433\u0438\u0441\u0442\u0440\u0430\u043b\u044c\u043d\u044b\u0435 \u0443\u043b\u0438\u0446\u044b \u043e\u0431\u0449\u0435\u0433\u043e\u0440\u043e\u0434\u0441\u043a\u043e\u0433\u043e \u0437\u043d\u0430\u0447\u0435\u043d\u0438\u044f I \u043a\u043b\u0430\u0441\u0441\u0430 \u0446\u0435\u043d\u0442\u0440\u0430", "class_active_2016": "-", "offer_2016": "-"}}, {"type": "Feature", "geometry": {"type": "Polygon", "coordinates": [[[37.591454549014536, 55.766854260220406], [37.591428947539036, 55.76684366223229], [37.59144601518937, 55.76683659690688], [37.59147161666487, 55.76684719489499], [37.591454549014536, 55.766854260220406]]]}, "properties": {"id": 18, "bound": true, "edge_id": 4, "ID": "{20444462-4e3f-43b9-ba10-212301728357}", "na_obj": "\u0421\u0430\u0434\u043e\u0432\u043e\u0435 \u041a\u043e\u043b\u044c\u0446\u043e (\u0421\u0430\u0434\u043e\u0432\u0430\u044f \u0411\u043e\u043b\u044c\u0448\u0430\u044f \u0443\u043b\u0438\u0446\u0430)", "um_code": "024120", "no_omk": "-", "ao": "\u0426\u0410\u041e", "rajon": "\u041f\u0440\u0435\u0441\u043d\u0435\u043d\u0441\u043a\u0438\u0439", "status": "\u0421\u0443\u0449\u0435\u0441\u0442\u0432\u0443\u044e\u0449\u0438\u0435", "length": 134.6, "type_uds": "\u041e\u0434\u043d\u0430 \u043f\u0440\u043e\u0435\u0437\u0436\u0430\u044f \u0447\u0430\u0441\u0442\u044c", "rlane": "\u0414\u0430", "one_way": "\u043d\u0435\u0442", "kl_gp": "\u041c\u0430\u0433\u0438\u0441\u0442\u0440\u0430\u043b\u044c\u043d\u044b\u0435 \u0443\u043b\u0438\u0446\u044b \u043e\u0431\u0449\u0435\u0433\u043e\u0440\u043e\u0434\u0441\u043a\u043e\u0433\u043e \u0437\u043d\u0430\u0447\u0435\u043d\u0438\u044f I \u043a\u043b\u0430\u0441\u0441\u0430 \u0446\u0435\u043d\u0442\u0440\u0430", "class_active_2016": "\u041c\u0430\u0433\u0438\u0441\u0442\u0440\u0430\u043b\u044c\u043d\u044b\u0435 \u0443\u043b\u0438\u0446\u044b \u043e\u0431\u0449\u0435\u0433\u043e\u0440\u043e\u0434\u0441\u043a\u043e\u0433\u043e \u0437\u043d\u0430\u0447\u0435\u043d\u0438\u044f 2-\u0433\u043e \u043a\u043b\u0430\u0441\u0441\u0430 - \u0440\u0435\u0433\u0443\u043b\u0438\u0440\u0443\u0435\u043c\u043e\u0433\u043e \u0434\u0432\u0438\u0436\u0435\u043d\u0438\u044f", "offer_2016": "\u041c\u0430\u0433\u0438\u0441\u0442\u0440\u0430\u043b\u044c\u043d\u044b\u0435 \u0443\u043b\u0438\u0446\u044b \u043e\u0431\u0449\u0435\u0433\u043e\u0440\u043e\u0434\u0441\u043a\u043e\u0433\u043e \u0437\u043d\u0430\u0447\u0435\u043d\u0438\u044f 1-\u0433\u043e \u043a\u043b\u0430\u0441\u0441\u0430 - \u043d\u0435\u043f\u0440\u0435\u0440\u044b\u0432\u043d\u043e\u0433\u043e \u0434\u0432\u0438\u0436\u0435\u043d\u0438\u044f"}}, {"type": "Feature", "geometry": {"type": "Polygon", "coordinates": [[[37.59093398567938, 55.76698496874052], [37.590916918029045, 55.7669743707524], [37.59093398567938, 55.766967305426995], [37.59095105332971, 55.7669743707524], [37.59093398567938, 55.76698496874052]]]}, "properties": {"id": 19, "bound": true, "edge_id": 4, "ID": "{20444462-4e3f-43b9-ba10-212301728357}", "na_obj": "\u0421\u0430\u0434\u043e\u0432\u043e\u0435 \u041a\u043e\u043b\u044c\u0446\u043e (\u0421\u0430\u0434\u043e\u0432\u0430\u044f \u0411\u043e\u043b\u044c\u0448\u0430\u044f \u0443\u043b\u0438\u0446\u0430)", "um_code": "024120", "no_omk": "-", "ao": "\u0426\u0410\u041e", "rajon": "\u041f\u0440\u0435\u0441\u043d\u0435\u043d\u0441\u043a\u0438\u0439", "status": "\u0421\u0443\u0449\u0435\u0441\u0442\u0432\u0443\u044e\u0449\u0438\u0435", "length": 134.6, "type_uds": "\u041e\u0434\u043d\u0430 \u043f\u0440\u043e\u0435\u0437\u0436\u0430\u044f \u0447\u0430\u0441\u0442\u044c", "rlane": "\u0414\u0430", "one_way": "\u043d\u0435\u0442", "kl_gp": "\u041c\u0430\u0433\u0438\u0441\u0442\u0440\u0430\u043b\u044c\u043d\u044b\u0435 \u0443\u043b\u0438\u0446\u044b \u043e\u0431\u0449\u0435\u0433\u043e\u0440\u043e\u0434\u0441\u043a\u043e\u0433\u043e \u0437\u043d\u0430\u0447\u0435\u043d\u0438\u044f I \u043a\u043b\u0430\u0441\u0441\u0430 \u0446\u0435\u043d\u0442\u0440\u0430", "class_active_2016": "\u041c\u0430\u0433\u0438\u0441\u0442\u0440\u0430\u043b\u044c\u043d\u044b\u0435 \u0443\u043b\u0438\u0446\u044b \u043e\u0431\u0449\u0435\u0433\u043e\u0440\u043e\u0434\u0441\u043a\u043e\u0433\u043e \u0437\u043d\u0430\u0447\u0435\u043d\u0438\u044f 2-\u0433\u043e \u043a\u043b\u0430\u0441\u0441\u0430 - \u0440\u0435\u0433\u0443\u043b\u0438\u0440\u0443\u0435\u043c\u043e\u0433\u043e \u0434\u0432\u0438\u0436\u0435\u043d\u0438\u044f", "offer_2016": "\u041c\u0430\u0433\u0438\u0441\u0442\u0440\u0430\u043b\u044c\u043d\u044b\u0435 \u0443\u043b\u0438\u0446\u044b \u043e\u0431\u0449\u0435\u0433\u043e\u0440\u043e\u0434\u0441\u043a\u043e\u0433\u043e \u0437\u043d\u0430\u0447\u0435\u043d\u0438\u044f 1-\u0433\u043e \u043a\u043b\u0430\u0441\u0441\u0430 - \u043d\u0435\u043f\u0440\u0435\u0440\u044b\u0432\u043d\u043e\u0433\u043e \u0434\u0432\u0438\u0436\u0435\u043d\u0438\u044f"}}, {"type": "Feature", "geometry": {"type": "Polygon", "coordinates": [[[37.58990139283423, 55.76698143607781], [37.58990139283423, 55.7669743707524], [37.58992699430973, 55.766967305426995], [37.58994406196006, 55.7669743707524], [37.58991846048456, 55.76698496874052], [37.58990139283423, 55.76698143607781]]]}, "properties": {"id": 20, "bound": true, "edge_id": 8, "ID": "{b327554a-ee32-484d-b1f9-a64cd298391e}", "na_obj": "\u041a\u0440\u0430\u0441\u0438\u043d\u0430 \u0443\u043b\u0438\u0446\u0430", "um_code": "011550", "no_omk": "-", "ao": "\u0426\u0410\u041e", "rajon": "\u041f\u0440\u0435\u0441\u043d\u0435\u043d\u0441\u043a\u0438\u0439", "status": "\u0421\u0443\u0449\u0435\u0441\u0442\u0432\u0443\u044e\u0449\u0438\u0435", "length": 276.6, "type_uds": "\u041e\u0434\u043d\u0430 \u043f\u0440\u043e\u0435\u0437\u0436\u0430\u044f \u0447\u0430\u0441\u0442\u044c", "rlane": "\u0414\u0430", "one_way": "\u0434\u0430", "kl_gp": "\u041c\u0430\u0433\u0438\u0441\u0442\u0440\u0430\u043b\u044c\u043d\u044b\u0435 \u0443\u043b\u0438\u0446\u044b \u0440\u0430\u0439\u043e\u043d\u043d\u043e\u0433\u043e \u0437\u043d\u0430\u0447\u0435\u043d\u0438\u044f \u0446\u0435\u043d\u0442\u0440\u0430", "class_active_2016": "\u0423\u043b\u0438\u0446\u044b \u0438 \u0434\u043e\u0440\u043e\u0433\u0438 \u043c\u0435\u0441\u0442\u043d\u043e\u0433\u043e \u0437\u043d\u0430\u0447\u0435\u043d\u0438\u044f", "offer_2016": "\u041c\u0430\u0433\u0438\u0441\u0442\u0440\u0430\u043b\u044c\u043d\u044b\u0435 \u0443\u043b\u0438\u0446\u044b \u0440\u0430\u0439\u043e\u043d\u043d\u043e\u0433\u043e \u0437\u043d\u0430\u0447\u0435\u043d\u0438\u044f"}}, {"type": "Feature", "geometry": {"type": "Polygon", "coordinates": [[[37.593861087711495, 55.767048556669224], [37.59381841858566, 55.767030893355695], [37.59384402006116, 55.76702382803028], [37.593861087711495, 55.76702736069299], [37.593861087711495, 55.767048556669224]]]}, "properties": {"id": 21, "bound": true, "edge_id": 11, "ID": "{c8a9585b-aa6d-44a6-8a2f-aff1978eb04f}", "na_obj": "\u0431/\u043d", "um_code": "-", "no_omk": "-", "ao": "\u0426\u0410\u041e", "rajon": "\u041f\u0440\u0435\u0441\u043d\u0435\u043d\u0441\u043a\u0438\u0439,\u0422\u0432\u0435\u0440\u0441\u043a\u043e\u0439", "status": "\u0421\u0443\u0449\u0435\u0441\u0442\u0432\u0443\u044e\u0449\u0438\u0435", "length": 329.1, "type_uds": "\u0421\u044a\u0435\u0437\u0434", "rlane": "\u0414\u0430", "one_way": "\u0434\u0430", "kl_gp": "\u041c\u0430\u0433\u0438\u0441\u0442\u0440\u0430\u043b\u044c\u043d\u044b\u0435 \u0443\u043b\u0438\u0446\u044b \u043e\u0431\u0449\u0435\u0433\u043e\u0440\u043e\u0434\u0441\u043a\u043e\u0433\u043e \u0437\u043d\u0430\u0447\u0435\u043d\u0438\u044f I \u043a\u043b\u0430\u0441\u0441\u0430 \u0446\u0435\u043d\u0442\u0440\u0430", "class_active_2016": "-", "offer_2016": "-"}}, {"type": "Feature", "geometry": {"type": "Polygon", "coordinates": [[[37.5916934961192, 55.767073285308165], [37.59171056376953, 55.76706621998275], [37.59173616524503, 55.76706975264546], [37.5917190975947, 55.767076817970874], [37.59173616524503, 55.76708388329628], [37.5916934961192, 55.767073285308165]]]}, "properties": {"id": 22, "bound": true, "edge_id": 4, "ID": "{20444462-4e3f-43b9-ba10-212301728357}", "na_obj": "\u0421\u0430\u0434\u043e\u0432\u043e\u0435 \u041a\u043e\u043b\u044c\u0446\u043e (\u0421\u0430\u0434\u043e\u0432\u0430\u044f \u0411\u043e\u043b\u044c\u0448\u0430\u044f \u0443\u043b\u0438\u0446\u0430)", "um_code": "024120", "no_omk": "-", "ao": "\u0426\u0410\u041e", "rajon": "\u041f\u0440\u0435\u0441\u043d\u0435\u043d\u0441\u043a\u0438\u0439", "status": "\u0421\u0443\u0449\u0435\u0441\u0442\u0432\u0443\u044e\u0449\u0438\u0435", "length": 134.6, "type_uds": "\u041e\u0434\u043d\u0430 \u043f\u0440\u043e\u0435\u0437\u0436\u0430\u044f \u0447\u0430\u0441\u0442\u044c", "rlane": "\u0414\u0430", "one_way": "\u043d\u0435\u0442", "kl_gp": "\u041c\u0430\u0433\u0438\u0441\u0442\u0440\u0430\u043b\u044c\u043d\u044b\u0435 \u0443\u043b\u0438\u0446\u044b \u043e\u0431\u0449\u0435\u0433\u043e\u0440\u043e\u0434\u0441\u043a\u043e\u0433\u043e \u0437\u043d\u0430\u0447\u0435\u043d\u0438\u044f I \u043a\u043b\u0430\u0441\u0441\u0430 \u0446\u0435\u043d\u0442\u0440\u0430", "class_active_2016": "\u041c\u0430\u0433\u0438\u0441\u0442\u0440\u0430\u043b\u044c\u043d\u044b\u0435 \u0443\u043b\u0438\u0446\u044b \u043e\u0431\u0449\u0435\u0433\u043e\u0440\u043e\u0434\u0441\u043a\u043e\u0433\u043e \u0437\u043d\u0430\u0447\u0435\u043d\u0438\u044f 2-\u0433\u043e \u043a\u043b\u0430\u0441\u0441\u0430 - \u0440\u0435\u0433\u0443\u043b\u0438\u0440\u0443\u0435\u043c\u043e\u0433\u043e \u0434\u0432\u0438\u0436\u0435\u043d\u0438\u044f", "offer_2016": "\u041c\u0430\u0433\u0438\u0441\u0442\u0440\u0430\u043b\u044c\u043d\u044b\u0435 \u0443\u043b\u0438\u0446\u044b \u043e\u0431\u0449\u0435\u0433\u043e\u0440\u043e\u0434\u0441\u043a\u043e\u0433\u043e \u0437\u043d\u0430\u0447\u0435\u043d\u0438\u044f 1-\u0433\u043e \u043a\u043b\u0430\u0441\u0441\u0430 - \u043d\u0435\u043f\u0440\u0435\u0440\u044b\u0432\u043d\u043e\u0433\u043e \u0434\u0432\u0438\u0436\u0435\u043d\u0438\u044f"}}, {"type": "Feature", "geometry": {"type": "Polygon", "coordinates": [[[37.590746241525714, 55.76708035063358], [37.59075477535088, 55.767073285308165], [37.59078891065155, 55.76706268732005], [37.59079744447671, 55.767073285308165], [37.590746241525714, 55.76708035063358]]]}, "properties": {"id": 23, "bound": true, "edge_id": 4, "ID": "{20444462-4e3f-43b9-ba10-212301728357}", "na_obj": "\u0421\u0430\u0434\u043e\u0432\u043e\u0435 \u041a\u043e\u043b\u044c\u0446\u043e (\u0421\u0430\u0434\u043e\u0432\u0430\u044f \u0411\u043e\u043b\u044c\u0448\u0430\u044f \u0443\u043b\u0438\u0446\u0430)", "um_code": "024120", "no_omk": "-", "ao": "\u0426\u0410\u041e", "rajon": "\u041f\u0440\u0435\u0441\u043d\u0435\u043d\u0441\u043a\u0438\u0439", "status": "\u0421\u0443\u0449\u0435\u0441\u0442\u0432\u0443\u044e\u0449\u0438\u0435", "length": 134.6, "type_uds": "\u041e\u0434\u043d\u0430 \u043f\u0440\u043e\u0435\u0437\u0436\u0430\u044f \u0447\u0430\u0441\u0442\u044c", "rlane": "\u0414\u0430", "one_way": "\u043d\u0435\u0442", "kl_gp": "\u041c\u0430\u0433\u0438\u0441\u0442\u0440\u0430\u043b\u044c\u043d\u044b\u0435 \u0443\u043b\u0438\u0446\u044b \u043e\u0431\u0449\u0435\u0433\u043e\u0440\u043e\u0434\u0441\u043a\u043e\u0433\u043e \u0437\u043d\u0430\u0447\u0435\u043d\u0438\u044f I \u043a\u043b\u0430\u0441\u0441\u0430 \u0446\u0435\u043d\u0442\u0440\u0430", "class_active_2016": "\u041c\u0430\u0433\u0438\u0441\u0442\u0440\u0430\u043b\u044c\u043d\u044b\u0435 \u0443\u043b\u0438\u0446\u044b \u043e\u0431\u0449\u0435\u0433\u043e\u0440\u043e\u0434\u0441\u043a\u043e\u0433\u043e \u0437\u043d\u0430\u0447\u0435\u043d\u0438\u044f 2-\u0433\u043e \u043a\u043b\u0430\u0441\u0441\u0430 - \u0440\u0435\u0433\u0443\u043b\u0438\u0440\u0443\u0435\u043c\u043e\u0433\u043e \u0434\u0432\u0438\u0436\u0435\u043d\u0438\u044f", "offer_2016": "\u041c\u0430\u0433\u0438\u0441\u0442\u0440\u0430\u043b\u044c\u043d\u044b\u0435 \u0443\u043b\u0438\u0446\u044b \u043e\u0431\u0449\u0435\u0433\u043e\u0440\u043e\u0434\u0441\u043a\u043e\u0433\u043e \u0437\u043d\u0430\u0447\u0435\u043d\u0438\u044f 1-\u0433\u043e \u043a\u043b\u0430\u0441\u0441\u0430 - \u043d\u0435\u043f\u0440\u0435\u0440\u044b\u0432\u043d\u043e\u0433\u043e \u0434\u0432\u0438\u0436\u0435\u043d\u0438\u044f"}}, {"type": "Feature", "geometry": {"type": "Polygon", "coordinates": [[[37.59048169294555, 55.76716160187581], [37.5904740125029, 55.76714888429007], [37.59050729442105, 55.76716160187581], [37.590473159120386, 55.76717926518934], [37.59045609147005, 55.76717219986393], [37.59048169294555, 55.76716160187581]]]}, "properties": {"id": 24, "bound": true, "edge_id": 8, "ID": "{b327554a-ee32-484d-b1f9-a64cd298391e}", "na_obj": "\u041a\u0440\u0430\u0441\u0438\u043d\u0430 \u0443\u043b\u0438\u0446\u0430", "um_code": "011550", "no_omk": "-", "ao": "\u0426\u0410\u041e", "rajon": "\u041f\u0440\u0435\u0441\u043d\u0435\u043d\u0441\u043a\u0438\u0439", "status": "\u0421\u0443\u0449\u0435\u0441\u0442\u0432\u0443\u044e\u0449\u0438\u0435", "length": 276.6, "type_uds": "\u041e\u0434\u043d\u0430 \u043f\u0440\u043e\u0435\u0437\u0436\u0430\u044f \u0447\u0430\u0441\u0442\u044c", "rlane": "\u0414\u0430", "one_way": "\u0434\u0430", "kl_gp": "\u041c\u0430\u0433\u0438\u0441\u0442\u0440\u0430\u043b\u044c\u043d\u044b\u0435 \u0443\u043b\u0438\u0446\u044b \u0440\u0430\u0439\u043e\u043d\u043d\u043e\u0433\u043e \u0437\u043d\u0430\u0447\u0435\u043d\u0438\u044f \u0446\u0435\u043d\u0442\u0440\u0430", "class_active_2016": "\u0423\u043b\u0438\u0446\u044b \u0438 \u0434\u043e\u0440\u043e\u0433\u0438 \u043c\u0435\u0441\u0442\u043d\u043e\u0433\u043e \u0437\u043d\u0430\u0447\u0435\u043d\u0438\u044f", "offer_2016": "\u041c\u0430\u0433\u0438\u0441\u0442\u0440\u0430\u043b\u044c\u043d\u044b\u0435 \u0443\u043b\u0438\u0446\u044b \u0440\u0430\u0439\u043e\u043d\u043d\u043e\u0433\u043e \u0437\u043d\u0430\u0447\u0435\u043d\u0438\u044f"}}, {"type": "Feature", "geometry": {"type": "Polygon", "coordinates": [[[37.59191537557353, 55.76724638578075], [37.59191537557353, 55.767235787792636], [37.59193244322386, 55.76722872246722], [37.591949510874194, 55.767235787792636], [37.59193244322386, 55.76724638578075], [37.59191537557353, 55.76724638578075]]]}, "properties": {"id": 25, "bound": true, "edge_id": 6, "ID": "{c9c71cde-f3fd-4f21-9d8a-dcc5f2cc9797}", "na_obj": "\u0421\u0430\u0434\u043e\u0432\u043e\u0435 \u041a\u043e\u043b\u044c\u0446\u043e (\u0421\u0430\u0434\u043e\u0432\u0430\u044f \u0411\u043e\u043b\u044c\u0448\u0430\u044f \u0443\u043b\u0438\u0446\u0430)", "um_code": "024120", "no_omk": "-", "ao": "\u0426\u0410\u041e", "rajon": "\u041f\u0440\u0435\u0441\u043d\u0435\u043d\u0441\u043a\u0438\u0439", "status": "\u0421\u0443\u0449\u0435\u0441\u0442\u0432\u0443\u044e\u0449\u0438\u0435", "length": 17.0, "type_uds": "\u041e\u0434\u043d\u0430 \u043f\u0440\u043e\u0435\u0437\u0436\u0430\u044f \u0447\u0430\u0441\u0442\u044c", "rlane": "\u0414\u0430", "one_way": "\u043d\u0435\u0442", "kl_gp": "\u041c\u0430\u0433\u0438\u0441\u0442\u0440\u0430\u043b\u044c\u043d\u044b\u0435 \u0443\u043b\u0438\u0446\u044b \u043e\u0431\u0449\u0435\u0433\u043e\u0440\u043e\u0434\u0441\u043a\u043e\u0433\u043e \u0437\u043d\u0430\u0447\u0435\u043d\u0438\u044f I \u043a\u043b\u0430\u0441\u0441\u0430 \u0446\u0435\u043d\u0442\u0440\u0430", "class_active_2016": "\u041c\u0430\u0433\u0438\u0441\u0442\u0440\u0430\u043b\u044c\u043d\u044b\u0435 \u0443\u043b\u0438\u0446\u044b \u043e\u0431\u0449\u0435\u0433\u043e\u0440\u043e\u0434\u0441\u043a\u043e\u0433\u043e \u0437\u043d\u0430\u0447\u0435\u043d\u0438\u044f 2-\u0433\u043e \u043a\u043b\u0430\u0441\u0441\u0430 - \u0440\u0435\u0433\u0443\u043b\u0438\u0440\u0443\u0435\u043c\u043e\u0433\u043e \u0434\u0432\u0438\u0436\u0435\u043d\u0438\u044f", "offer_2016": "\u041c\u0430\u0433\u0438\u0441\u0442\u0440\u0430\u043b\u044c\u043d\u044b\u0435 \u0443\u043b\u0438\u0446\u044b \u043e\u0431\u0449\u0435\u0433\u043e\u0440\u043e\u0434\u0441\u043a\u043e\u0433\u043e \u0437\u043d\u0430\u0447\u0435\u043d\u0438\u044f 1-\u0433\u043e \u043a\u043b\u0430\u0441\u0441\u0430 - \u043d\u0435\u043f\u0440\u0435\u0440\u044b\u0432\u043d\u043e\u0433\u043e \u0434\u0432\u0438\u0436\u0435\u043d\u0438\u044f"}}, {"type": "Feature", "geometry": {"type": "Polygon", "coordinates": [[[37.59286263016701, 55.76728524507052], [37.59286263016701, 55.767278179745105], [37.592879697817345, 55.767274647082395], [37.59289676546768, 55.76728171240781], [37.592879697817345, 55.76728877773322], [37.59286263016701, 55.76728524507052]]]}, "properties": {"id": 26, "bound": true, "edge_id": 11, "ID": "{c8a9585b-aa6d-44a6-8a2f-aff1978eb04f}", "na_obj": "\u0431/\u043d", "um_code": "-", "no_omk": "-", "ao": "\u0426\u0410\u041e", "rajon": "\u041f\u0440\u0435\u0441\u043d\u0435\u043d\u0441\u043a\u0438\u0439,\u0422\u0432\u0435\u0440\u0441\u043a\u043e\u0439", "status": "\u0421\u0443\u0449\u0435\u0441\u0442\u0432\u0443\u044e\u0449\u0438\u0435", "length": 329.1, "type_uds": "\u0421\u044a\u0435\u0437\u0434", "rlane": "\u0414\u0430", "one_way": "\u0434\u0430", "kl_gp": "\u041c\u0430\u0433\u0438\u0441\u0442\u0440\u0430\u043b\u044c\u043d\u044b\u0435 \u0443\u043b\u0438\u0446\u044b \u043e\u0431\u0449\u0435\u0433\u043e\u0440\u043e\u0434\u0441\u043a\u043e\u0433\u043e \u0437\u043d\u0430\u0447\u0435\u043d\u0438\u044f I \u043a\u043b\u0430\u0441\u0441\u0430 \u0446\u0435\u043d\u0442\u0440\u0430", "class_active_2016": "-", "offer_2016": "-"}}, {"type": "Feature", "geometry": {"type": "Polygon", "coordinates": [[[37.58985018988323, 55.7673347023484], [37.589833122232896, 55.76732763702299], [37.589858723708396, 55.76731350637216], [37.58986725753356, 55.76732410436028], [37.58985018988323, 55.7673347023484]]]}, "properties": {"id": 27, "bound": true, "edge_id": 8, "ID": "{b327554a-ee32-484d-b1f9-a64cd298391e}", "na_obj": "\u041a\u0440\u0430\u0441\u0438\u043d\u0430 \u0443\u043b\u0438\u0446\u0430", "um_code": "011550", "no_omk": "-", "ao": "\u0426\u0410\u041e", "rajon": "\u041f\u0440\u0435\u0441\u043d\u0435\u043d\u0441\u043a\u0438\u0439", "status": "\u0421\u0443\u0449\u0435\u0441\u0442\u0432\u0443\u044e\u0449\u0438\u0435", "length": 276.6, "type_uds": "\u041e\u0434\u043d\u0430 \u043f\u0440\u043e\u0435\u0437\u0436\u0430\u044f \u0447\u0430\u0441\u0442\u044c", "rlane": "\u0414\u0430", "one_way": "\u0434\u0430", "kl_gp": "\u041c\u0430\u0433\u0438\u0441\u0442\u0440\u0430\u043b\u044c\u043d\u044b\u0435 \u0443\u043b\u0438\u0446\u044b \u0440\u0430\u0439\u043e\u043d\u043d\u043e\u0433\u043e \u0437\u043d\u0430\u0447\u0435\u043d\u0438\u044f \u0446\u0435\u043d\u0442\u0440\u0430", "class_active_2016": "\u0423\u043b\u0438\u0446\u044b \u0438 \u0434\u043e\u0440\u043e\u0433\u0438 \u043c\u0435\u0441\u0442\u043d\u043e\u0433\u043e \u0437\u043d\u0430\u0447\u0435\u043d\u0438\u044f", "offer_2016": "\u041c\u0430\u0433\u0438\u0441\u0442\u0440\u0430\u043b\u044c\u043d\u044b\u0435 \u0443\u043b\u0438\u0446\u044b \u0440\u0430\u0439\u043e\u043d\u043d\u043e\u0433\u043e \u0437\u043d\u0430\u0447\u0435\u043d\u0438\u044f"}}, {"type": "Feature", "geometry": {"type": "Polygon", "coordinates": [[[37.5897563178064, 55.7673347023484], [37.5897307163309, 55.76732763702299], [37.58974778398123, 55.76731350637216], [37.58977338545673, 55.76732410436028], [37.5897563178064, 55.7673347023484]]]}, "properties": {"id": 28, "bound": true, "edge_id": 8, "ID": "{b327554a-ee32-484d-b1f9-a64cd298391e}", "na_obj": "\u041a\u0440\u0430\u0441\u0438\u043d\u0430 \u0443\u043b\u0438\u0446\u0430", "um_code": "011550", "no_omk": "-", "ao": "\u0426\u0410\u041e", "rajon": "\u041f\u0440\u0435\u0441\u043d\u0435\u043d\u0441\u043a\u0438\u0439", "status": "\u0421\u0443\u0449\u0435\u0441\u0442\u0432\u0443\u044e\u0449\u0438\u0435", "length": 276.6, "type_uds": "\u041e\u0434\u043d\u0430 \u043f\u0440\u043e\u0435\u0437\u0436\u0430\u044f \u0447\u0430\u0441\u0442\u044c", "rlane": "\u0414\u0430", "one_way": "\u0434\u0430", "kl_gp": "\u041c\u0430\u0433\u0438\u0441\u0442\u0440\u0430\u043b\u044c\u043d\u044b\u0435 \u0443\u043b\u0438\u0446\u044b \u0440\u0430\u0439\u043e\u043d\u043d\u043e\u0433\u043e \u0437\u043d\u0430\u0447\u0435\u043d\u0438\u044f \u0446\u0435\u043d\u0442\u0440\u0430", "class_active_2016": "\u0423\u043b\u0438\u0446\u044b \u0438 \u0434\u043e\u0440\u043e\u0433\u0438 \u043c\u0435\u0441\u0442\u043d\u043e\u0433\u043e \u0437\u043d\u0430\u0447\u0435\u043d\u0438\u044f", "offer_2016": "\u041c\u0430\u0433\u0438\u0441\u0442\u0440\u0430\u043b\u044c\u043d\u044b\u0435 \u0443\u043b\u0438\u0446\u044b \u0440\u0430\u0439\u043e\u043d\u043d\u043e\u0433\u043e \u0437\u043d\u0430\u0447\u0435\u043d\u0438\u044f"}}, {"type": "Feature", "geometry": {"type": "Polygon", "coordinates": [[[37.5916678946437, 55.76738062696357], [37.591676428468865, 55.767370028975456], [37.5916934961192, 55.76737356163816], [37.591702029944365, 55.767387692288985], [37.5916678946437, 55.76738062696357]]]}, "properties": {"id": 29, "bound": true, "edge_id": 4, "ID": "{20444462-4e3f-43b9-ba10-212301728357}", "na_obj": "\u0421\u0430\u0434\u043e\u0432\u043e\u0435 \u041a\u043e\u043b\u044c\u0446\u043e (\u0421\u0430\u0434\u043e\u0432\u0430\u044f \u0411\u043e\u043b\u044c\u0448\u0430\u044f \u0443\u043b\u0438\u0446\u0430)", "um_code": "024120", "no_omk": "-", "ao": "\u0426\u0410\u041e", "rajon": "\u041f\u0440\u0435\u0441\u043d\u0435\u043d\u0441\u043a\u0438\u0439", "status": "\u0421\u0443\u0449\u0435\u0441\u0442\u0432\u0443\u044e\u0449\u0438\u0435", "length": 134.6, "type_uds": "\u041e\u0434\u043d\u0430 \u043f\u0440\u043e\u0435\u0437\u0436\u0430\u044f \u0447\u0430\u0441\u0442\u044c", "rlane": "\u0414\u0430", "one_way": "\u043d\u0435\u0442", "kl_gp": "\u041c\u0430\u0433\u0438\u0441\u0442\u0440\u0430\u043b\u044c\u043d\u044b\u0435 \u0443\u043b\u0438\u0446\u044b \u043e\u0431\u0449\u0435\u0433\u043e\u0440\u043e\u0434\u0441\u043a\u043e\u0433\u043e \u0437\u043d\u0430\u0447\u0435\u043d\u0438\u044f I \u043a\u043b\u0430\u0441\u0441\u0430 \u0446\u0435\u043d\u0442\u0440\u0430", "class_active_2016": "\u041c\u0430\u0433\u0438\u0441\u0442\u0440\u0430\u043b\u044c\u043d\u044b\u0435 \u0443\u043b\u0438\u0446\u044b \u043e\u0431\u0449\u0435\u0433\u043e\u0440\u043e\u0434\u0441\u043a\u043e\u0433\u043e \u0437\u043d\u0430\u0447\u0435\u043d\u0438\u044f 2-\u0433\u043e \u043a\u043b\u0430\u0441\u0441\u0430 - \u0440\u0435\u0433\u0443\u043b\u0438\u0440\u0443\u0435\u043c\u043e\u0433\u043e \u0434\u0432\u0438\u0436\u0435\u043d\u0438\u044f", "offer_2016": "\u041c\u0430\u0433\u0438\u0441\u0442\u0440\u0430\u043b\u044c\u043d\u044b\u0435 \u0443\u043b\u0438\u0446\u044b \u043e\u0431\u0449\u0435\u0433\u043e\u0440\u043e\u0434\u0441\u043a\u043e\u0433\u043e \u0437\u043d\u0430\u0447\u0435\u043d\u0438\u044f 1-\u0433\u043e \u043a\u043b\u0430\u0441\u0441\u0430 - \u043d\u0435\u043f\u0440\u0435\u0440\u044b\u0432\u043d\u043e\u0433\u043e \u0434\u0432\u0438\u0436\u0435\u043d\u0438\u044f"}}, {"type": "Feature", "geometry": {"type": "Polygon", "coordinates": [[[37.59095958715488, 55.76753606412263], [37.59097665480521, 55.76752899879722], [37.59095105332971, 55.7675184008091], [37.59095105332971, 55.76751133548369], [37.59097665480521, 55.76751133548369], [37.59100225628071, 55.76753606412263], [37.59095958715488, 55.76753606412263]]]}, "properties": {"id": 30, "bound": true, "edge_id": 4, "ID": "{20444462-4e3f-43b9-ba10-212301728357}", "na_obj": "\u0421\u0430\u0434\u043e\u0432\u043e\u0435 \u041a\u043e\u043b\u044c\u0446\u043e (\u0421\u0430\u0434\u043e\u0432\u0430\u044f \u0411\u043e\u043b\u044c\u0448\u0430\u044f \u0443\u043b\u0438\u0446\u0430)", "um_code": "024120", "no_omk": "-", "ao": "\u0426\u0410\u041e", "rajon": "\u041f\u0440\u0435\u0441\u043d\u0435\u043d\u0441\u043a\u0438\u0439", "status": "\u0421\u0443\u0449\u0435\u0441\u0442\u0432\u0443\u044e\u0449\u0438\u0435", "length": 134.6, "type_uds": "\u041e\u0434\u043d\u0430 \u043f\u0440\u043e\u0435\u0437\u0436\u0430\u044f \u0447\u0430\u0441\u0442\u044c", "rlane": "\u0414\u0430", "one_way": "\u043d\u0435\u0442", "kl_gp": "\u041c\u0430\u0433\u0438\u0441\u0442\u0440\u0430\u043b\u044c\u043d\u044b\u0435 \u0443\u043b\u0438\u0446\u044b \u043e\u0431\u0449\u0435\u0433\u043e\u0440\u043e\u0434\u0441\u043a\u043e\u0433\u043e \u0437\u043d\u0430\u0447\u0435\u043d\u0438\u044f I \u043a\u043b\u0430\u0441\u0441\u0430 \u0446\u0435\u043d\u0442\u0440\u0430", "class_active_2016": "\u041c\u0430\u0433\u0438\u0441\u0442\u0440\u0430\u043b\u044c\u043d\u044b\u0435 \u0443\u043b\u0438\u0446\u044b \u043e\u0431\u0449\u0435\u0433\u043e\u0440\u043e\u0434\u0441\u043a\u043e\u0433\u043e \u0437\u043d\u0430\u0447\u0435\u043d\u0438\u044f 2-\u0433\u043e \u043a\u043b\u0430\u0441\u0441\u0430 - \u0440\u0435\u0433\u0443\u043b\u0438\u0440\u0443\u0435\u043c\u043e\u0433\u043e \u0434\u0432\u0438\u0436\u0435\u043d\u0438\u044f", "offer_2016": "\u041c\u0430\u0433\u0438\u0441\u0442\u0440\u0430\u043b\u044c\u043d\u044b\u0435 \u0443\u043b\u0438\u0446\u044b \u043e\u0431\u0449\u0435\u0433\u043e\u0440\u043e\u0434\u0441\u043a\u043e\u0433\u043e \u0437\u043d\u0430\u0447\u0435\u043d\u0438\u044f 1-\u0433\u043e \u043a\u043b\u0430\u0441\u0441\u0430 - \u043d\u0435\u043f\u0440\u0435\u0440\u044b\u0432\u043d\u043e\u0433\u043e \u0434\u0432\u0438\u0436\u0435\u043d\u0438\u044f"}}]}