{"type": "FeatureCollection", "features": [{"type": "Feature", "geometry": {"type": "Polygon", "coordinates": [[[37.58694478136022, 55.75854234314655], [37.58685619512108, 55.75850853349249], [37.58690048824065, 55.758477797443334], [37.58689162961674, 55.75845935581385], [37.58694478136022, 55.75845935581385], [37.58694478136022, 55.75854234314655]]]}, "properties": {"id": 0, "bound": true, "edge_id": 1, "ID": "{e9782032-e7b8-42a9-baa9-b6b8e0ec2b4f}", "na_obj": "\u041d\u0438\u043a\u0438\u0442\u0441\u043a\u0430\u044f \u0411\u043e\u043b\u044c\u0448\u0430\u044f \u0443\u043b\u0438\u0446\u0430", "um_code": "004730", "no_omk": "-", "ao": "\u0426\u0410\u041e", "rajon": "\u041f\u0440\u0435\u0441\u043d\u0435\u043d\u0441\u043a\u0438\u0439", "status": "\u0421\u0443\u0449\u0435\u0441\u0442\u0432\u0443\u044e\u0449\u0438\u0435", "length": 270.8, "type_uds": "\u041e\u0434\u043d\u0430 \u043f\u0440\u043e\u0435\u0437\u0436\u0430\u044f \u0447\u0430\u0441\u0442\u044c", "rlane": "\u0414\u0430", "one_way": "\u043d\u0435\u0442", "kl_gp": "\u041c\u0430\u0433\u0438\u0441\u0442\u0440\u0430\u043b\u044c\u043d\u044b\u0435 \u0443\u043b\u0438\u0446\u044b \u043e\u0431\u0449\u0435\u0433\u043e\u0440\u043e\u0434\u0441\u043a\u043e\u0433\u043e \u0437\u043d\u0430\u0447\u0435\u043d\u0438\u044f II \u043a\u043b\u0430\u0441\u0441\u0430 \u0446\u0435\u043d\u0442\u0440\u0430", "class_active_2016": "\u041c\u0430\u0433\u0438\u0441\u0442\u0440\u0430\u043b\u044c\u043d\u044b\u0435 \u0443\u043b\u0438\u0446\u044b \u0440\u0430\u0439\u043e\u043d\u043d\u043e\u0433\u043e \u0437\u043d\u0430\u0447\u0435\u043d\u0438\u044f", "offer_2016": "\u041c\u0430\u0433\u0438\u0441\u0442\u0440\u0430\u043b\u044c\u043d\u044b\u0435 \u0443\u043b\u0438\u0446\u044b \u0440\u0430\u0439\u043e\u043d\u043d\u043e\u0433\u043e \u0437\u043d\u0430\u0447\u0435\u043d\u0438\u044f"}}, {"type": "Feature", "geometry": {"type": "Polygon", "coordinates": [[[37.582639490137815, 55.758539269541636], [37.582577479770414, 55.758539269541636], [37.582559762522585, 55.758490091862996], [37.58253318665084, 55.75848087104825], [37.582497752155184, 55.75848087104825], [37.58247117628344, 55.75845935581385], [37.58258633839433, 55.75845935581385], [37.582559762522585, 55.75847165023351], [37.58261291426607, 55.758477797443334], [37.582639490137815, 55.758468576628594], [37.5826306315139, 55.75845935581385], [37.58317100757268, 55.75845935581385], [37.58312671445311, 55.758468576628594], [37.58307356270962, 55.75847165023351], [37.583002693718306, 55.75848701825808], [37.58285209711176, 55.75850238628266], [37.58280780399219, 55.75852390151706], [37.58274579362479, 55.75851775430723], [37.582639490137815, 55.758539269541636]]]}, "properties": {"id": 1, "bound": true, "edge_id": 11, "ID": "{cf477ab7-d067-459f-a1da-815569bac2c7}", "na_obj": "\u0411\u0430\u0440\u0440\u0438\u043a\u0430\u0434\u043d\u0430\u044f \u0443\u043b\u0438\u0446\u0430", "um_code": "001270", "no_omk": "-", "ao": "\u0426\u0410\u041e", "rajon": "\u041f\u0440\u0435\u0441\u043d\u0435\u043d\u0441\u043a\u0438\u0439", "status": "\u0421\u0443\u0449\u0435\u0441\u0442\u0432\u0443\u044e\u0449\u0438\u0435", "length": 254.1, "type_uds": "\u041e\u0434\u043d\u0430 \u043f\u0440\u043e\u0435\u0437\u0436\u0430\u044f \u0447\u0430\u0441\u0442\u044c", "rlane": "\u0414\u0430", "one_way": "\u043d\u0435\u0442", "kl_gp": "\u041c\u0430\u0433\u0438\u0441\u0442\u0440\u0430\u043b\u044c\u043d\u044b\u0435 \u0443\u043b\u0438\u0446\u044b \u043e\u0431\u0449\u0435\u0433\u043e\u0440\u043e\u0434\u0441\u043a\u043e\u0433\u043e \u0437\u043d\u0430\u0447\u0435\u043d\u0438\u044f I \u043a\u043b\u0430\u0441\u0441\u0430 \u0446\u0435\u043d\u0442\u0440\u0430", "class_active_2016": "\u041c\u0430\u0433\u0438\u0441\u0442\u0440\u0430\u043b\u044c\u043d\u044b\u0435 \u0443\u043b\u0438\u0446\u044b \u043e\u0431\u0449\u0435\u0433\u043e\u0440\u043e\u0434\u0441\u043a\u043e\u0433\u043e \u0437\u043d\u0430\u0447\u0435\u043d\u0438\u044f 2-\u0433\u043e \u043a\u043b\u0430\u0441\u0441\u0430 - \u0440\u0435\u0433\u0443\u043b\u0438\u0440\u0443\u0435\u043c\u043e\u0433\u043e \u0434\u0432\u0438\u0436\u0435\u043d\u0438\u044f", "offer_2016": "\u041c\u0430\u0433\u0438\u0441\u0442\u0440\u0430\u043b\u044c\u043d\u044b\u0435 \u0443\u043b\u0438\u0446\u044b \u043e\u0431\u0449\u0435\u0433\u043e\u0440\u043e\u0434\u0441\u043a\u043e\u0433\u043e \u0437\u043d\u0430\u0447\u0435\u043d\u0438\u044f 1-\u0433\u043e \u043a\u043b\u0430\u0441\u0441\u0430 - \u043d\u0435\u043f\u0440\u0435\u0440\u044b\u0432\u043d\u043e\u0433\u043e \u0434\u0432\u0438\u0436\u0435\u043d\u0438\u044f"}}, {"type": "Feature", "geometry": {"type": "Polygon", "coordinates": [[[37.582701500505216, 55.758576152800615], [37.58272807637696, 55.75856385838095], [37.58277236949653, 55.75856078477604], [37.5828166626161, 55.75854541675146], [37.58293182472699, 55.758533122331805], [37.582940683350905, 55.758548490356375], [37.58291410747916, 55.75855771117112], [37.58288753160742, 55.75855771117112], [37.58282552124002, 55.7585730791957], [37.582798945368275, 55.75856385838095], [37.582781228120446, 55.75856385838095], [37.58272807637696, 55.75858230001044], [37.582701500505216, 55.758576152800615]]]}, "properties": {"id": 2, "bound": true, "edge_id": 11, "ID": "{cf477ab7-d067-459f-a1da-815569bac2c7}", "na_obj": "\u0411\u0430\u0440\u0440\u0438\u043a\u0430\u0434\u043d\u0430\u044f \u0443\u043b\u0438\u0446\u0430", "um_code": "001270", "no_omk": "-", "ao": "\u0426\u0410\u041e", "rajon": "\u041f\u0440\u0435\u0441\u043d\u0435\u043d\u0441\u043a\u0438\u0439", "status": "\u0421\u0443\u0449\u0435\u0441\u0442\u0432\u0443\u044e\u0449\u0438\u0435", "length": 254.1, "type_uds": "\u041e\u0434\u043d\u0430 \u043f\u0440\u043e\u0435\u0437\u0436\u0430\u044f \u0447\u0430\u0441\u0442\u044c", "rlane": "\u0414\u0430", "one_way": "\u043d\u0435\u0442", "kl_gp": "\u041c\u0430\u0433\u0438\u0441\u0442\u0440\u0430\u043b\u044c\u043d\u044b\u0435 \u0443\u043b\u0438\u0446\u044b \u043e\u0431\u0449\u0435\u0433\u043e\u0440\u043e\u0434\u0441\u043a\u043e\u0433\u043e \u0437\u043d\u0430\u0447\u0435\u043d\u0438\u044f I \u043a\u043b\u0430\u0441\u0441\u0430 \u0446\u0435\u043d\u0442\u0440\u0430", "class_active_2016": "\u041c\u0430\u0433\u0438\u0441\u0442\u0440\u0430\u043b\u044c\u043d\u044b\u0435 \u0443\u043b\u0438\u0446\u044b \u043e\u0431\u0449\u0435\u0433\u043e\u0440\u043e\u0434\u0441\u043a\u043e\u0433\u043e \u0437\u043d\u0430\u0447\u0435\u043d\u0438\u044f 2-\u0433\u043e \u043a\u043b\u0430\u0441\u0441\u0430 - \u0440\u0435\u0433\u0443\u043b\u0438\u0440\u0443\u0435\u043c\u043e\u0433\u043e \u0434\u0432\u0438\u0436\u0435\u043d\u0438\u044f", "offer_2016": "\u041c\u0430\u0433\u0438\u0441\u0442\u0440\u0430\u043b\u044c\u043d\u044b\u0435 \u0443\u043b\u0438\u0446\u044b \u043e\u0431\u0449\u0435\u0433\u043e\u0440\u043e\u0434\u0441\u043a\u043e\u0433\u043e \u0437\u043d\u0430\u0447\u0435\u043d\u0438\u044f 1-\u0433\u043e \u043a\u043b\u0430\u0441\u0441\u0430 - \u043d\u0435\u043f\u0440\u0435\u0440\u044b\u0432\u043d\u043e\u0433\u043e \u0434\u0432\u0438\u0436\u0435\u043d\u0438\u044f"}}, {"type": "Feature", "geometry": {"type": "Polygon", "coordinates": [[[37.58326845243574, 55.75872675944144], [37.58327731105965, 55.758720612231606], [37.583259593811825, 55.75871139141687], [37.5833038869314, 55.75868680257754], [37.5833658972988, 55.75868680257754], [37.58339247317054, 55.758699096997205], [37.583339321427054, 55.7587175386267], [37.58326845243574, 55.75872675944144]]]}, "properties": {"id": 3, "bound": true, "edge_id": 11, "ID": "{cf477ab7-d067-459f-a1da-815569bac2c7}", "na_obj": "\u0411\u0430\u0440\u0440\u0438\u043a\u0430\u0434\u043d\u0430\u044f \u0443\u043b\u0438\u0446\u0430", "um_code": "001270", "no_omk": "-", "ao": "\u0426\u0410\u041e", "rajon": "\u041f\u0440\u0435\u0441\u043d\u0435\u043d\u0441\u043a\u0438\u0439", "status": "\u0421\u0443\u0449\u0435\u0441\u0442\u0432\u0443\u044e\u0449\u0438\u0435", "length": 254.1, "type_uds": "\u041e\u0434\u043d\u0430 \u043f\u0440\u043e\u0435\u0437\u0436\u0430\u044f \u0447\u0430\u0441\u0442\u044c", "rlane": "\u0414\u0430", "one_way": "\u043d\u0435\u0442", "kl_gp": "\u041c\u0430\u0433\u0438\u0441\u0442\u0440\u0430\u043b\u044c\u043d\u044b\u0435 \u0443\u043b\u0438\u0446\u044b \u043e\u0431\u0449\u0435\u0433\u043e\u0440\u043e\u0434\u0441\u043a\u043e\u0433\u043e \u0437\u043d\u0430\u0447\u0435\u043d\u0438\u044f I \u043a\u043b\u0430\u0441\u0441\u0430 \u0446\u0435\u043d\u0442\u0440\u0430", "class_active_2016": "\u041c\u0430\u0433\u0438\u0441\u0442\u0440\u0430\u043b\u044c\u043d\u044b\u0435 \u0443\u043b\u0438\u0446\u044b \u043e\u0431\u0449\u0435\u0433\u043e\u0440\u043e\u0434\u0441\u043a\u043e\u0433\u043e \u0437\u043d\u0430\u0447\u0435\u043d\u0438\u044f 2-\u0433\u043e \u043a\u043b\u0430\u0441\u0441\u0430 - \u0440\u0435\u0433\u0443\u043b\u0438\u0440\u0443\u0435\u043c\u043e\u0433\u043e \u0434\u0432\u0438\u0436\u0435\u043d\u0438\u044f", "offer_2016": "\u041c\u0430\u0433\u0438\u0441\u0442\u0440\u0430\u043b\u044c\u043d\u044b\u0435 \u0443\u043b\u0438\u0446\u044b \u043e\u0431\u0449\u0435\u0433\u043e\u0440\u043e\u0434\u0441\u043a\u043e\u0433\u043e \u0437\u043d\u0430\u0447\u0435\u043d\u0438\u044f 1-\u0433\u043e \u043a\u043b\u0430\u0441\u0441\u0430 - \u043d\u0435\u043f\u0440\u0435\u0440\u044b\u0432\u043d\u043e\u0433\u043e \u0434\u0432\u0438\u0436\u0435\u043d\u0438\u044f"}}, {"type": "Feature", "geometry": {"type": "Polygon", "coordinates": [[[37.585846311994835, 55.75884048282329], [37.58582859474701, 55.75883433561346], [37.58589060511441, 55.75881896758889], [37.585926039610065, 55.7588220411938], [37.586005767225295, 55.758800525959394], [37.58603234309704, 55.758800525959394], [37.586103212088354, 55.75877901072499], [37.58613864658401, 55.75877901072499], [37.58617408107967, 55.758763642700416], [37.58620951557533, 55.75876978991025], [37.58618293970358, 55.75878208432991], [37.58603234309704, 55.75880974677414], [37.586005767225295, 55.75880974677414], [37.585943756857894, 55.758828188403626], [37.58593489823398, 55.75884048282329], [37.585846311994835, 55.75884048282329]]]}, "properties": {"id": 4, "bound": true, "edge_id": 1, "ID": "{e9782032-e7b8-42a9-baa9-b6b8e0ec2b4f}", "na_obj": "\u041d\u0438\u043a\u0438\u0442\u0441\u043a\u0430\u044f \u0411\u043e\u043b\u044c\u0448\u0430\u044f \u0443\u043b\u0438\u0446\u0430", "um_code": "004730", "no_omk": "-", "ao": "\u0426\u0410\u041e", "rajon": "\u041f\u0440\u0435\u0441\u043d\u0435\u043d\u0441\u043a\u0438\u0439", "status": "\u0421\u0443\u0449\u0435\u0441\u0442\u0432\u0443\u044e\u0449\u0438\u0435", "length": 270.8, "type_uds": "\u041e\u0434\u043d\u0430 \u043f\u0440\u043e\u0435\u0437\u0436\u0430\u044f \u0447\u0430\u0441\u0442\u044c", "rlane": "\u0414\u0430", "one_way": "\u043d\u0435\u0442", "kl_gp": "\u041c\u0430\u0433\u0438\u0441\u0442\u0440\u0430\u043b\u044c\u043d\u044b\u0435 \u0443\u043b\u0438\u0446\u044b \u043e\u0431\u0449\u0435\u0433\u043e\u0440\u043e\u0434\u0441\u043a\u043e\u0433\u043e \u0437\u043d\u0430\u0447\u0435\u043d\u0438\u044f II \u043a\u043b\u0430\u0441\u0441\u0430 \u0446\u0435\u043d\u0442\u0440\u0430", "class_active_2016": "\u041c\u0430\u0433\u0438\u0441\u0442\u0440\u0430\u043b\u044c\u043d\u044b\u0435 \u0443\u043b\u0438\u0446\u044b \u0440\u0430\u0439\u043e\u043d\u043d\u043e\u0433\u043e \u0437\u043d\u0430\u0447\u0435\u043d\u0438\u044f", "offer_2016": "\u041c\u0430\u0433\u0438\u0441\u0442\u0440\u0430\u043b\u044c\u043d\u044b\u0435 \u0443\u043b\u0438\u0446\u044b \u0440\u0430\u0439\u043e\u043d\u043d\u043e\u0433\u043e \u0437\u043d\u0430\u0447\u0435\u043d\u0438\u044f"}}, {"type": "Feature", "geometry": {"type": "Polygon", "coordinates": [[[37.58694478136022, 55.7588835132921], [37.58683847787325, 55.75887736608227], [37.58683847787325, 55.758871218872436], [37.586767608881935, 55.758849703638035], [37.58671445713845, 55.758858924452774], [37.58671445713845, 55.758843556428204], [37.58667016401888, 55.75883126200854], [37.586705598514534, 55.75881896758889], [37.586705598514534, 55.75880974677414], [37.58666130539496, 55.75879130514465], [37.58663472952322, 55.75878823153974], [37.58651070878842, 55.75880359956431], [37.58645755704493, 55.75881589398397], [37.586404405301444, 55.75881589398397], [37.58636011218187, 55.7588220411938], [37.586386688053615, 55.75880359956431], [37.586386688053615, 55.75877901072499], [37.58645755704493, 55.758757495490585], [37.586484132916674, 55.758757495490585], [37.58657271915582, 55.7587390538611], [37.58659043640365, 55.7587390538611], [37.58661701227539, 55.758748274675845], [37.58672331576236, 55.7587175386267], [37.58673217438628, 55.75872983304635], [37.58675875025802, 55.7587390538611], [37.58682076062542, 55.75874520107093], [37.58685619512108, 55.7587390538611], [37.58689162961674, 55.75872675944144], [37.58689162961674, 55.758720612231606], [37.58694478136022, 55.758705244207036], [37.58693592273631, 55.7587390538611], [37.586909346864566, 55.758742127466014], [37.58688277099282, 55.758757495490585], [37.58689162961674, 55.75876978991025], [37.58691820548848, 55.75877901072499], [37.586909346864566, 55.758785157934824], [37.58694478136022, 55.75879437874956], [37.58694478136022, 55.7588835132921]]]}, "properties": {"id": 5, "bound": true, "edge_id": 1, "ID": "{e9782032-e7b8-42a9-baa9-b6b8e0ec2b4f}", "na_obj": "\u041d\u0438\u043a\u0438\u0442\u0441\u043a\u0430\u044f \u0411\u043e\u043b\u044c\u0448\u0430\u044f \u0443\u043b\u0438\u0446\u0430", "um_code": "004730", "no_omk": "-", "ao": "\u0426\u0410\u041e", "rajon": "\u041f\u0440\u0435\u0441\u043d\u0435\u043d\u0441\u043a\u0438\u0439", "status": "\u0421\u0443\u0449\u0435\u0441\u0442\u0432\u0443\u044e\u0449\u0438\u0435", "length": 270.8, "type_uds": "\u041e\u0434\u043d\u0430 \u043f\u0440\u043e\u0435\u0437\u0436\u0430\u044f \u0447\u0430\u0441\u0442\u044c", "rlane": "\u0414\u0430", "one_way": "\u043d\u0435\u0442", "kl_gp": "\u041c\u0430\u0433\u0438\u0441\u0442\u0440\u0430\u043b\u044c\u043d\u044b\u0435 \u0443\u043b\u0438\u0446\u044b \u043e\u0431\u0449\u0435\u0433\u043e\u0440\u043e\u0434\u0441\u043a\u043e\u0433\u043e \u0437\u043d\u0430\u0447\u0435\u043d\u0438\u044f II \u043a\u043b\u0430\u0441\u0441\u0430 \u0446\u0435\u043d\u0442\u0440\u0430", "class_active_2016": "\u041c\u0430\u0433\u0438\u0441\u0442\u0440\u0430\u043b\u044c\u043d\u044b\u0435 \u0443\u043b\u0438\u0446\u044b \u0440\u0430\u0439\u043e\u043d\u043d\u043e\u0433\u043e \u0437\u043d\u0430\u0447\u0435\u043d\u0438\u044f", "offer_2016": "\u041c\u0430\u0433\u0438\u0441\u0442\u0440\u0430\u043b\u044c\u043d\u044b\u0435 \u0443\u043b\u0438\u0446\u044b \u0440\u0430\u0439\u043e\u043d\u043d\u043e\u0433\u043e \u0437\u043d\u0430\u0447\u0435\u043d\u0438\u044f"}}, {"type": "Feature", "geometry": {"type": "Polygon", "coordinates": [[[37.58694478136022, 55.75898186864937], [37.58691820548848, 55.758972647834625], [37.58694478136022, 55.758951132600224], [37.58694478136022, 55.75898186864937]]]}, "properties": {"id": 6, "bound": true, "edge_id": 5, "ID": "{955d2e59-7253-46d7-bacd-846fd84042a1}", "na_obj": "\u041d\u0438\u043a\u0438\u0442\u0441\u043a\u0430\u044f \u041c\u0430\u043b\u0430\u044f \u0443\u043b\u0438\u0446\u0430", "um_code": "009790", "no_omk": "-", "ao": "\u0426\u0410\u041e", "rajon": "\u041f\u0440\u0435\u0441\u043d\u0435\u043d\u0441\u043a\u0438\u0439", "status": "\u0421\u0443\u0449\u0435\u0441\u0442\u0432\u0443\u044e\u0449\u0438\u0435", "length": 205.9, "type_uds": "\u041e\u0434\u043d\u0430 \u043f\u0440\u043e\u0435\u0437\u0436\u0430\u044f \u0447\u0430\u0441\u0442\u044c", "rlane": "\u0414\u0430", "one_way": "\u043d\u0435\u0442", "kl_gp": "\u041c\u0430\u0433\u0438\u0441\u0442\u0440\u0430\u043b\u044c\u043d\u044b\u0435 \u0443\u043b\u0438\u0446\u044b \u043e\u0431\u0449\u0435\u0433\u043e\u0440\u043e\u0434\u0441\u043a\u043e\u0433\u043e \u0437\u043d\u0430\u0447\u0435\u043d\u0438\u044f II \u043a\u043b\u0430\u0441\u0441\u0430 \u0446\u0435\u043d\u0442\u0440\u0430", "class_active_2016": "\u0423\u043b\u0438\u0446\u044b \u0438 \u0434\u043e\u0440\u043e\u0433\u0438 \u043c\u0435\u0441\u0442\u043d\u043e\u0433\u043e \u0437\u043d\u0430\u0447\u0435\u043d\u0438\u044f", "offer_2016": "\u041c\u0430\u0433\u0438\u0441\u0442\u0440\u0430\u043b\u044c\u043d\u044b\u0435 \u0443\u043b\u0438\u0446\u044b \u0440\u0430\u0439\u043e\u043d\u043d\u043e\u0433\u043e \u0437\u043d\u0430\u0447\u0435\u043d\u0438\u044f"}}, {"type": "Feature", "geometry": {"type": "Polygon", "coordinates": [[[37.58667016401888, 55.75951667590456], [37.58666130539496, 55.759510528694726], [37.586687881266705, 55.75950130787998], [37.586687881266705, 55.75947671904066], [37.58672331576236, 55.75948593985541], [37.58673217438628, 55.759498234275064], [37.58669673989062, 55.75951360229964], [37.58667016401888, 55.75951667590456]]]}, "properties": {"id": 7, "bound": true, "edge_id": 10, "ID": "{af679a6e-6874-44d0-a2a0-8920101c7f53}", "na_obj": "\u0412\u0441\u043f\u043e\u043b\u044c\u043d\u044b\u0439 \u043f\u0435\u0440\u0435\u0443\u043b\u043e\u043a", "um_code": "004310", "no_omk": "-", "ao": "\u0426\u0410\u041e", "rajon": "\u041f\u0440\u0435\u0441\u043d\u0435\u043d\u0441\u043a\u0438\u0439", "status": "\u0421\u0443\u0449\u0435\u0441\u0442\u0432\u0443\u044e\u0449\u0438\u0435", "length": 88.2, "type_uds": "\u041e\u0434\u043d\u0430 \u043f\u0440\u043e\u0435\u0437\u0436\u0430\u044f \u0447\u0430\u0441\u0442\u044c", "rlane": "\u0414\u0430", "one_way": "\u043d\u0435\u0442", "kl_gp": "\u041f\u0440\u043e\u0447\u0430\u044f \u0443\u043b\u0438\u0447\u043d\u043e-\u0434\u043e\u0440\u043e\u0436\u043d\u0430\u044f \u0441\u0435\u0442\u044c \u041c\u043e\u0441\u043a\u0432\u044b", "class_active_2016": "\u0423\u043b\u0438\u0446\u044b \u0438 \u0434\u043e\u0440\u043e\u0433\u0438 \u043c\u0435\u0441\u0442\u043d\u043e\u0433\u043e \u0437\u043d\u0430\u0447\u0435\u043d\u0438\u044f", "offer_2016": "\u0423\u043b\u0438\u0446\u044b \u0438 \u0434\u043e\u0440\u043e\u0433\u0438 \u043c\u0435\u0441\u0442\u043d\u043e\u0433\u043e \u0437\u043d\u0430\u0447\u0435\u043d\u0438\u044f"}}, {"type": "Feature", "geometry": {"type": "Polygon", "coordinates": [[[37.584561811527244, 55.760029967925334], [37.58455295290333, 55.76002074711059], [37.58449980115984, 55.76000845269093], [37.58450865978376, 55.75999615827127], [37.584464366664186, 55.75998079024669], [37.58449094253593, 55.75996849582704], [37.58451751840767, 55.75997771664178], [37.58457067015116, 55.75995312780246], [37.58458838739899, 55.75995927501229], [37.58457952877507, 55.759971569431954], [37.58460610464682, 55.75999001106144], [37.58463268051856, 55.75999615827127], [37.5846592563903, 55.75999001106144], [37.58467697363813, 55.75999615827127], [37.58467697363813, 55.76000537908602], [37.58465039776639, 55.760029967925334], [37.584561811527244, 55.760029967925334]]]}, "properties": {"id": 8, "bound": true, "edge_id": 12, "ID": "{56f63c50-2598-4a69-8e51-ce823c96d198}", "na_obj": "\u0421\u0430\u0434\u043e\u0432\u043e\u0435 \u041a\u043e\u043b\u044c\u0446\u043e (\u0421\u0430\u0434\u043e\u0432\u0430\u044f-\u041a\u0443\u0434\u0440\u0438\u043d\u0441\u043a\u0430\u044f \u0443\u043b\u0438\u0446\u0430)", "um_code": "024140", "no_omk": "-", "ao": "\u0426\u0410\u041e", "rajon": "\u041f\u0440\u0435\u0441\u043d\u0435\u043d\u0441\u043a\u0438\u0439", "status": "\u0421\u0443\u0449\u0435\u0441\u0442\u0432\u0443\u044e\u0449\u0438\u0435", "length": 470.6, "type_uds": "\u041e\u0434\u043d\u0430 \u043f\u0440\u043e\u0435\u0437\u0436\u0430\u044f \u0447\u0430\u0441\u0442\u044c", "rlane": "\u0414\u0430", "one_way": "\u043d\u0435\u0442", "kl_gp": "\u041c\u0430\u0433\u0438\u0441\u0442\u0440\u0430\u043b\u044c\u043d\u044b\u0435 \u0443\u043b\u0438\u0446\u044b \u043e\u0431\u0449\u0435\u0433\u043e\u0440\u043e\u0434\u0441\u043a\u043e\u0433\u043e \u0437\u043d\u0430\u0447\u0435\u043d\u0438\u044f I \u043a\u043b\u0430\u0441\u0441\u0430 \u0446\u0435\u043d\u0442\u0440\u0430", "class_active_2016": "\u041c\u0430\u0433\u0438\u0441\u0442\u0440\u0430\u043b\u044c\u043d\u044b\u0435 \u0443\u043b\u0438\u0446\u044b \u043e\u0431\u0449\u0435\u0433\u043e\u0440\u043e\u0434\u0441\u043a\u043e\u0433\u043e \u0437\u043d\u0430\u0447\u0435\u043d\u0438\u044f 2-\u0433\u043e \u043a\u043b\u0430\u0441\u0441\u0430 - \u0440\u0435\u0433\u0443\u043b\u0438\u0440\u0443\u0435\u043c\u043e\u0433\u043e \u0434\u0432\u0438\u0436\u0435\u043d\u0438\u044f", "offer_2016": "\u041c\u0430\u0433\u0438\u0441\u0442\u0440\u0430\u043b\u044c\u043d\u044b\u0435 \u0443\u043b\u0438\u0446\u044b \u043e\u0431\u0449\u0435\u0433\u043e\u0440\u043e\u0434\u0441\u043a\u043e\u0433\u043e \u0437\u043d\u0430\u0447\u0435\u043d\u0438\u044f 1-\u0433\u043e \u043a\u043b\u0430\u0441\u0441\u0430 - \u043d\u0435\u043f\u0440\u0435\u0440\u044b\u0432\u043d\u043e\u0433\u043e \u0434\u0432\u0438\u0436\u0435\u043d\u0438\u044f"}}, {"type": "Feature", "geometry": {"type": "Polygon", "coordinates": [[[37.58299383509439, 55.760029967925334], [37.58299383509439, 55.7600238207155], [37.582958400598734, 55.76001152629585], [37.582958400598734, 55.759993084666355], [37.58297611784656, 55.75998079024669], [37.58296725922265, 55.75996849582704], [37.583002693718306, 55.75995312780246], [37.583038128213964, 55.75995312780246], [37.58306470408571, 55.75994083338281], [37.58302926959005, 55.759928538963145], [37.58302926959005, 55.75989472930908], [37.583002693718306, 55.759879361284504], [37.582958400598734, 55.75987628767959], [37.58291410747916, 55.759891655704166], [37.58289639023133, 55.759885508494335], [37.58290524885525, 55.7598363308157], [37.58285209711176, 55.759820962791125], [37.58288753160742, 55.75980252116164], [37.58288753160742, 55.75979330034689], [37.58286981435959, 55.75978715313706], [37.5828166626161, 55.75979637395181], [37.58279008674436, 55.75979022674198], [37.58276351087262, 55.75979944755672], [37.58274579362479, 55.759827110000955], [37.58271035912913, 55.75983940442061], [37.582657207385644, 55.75984555163044], [37.582639490137815, 55.75984555163044], [37.58253318665084, 55.75980559476655], [37.582497752155184, 55.75979944755672], [37.58245345903561, 55.75981174197638], [37.58246231765953, 55.75981788918621], [37.582418024539955, 55.75985477244519], [37.582418024539955, 55.7596303992864], [37.58247117628344, 55.7596303992864], [37.58248889353127, 55.75962425207658], [37.58253318665084, 55.75962117847166], [37.58259519701824, 55.75959966323725], [37.582701500505216, 55.75953819113896], [37.5826926418813, 55.75952282311439], [37.582657207385644, 55.75951667590456], [37.58254204527476, 55.75957200079302], [37.58251546940301, 55.75956585358319], [37.582418024539955, 55.75958122160777], [37.582418024539955, 55.759568927188106], [37.5824446004117, 55.759562779978275], [37.5824446004117, 55.759553559163535], [37.58246231765953, 55.75955048555862], [37.582480034907356, 55.75955663276845], [37.58251546940301, 55.75955663276845], [37.582577479770414, 55.75953819113896], [37.58261291426607, 55.759482866250494], [37.58261291426607, 55.759467498225916], [37.582559762522585, 55.759452130201346], [37.58252432802693, 55.759467498225916], [37.582497752155184, 55.759461351016085], [37.582418024539955, 55.759467498225916], [37.5824446004117, 55.75945827741117], [37.58246231765953, 55.75943676217677], [37.582418024539955, 55.75942139415219], [37.582418024539955, 55.759273861116284], [37.58243574178778, 55.759273861116284], [37.58247117628344, 55.75925849309171], [37.5824446004117, 55.75924927227696], [37.582418024539955, 55.75924927227696], [37.582418024539955, 55.75886814526752], [37.58259519701824, 55.758843556428204], [37.582621772889986, 55.75883433561346], [37.5826306315139, 55.7588220411938], [37.58258633839433, 55.75880974677414], [37.58255090389867, 55.758812820379056], [37.582497752155184, 55.75879130514465], [37.58251546940301, 55.75878823153974], [37.58253318665084, 55.75879437874956], [37.58259519701824, 55.75879745235448], [37.5826306315139, 55.75879437874956], [37.58268378325739, 55.75877901072499], [37.58271035912913, 55.75878823153974], [37.5827546522487, 55.75876671630533], [37.582798945368275, 55.758763642700416], [37.58282552124002, 55.75877286351516], [37.58285209711176, 55.75876978991025], [37.58294954197482, 55.75874520107093], [37.583020410966135, 55.758742127466014], [37.58306470408571, 55.75872368583652], [37.583100138581365, 55.75874520107093], [37.58301155234222, 55.75876671630533], [37.58297611784656, 55.758785157934824], [37.583020410966135, 55.758800525959394], [37.58306470408571, 55.75879437874956], [37.58312671445311, 55.75877593712008], [37.58315329032485, 55.75877286351516], [37.583179866196595, 55.75877901072499], [37.58326845243574, 55.758763642700416], [37.5833038869314, 55.758748274675845], [37.583321604179226, 55.75875442188567], [37.58339247317054, 55.75873290665127], [37.58347220078577, 55.7587390538611], [37.58353421115317, 55.75872675944144], [37.583578504272744, 55.75872675944144], [37.583640514640145, 55.758748274675845], [37.583622797392316, 55.75878208432991], [37.58368480775972, 55.758800525959394], [37.583702525007546, 55.758800525959394], [37.58372910087929, 55.758785157934824], [37.5837379595032, 55.758757495490585], [37.583720242255374, 55.75872675944144], [37.58380882849452, 55.758692949787374], [37.58383540436626, 55.75870217060212], [37.583861980238005, 55.75870217060212], [37.58395056647715, 55.75866528734314], [37.58398600097281, 55.75863147768908], [37.58395056647715, 55.75861918326942], [37.583879697485834, 55.75860688884976], [37.583959425101064, 55.758585373615354], [37.58398600097281, 55.758591520825185], [37.58407458721195, 55.75855771117112], [37.58411888033152, 55.758490091862996], [37.58413659757935, 55.75848087104825], [37.58412773895544, 55.75845935581385], [37.58437578042504, 55.75845935581385], [37.5844112149207, 55.75847165023351], [37.58444664941636, 55.75845935581385], [37.58519077382517, 55.75845935581385], [37.58521734969691, 55.75847165023351], [37.58521734969691, 55.75848701825808], [37.5853325118078, 55.75851775430723], [37.58535022905563, 55.7585116070974], [37.58542109804694, 55.75851468070231], [37.58543881529477, 55.75850853349249], [37.58543881529477, 55.758477797443334], [37.585465391166515, 55.75846242941876], [37.585562836029574, 55.75846242941876], [37.585545118781745, 55.758477797443334], [37.585562836029574, 55.758490091862996], [37.585624846396975, 55.75848087104825], [37.58566028089263, 55.758468576628594], [37.58566028089263, 55.75845935581385], [37.58599690860138, 55.75846242941876], [37.586005767225295, 55.75848087104825], [37.58605006034487, 55.75849931267774], [37.586023484473124, 55.75850853349249], [37.586023484473124, 55.75851775430723], [37.58604120172095, 55.75852390151706], [37.586085494840525, 55.75852390151706], [37.586103212088354, 55.75854541675146], [37.58613864658401, 55.75856078477604], [37.58617408107967, 55.758554637566206], [37.58617408107967, 55.75854541675146], [37.586147505207926, 55.758533122331805], [37.58615636383184, 55.758477797443334], [37.58611207071227, 55.75845935581385], [37.58629810181447, 55.75845935581385], [37.58618293970358, 55.758490091862996], [37.58620951557533, 55.75851775430723], [37.58623609144707, 55.758526975121974], [37.58628038456664, 55.75852390151706], [37.586244950070984, 55.75853619593672], [37.58627152594273, 55.75856385838095], [37.586306960438385, 55.75858844722027], [37.58634239493404, 55.758597668035016], [37.586368970805786, 55.7585945944301], [37.586404405301444, 55.75857922640552], [37.58649299154059, 55.75860074163993], [37.58651956741233, 55.758591520825185], [37.58651070878842, 55.75858230001044], [37.5865638605319, 55.75856078477604], [37.58657271915582, 55.75853004872689], [37.58651956741233, 55.75850238628266], [37.58645755704493, 55.75849316546791], [37.5864398397971, 55.75847472383842], [37.586466415668845, 55.75845935581385], [37.586608153651476, 55.75845935581385], [37.58664358814713, 55.75847472383842], [37.58669673989062, 55.75848701825808], [37.58667902264279, 55.75851468070231], [37.58671445713845, 55.758526975121974], [37.586785326129764, 55.758526975121974], [37.58685619512108, 55.75860996245468], [37.58688277099282, 55.75861918326942], [37.58694478136022, 55.75861303605959], [37.58693592273631, 55.75863147768908], [37.58688277099282, 55.75863762489891], [37.586829619249336, 55.75865299292348], [37.586785326129764, 55.758656066528395], [37.58661701227539, 55.758692949787374], [37.58657271915582, 55.758692949787374], [37.586528426036246, 55.75871446502178], [37.58642212254927, 55.75873598025618], [37.58636011218187, 55.758742127466014], [37.58629810181447, 55.7587605690955], [37.58626266731881, 55.758763642700416], [37.586244950070984, 55.758757495490585], [37.586289243190556, 55.75875134828076], [37.5863778294297, 55.75872675944144], [37.5863778294297, 55.75870217060212], [37.58633353631013, 55.758677581762804], [37.58626266731881, 55.75866528734314], [37.586244950070984, 55.758649919318565], [37.5862538086949, 55.75863147768908], [37.586227232823155, 55.75862225687433], [37.58617408107967, 55.75861918326942], [37.58613864658401, 55.75863147768908], [37.58613864658401, 55.758646845713656], [37.58612092933618, 55.75865299292348], [37.58609435346444, 55.758656066528395], [37.58605006034487, 55.75864377210874], [37.585988049977466, 55.758649919318565], [37.58593489823398, 55.75868065536772], [37.58588174649049, 55.758692949787374], [37.58583745337092, 55.75869602339229], [37.58583745337092, 55.75867450815789], [37.58581087749918, 55.75866528734314], [37.58567799814046, 55.75868987618246], [37.585642563644804, 55.75870217060212], [37.585607129149146, 55.75866836094806], [37.5855805532774, 55.75865914013331], [37.58557169465349, 55.75862533047925], [37.58555397740566, 55.75861918326942], [37.58550968428609, 55.75855771117112], [37.58549196703826, 55.75855156396129], [37.585465391166515, 55.75855156396129], [37.58542995667086, 55.75856693198587], [37.58542995667086, 55.75857922640552], [37.585483108414344, 55.75862533047925], [37.58549196703826, 55.758646845713656], [37.585527401533916, 55.75865914013331], [37.585562836029574, 55.75872983304635], [37.58559827052523, 55.75875134828076], [37.58563370502089, 55.7587605690955], [37.58572229126003, 55.758748274675845], [37.58574000850786, 55.75875442188567], [37.58574000850786, 55.75877286351516], [37.58571343263612, 55.75879745235448], [37.58571343263612, 55.7588220411938], [37.58574000850786, 55.75884048282329], [37.58574000850786, 55.758858924452774], [37.585766584379606, 55.75888043968718], [37.585766584379606, 55.758914249341245], [37.58582859474701, 55.75893269097073], [37.58593489823398, 55.758920396551076], [37.58599690860138, 55.758892734106844], [37.58604120172095, 55.75889580771175], [37.586103212088354, 55.75887429247735], [37.586147505207926, 55.758871218872436], [37.5861917983275, 55.758849703638035], [37.5862538086949, 55.75886199805769], [37.586289243190556, 55.758858924452774], [37.5863158190623, 55.758849703638035], [37.58633353631013, 55.75886814526752], [37.586324677686214, 55.75889580771175], [37.58635125355796, 55.75890195492158], [37.586386688053615, 55.75893576457565], [37.58642212254927, 55.75894191178548], [37.5865018501645, 55.75889580771175], [37.5865638605319, 55.75887736608227], [37.58658157777973, 55.75886199805769], [37.58661701227539, 55.758855850847866], [37.58665244677105, 55.75888043968718], [37.586687881266705, 55.75888966050193], [37.586705598514534, 55.7588835132921], [37.58671445713845, 55.758865071662605], [37.586767608881935, 55.75888043968718], [37.586785326129764, 55.7589050285265], [37.58681190200151, 55.75891732294616], [37.58680304337759, 55.758929617365816], [37.58682076062542, 55.75893576457565], [37.58682076062542, 55.75895420620514], [37.58688277099282, 55.75897572143954], [37.58690048824065, 55.75897572143954], [37.58688277099282, 55.759009531093604], [37.58693592273631, 55.75902489911818], [37.58694478136022, 55.75920009459833], [37.58690048824065, 55.75920316820324], [37.586829619249336, 55.75923390425239], [37.586829619249336, 55.759246198672045], [37.58680304337759, 55.75925849309171], [37.58679418475368, 55.75929230274577], [37.58681190200151, 55.7592984499556], [37.586865053744994, 55.75930152356052], [37.58694478136022, 55.759289229140855], [37.58694478136022, 55.759338406819495], [37.586909346864566, 55.759344554029326], [37.586909346864566, 55.759353774844065], [37.58694478136022, 55.75936606926373], [37.58694478136022, 55.759396805312875], [37.586927064112395, 55.759396805312875], [37.58690048824065, 55.75940602612762], [37.586865053744994, 55.759402952522706], [37.58683847787325, 55.75941217333745], [37.58685619512108, 55.75942446775711], [37.586847336497165, 55.75943368857185], [37.586785326129764, 55.75941524694237], [37.58675875025802, 55.75942446775711], [37.58675875025802, 55.759439835781684], [37.58674103301019, 55.75944905659643], [37.586705598514534, 55.75943368857185], [37.58671445713845, 55.75942754136202], [37.58666130539496, 55.75940909973254], [37.58664358814713, 55.75941524694237], [37.58666130539496, 55.7594429093866], [37.58665244677105, 55.75944905659643], [37.58661701227539, 55.759439835781684], [37.58659043640365, 55.75944905659643], [37.58659043640365, 55.75947057183083], [37.58657271915582, 55.75947671904066], [37.58657271915582, 55.75948593985541], [37.58661701227539, 55.75950130787998], [37.586608153651476, 55.75951360229964], [37.586625870899304, 55.75951974950947], [37.58663472952322, 55.75954433834879], [37.58666130539496, 55.759553559163535], [37.58669673989062, 55.75953819113896], [37.58671445713845, 55.759553559163535], [37.58669673989062, 55.75955970637336], [37.58664358814713, 55.759562779978275], [37.58653728466016, 55.75958122160777], [37.586448698421016, 55.759590442422514], [37.58643098117319, 55.75959658963234], [37.58643098117319, 55.759605810447084], [37.586448698421016, 55.759611957656915], [37.586546143284075, 55.759608884052], [37.586546143284075, 55.759618104866746], [37.58658157777973, 55.75962732568149], [37.58661701227539, 55.75962117847166], [37.58664358814713, 55.759633472891316], [37.58665244677105, 55.759654988125725], [37.58671445713845, 55.759670356150295], [37.58672331576236, 55.75968572417487], [37.58675875025802, 55.75969494498962], [37.586785326129764, 55.75968572417487], [37.58679418475368, 55.75967342975521], [37.58682076062542, 55.75967342975521], [37.58685619512108, 55.759661135335556], [37.58687391236891, 55.759664208940464], [37.58691820548848, 55.759654988125725], [37.58694478136022, 55.759661135335556], [37.58694478136022, 55.7597318282486], [37.58691820548848, 55.759719533828935], [37.58689162961674, 55.759719533828935], [37.58687391236891, 55.759734901853506], [37.58688277099282, 55.759756417087914], [37.586909346864566, 55.75976563790266], [37.58690048824065, 55.759771785112484], [37.586927064112395, 55.75978100592723], [37.58694478136022, 55.75978100592723], [37.58694478136022, 55.759863993259934], [37.586927064112395, 55.75984555163044], [37.58690048824065, 55.7598363308157], [37.58681190200151, 55.75985169884027], [37.58675875025802, 55.75985169884027], [37.58674103301019, 55.75984555163044], [37.586705598514534, 55.75980866837146], [37.586705598514534, 55.75976871150757], [37.58664358814713, 55.75975026987808], [37.58665244677105, 55.75974412266825], [37.58663472952322, 55.75970723940927], [37.58659929502756, 55.75968572417487], [37.58659929502756, 55.75967342975521], [37.58657271915582, 55.759664208940464], [37.58657271915582, 55.759654988125725], [37.586528426036246, 55.759648840915894], [37.58639554667753, 55.759661135335556], [37.58635125355796, 55.759670356150295], [37.586324677686214, 55.75967957696504], [37.586306960438385, 55.75969801859453], [37.586244950070984, 55.759713386619104], [37.58623609144707, 55.759725681038766], [37.58620951557533, 55.759734901853506], [37.58617408107967, 55.75972260743385], [37.58615636383184, 55.75972260743385], [37.586085494840525, 55.759734901853506], [37.586067777592696, 55.75975026987808], [37.58607663621661, 55.759771785112484], [37.586103212088354, 55.75978100592723], [37.58612092933618, 55.75978100592723], [37.58620951557533, 55.759756417087914], [37.58626266731881, 55.759777932322315], [37.58628038456664, 55.759777932322315], [37.58633353631013, 55.759762564297745], [37.58642212254927, 55.75974719627317], [37.586466415668845, 55.75974719627317], [37.5865018501645, 55.759734901853506], [37.58653728466016, 55.75973797545842], [37.58659043640365, 55.75975949069283], [37.58659043640365, 55.75978715313706], [37.58659929502756, 55.75980252116164], [37.58661701227539, 55.75980866837146], [37.586608153651476, 55.75982403639604], [37.58661701227539, 55.759833257210786], [37.58667016401888, 55.75984555163044], [37.586705598514534, 55.75988858209925], [37.58673217438628, 55.759897802914], [37.586785326129764, 55.759891655704166], [37.586829619249336, 55.75991009733365], [37.586829619249336, 55.75991624454348], [37.58679418475368, 55.75990702372874], [37.586767608881935, 55.7599193181484], [37.586687881266705, 55.75991009733365], [37.58666130539496, 55.759922391753314], [37.586687881266705, 55.759934686172976], [37.58665244677105, 55.75994698059263], [37.58664358814713, 55.75998079024669], [37.58661701227539, 55.75999001106144], [37.586528426036246, 55.75998079024669], [37.5865018501645, 55.75999001106144], [37.5865018501645, 55.760029967925334], [37.5863158190623, 55.760029967925334], [37.586324677686214, 55.76001767350567], [37.586289243190556, 55.76000845269093], [37.58626266731881, 55.76001767350567], [37.58627152594273, 55.760029967925334], [37.58623609144707, 55.760029967925334], [37.58620951557533, 55.76002074711059], [37.58617408107967, 55.76001767350567], [37.586147505207926, 55.760029967925334], [37.586085494840525, 55.760029967925334], [37.58609435346444, 55.76000537908602], [37.58611207071227, 55.759999231876186], [37.58612092933618, 55.76000537908602], [37.58618293970358, 55.76001152629585], [37.58621837419924, 55.75999615827127], [37.58620065695141, 55.75999001106144], [37.58620951557533, 55.75997464303687], [37.58618293970358, 55.75996542222212], [37.58609435346444, 55.75998079024669], [37.58605006034487, 55.75997464303687], [37.58604120172095, 55.75994698059263], [37.586005767225295, 55.75993161256806], [37.58599690860138, 55.75991009733365], [37.58596147410572, 55.75990087651891], [37.58593489823398, 55.75991009733365], [37.585908322362236, 55.75996542222212], [37.585943756857894, 55.760029967925334], [37.58547424979043, 55.760029967925334], [37.5854565325426, 55.76002074711059], [37.58543881529477, 55.76002074711059], [37.58542109804694, 55.760029967925334], [37.58535022905563, 55.760029967925334], [37.58534137043171, 55.76001767350567], [37.58535908767954, 55.76001152629585], [37.58535908767954, 55.7600023054811], [37.58531479455997, 55.759986937456524], [37.58529707731214, 55.759986937456524], [37.58523506694474, 55.76001152629585], [37.585226208320826, 55.760029967925334], [37.58511104620994, 55.760029967925334], [37.585084470338195, 55.76001459990076], [37.58505789446645, 55.76001459990076], [37.58503131859471, 55.760029967925334], [37.585004742722965, 55.760029967925334], [37.585004742722965, 55.76000845269093], [37.58497816685122, 55.759993084666355], [37.58498702547514, 55.75998386385161], [37.58491615648382, 55.75995927501229], [37.58489843923599, 55.75996234861721], [37.58488072198816, 55.75995620140738], [37.58488072198816, 55.759943906987715], [37.58483642886859, 55.75993161256806], [37.58481871162076, 55.75993775977789], [37.584765559877276, 55.759928538963145], [37.58471240813379, 55.759950054197546], [37.584703549509875, 55.75996542222212], [37.58467697363813, 55.75995620140738], [37.5846592563903, 55.75996234861721], [37.58463268051856, 55.75994698059263], [37.58463268051856, 55.759934686172976], [37.58460610464682, 55.75992546535823], [37.58455295290333, 55.75993161256806], [37.58452637703159, 55.759922391753314], [37.58449094253593, 55.75993161256806], [37.58444664941636, 55.75992546535823], [37.5844112149207, 55.75993775977789], [37.58442893216853, 55.75995312780246], [37.584420073544614, 55.75997771664178], [37.58439349767287, 55.75999001106144], [37.584384639048956, 55.76000537908602], [37.58436692180113, 55.7600023054811], [37.5843492045533, 55.76000845269093], [37.584340345929384, 55.760029967925334], [37.584304911433726, 55.760029967925334], [37.58433148730547, 55.76000845269093], [37.58429605280981, 55.759986937456524], [37.584340345929384, 55.75996849582704], [37.584340345929384, 55.75995927501229], [37.58429605280981, 55.7599193181484], [37.58429605280981, 55.75990087651891], [37.58426947693807, 55.759891655704166], [37.58417203207501, 55.75991009733365], [37.58411002170761, 55.75991009733365], [37.58393284922932, 55.75995927501229], [37.58393284922932, 55.75996849582704], [37.58398600097281, 55.75998079024669], [37.584039152716294, 55.75997771664178], [37.58412773895544, 55.759950054197546], [37.58419860794675, 55.75996849582704], [37.58419860794675, 55.75999001106144], [37.58413659757935, 55.76000845269093], [37.58411888033152, 55.760029967925334], [37.58345448353794, 55.76002689432042], [37.58339247317054, 55.75999615827127], [37.58333046280314, 55.75997771664178], [37.58329502830748, 55.75998079024669], [37.58328616968357, 55.75997464303687], [37.5833038869314, 55.75996234861721], [37.58328616968357, 55.75995312780246], [37.58323301794008, 55.759943906987715], [37.58323301794008, 55.75993161256806], [37.583179866196595, 55.75991317093857], [37.583162148948766, 55.75991317093857], [37.58312671445311, 55.759922391753314], [37.583082421333536, 55.75995620140738], [37.58310899720528, 55.75996542222212], [37.58313557307702, 55.75995620140738], [37.583162148948766, 55.75996542222212], [37.58318872482051, 55.75997771664178], [37.58321530069225, 55.76000537908602], [37.583241876563996, 55.76001459990076], [37.58325073518791, 55.760029967925334], [37.58299383509439, 55.760029967925334]]]}, "properties": {"id": 9, "bound": true, "edge_id": 6, "ID": "{9827d56d-27d1-4378-858d-676600f4152a}", "na_obj": "\u0431/\u043d", "um_code": "-", "no_omk": "-", "ao": "\u0426\u0410\u041e", "rajon": "\u041f\u0440\u0435\u0441\u043d\u0435\u043d\u0441\u043a\u0438\u0439", "status": "\u0421\u0443\u0449\u0435\u0441\u0442\u0432\u0443\u044e\u0449\u0438\u0435", "length": 55.8, "type_uds": "\u0421\u044a\u0435\u0437\u0434", "rlane": "\u0414\u0430", "one_way": "\u0434\u0430", "kl_gp": "\u041c\u0430\u0433\u0438\u0441\u0442\u0440\u0430\u043b\u044c\u043d\u044b\u0435 \u0443\u043b\u0438\u0446\u044b \u043e\u0431\u0449\u0435\u0433\u043e\u0440\u043e\u0434\u0441\u043a\u043e\u0433\u043e \u0437\u043d\u0430\u0447\u0435\u043d\u0438\u044f I \u043a\u043b\u0430\u0441\u0441\u0430 \u0446\u0435\u043d\u0442\u0440\u0430", "class_active_2016": "-", "offer_2016": "-"}}, {"type": "Feature", "geometry": {"type": "Polygon", "coordinates": [[[37.582418024539955, 55.760029967925334], [37.582418024539955, 55.75986091965502], [37.58242688316387, 55.75988243488942], [37.58245345903561, 55.75990087651891], [37.582621772889986, 55.75995927501229], [37.5826306315139, 55.75998386385161], [37.58259519701824, 55.75999001106144], [37.58260405564216, 55.76000537908602], [37.582639490137815, 55.76001767350567], [37.582701500505216, 55.76002074711059], [37.58272807637696, 55.760029967925334], [37.582418024539955, 55.760029967925334]]]}, "properties": {"id": 10, "bound": true, "edge_id": 11, "ID": "{cf477ab7-d067-459f-a1da-815569bac2c7}", "na_obj": "\u0411\u0430\u0440\u0440\u0438\u043a\u0430\u0434\u043d\u0430\u044f \u0443\u043b\u0438\u0446\u0430", "um_code": "001270", "no_omk": "-", "ao": "\u0426\u0410\u041e", "rajon": "\u041f\u0440\u0435\u0441\u043d\u0435\u043d\u0441\u043a\u0438\u0439", "status": "\u0421\u0443\u0449\u0435\u0441\u0442\u0432\u0443\u044e\u0449\u0438\u0435", "length": 254.1, "type_uds": "\u041e\u0434\u043d\u0430 \u043f\u0440\u043e\u0435\u0437\u0436\u0430\u044f \u0447\u0430\u0441\u0442\u044c", "rlane": "\u0414\u0430", "one_way": "\u043d\u0435\u0442", "kl_gp": "\u041c\u0430\u0433\u0438\u0441\u0442\u0440\u0430\u043b\u044c\u043d\u044b\u0435 \u0443\u043b\u0438\u0446\u044b \u043e\u0431\u0449\u0435\u0433\u043e\u0440\u043e\u0434\u0441\u043a\u043e\u0433\u043e \u0437\u043d\u0430\u0447\u0435\u043d\u0438\u044f I \u043a\u043b\u0430\u0441\u0441\u0430 \u0446\u0435\u043d\u0442\u0440\u0430", "class_active_2016": "\u041c\u0430\u0433\u0438\u0441\u0442\u0440\u0430\u043b\u044c\u043d\u044b\u0435 \u0443\u043b\u0438\u0446\u044b \u043e\u0431\u0449\u0435\u0433\u043e\u0440\u043e\u0434\u0441\u043a\u043e\u0433\u043e \u0437\u043d\u0430\u0447\u0435\u043d\u0438\u044f 2-\u0433\u043e \u043a\u043b\u0430\u0441\u0441\u0430 - \u0440\u0435\u0433\u0443\u043b\u0438\u0440\u0443\u0435\u043c\u043e\u0433\u043e \u0434\u0432\u0438\u0436\u0435\u043d\u0438\u044f", "offer_2016": "\u041c\u0430\u0433\u0438\u0441\u0442\u0440\u0430\u043b\u044c\u043d\u044b\u0435 \u0443\u043b\u0438\u0446\u044b \u043e\u0431\u0449\u0435\u0433\u043e\u0440\u043e\u0434\u0441\u043a\u043e\u0433\u043e \u0437\u043d\u0430\u0447\u0435\u043d\u0438\u044f 1-\u0433\u043e \u043a\u043b\u0430\u0441\u0441\u0430 - \u043d\u0435\u043f\u0440\u0435\u0440\u044b\u0432\u043d\u043e\u0433\u043e \u0434\u0432\u0438\u0436\u0435\u043d\u0438\u044f"}}]}