{"type": "FeatureCollection", "features": [{"type": "Feature", "geometry": {"type": "Polygon", "coordinates": [[[37.56625199457631, 55.76130527860165], [37.56620230560657, 55.7612819908756], [37.56621224340052, 55.761265356785565], [37.566242056782365, 55.76125204951354], [37.566281807958156, 55.761262029967554], [37.566331496927894, 55.76125870314955], [37.56636131030974, 55.76124872269553], [37.56636131030974, 55.76124206905951], [37.566331496927894, 55.761232088605496], [37.56638118589763, 55.761232088605496], [37.56640106148553, 55.76124206905951], [37.566420937073424, 55.76124206905951], [37.56645075045527, 55.761232088605496], [37.56662963074633, 55.761232088605496], [37.56661969295238, 55.76123874224151], [37.5665401906008, 55.76124206905951], [37.566510377218954, 55.76124872269553], [37.56649050163106, 55.76124539587752], [37.566460688249215, 55.76125537633154], [37.56645075045527, 55.76127201042158], [37.56643087486737, 55.76127201042158], [37.56640106148553, 55.7612819908756], [37.56638118589763, 55.76127866405759], [37.56625199457631, 55.76130527860165]]]}, "properties": {"id": 0, "bound": true, "edge_id": 1, "ID": "{97001f86-ed80-41ed-9359-19d940355646}", "na_obj": "\u0417\u0430\u043c\u043e\u0440\u0435\u043d\u043e\u0432\u0430 \u0443\u043b\u0438\u0446\u0430", "um_code": "007640", "no_omk": "-", "ao": "\u0426\u0410\u041e", "rajon": "\u041f\u0440\u0435\u0441\u043d\u0435\u043d\u0441\u043a\u0438\u0439", "status": "\u0421\u0443\u0449\u0435\u0441\u0442\u0432\u0443\u044e\u0449\u0438\u0435", "length": 263.5, "type_uds": "\u041e\u0434\u043d\u0430 \u043f\u0440\u043e\u0435\u0437\u0436\u0430\u044f \u0447\u0430\u0441\u0442\u044c", "rlane": "\u0414\u0430", "one_way": "\u043d\u0435\u0442", "kl_gp": "\u041f\u0440\u043e\u0447\u0430\u044f \u0443\u043b\u0438\u0447\u043d\u043e-\u0434\u043e\u0440\u043e\u0436\u043d\u0430\u044f \u0441\u0435\u0442\u044c \u041c\u043e\u0441\u043a\u0432\u044b", "class_active_2016": "\u041c\u0430\u0433\u0438\u0441\u0442\u0440\u0430\u043b\u044c\u043d\u044b\u0435 \u0443\u043b\u0438\u0446\u044b \u0440\u0430\u0439\u043e\u043d\u043d\u043e\u0433\u043e \u0437\u043d\u0430\u0447\u0435\u043d\u0438\u044f", "offer_2016": "\u0423\u043b\u0438\u0446\u044b \u0438 \u0434\u043e\u0440\u043e\u0433\u0438 \u043c\u0435\u0441\u0442\u043d\u043e\u0433\u043e \u0437\u043d\u0430\u0447\u0435\u043d\u0438\u044f"}}, {"type": "Feature", "geometry": {"type": "Polygon", "coordinates": [[[37.5693923374638, 55.76254285490031], [37.56933271070012, 55.76252289399227], [37.56933271070012, 55.76250958672024], [37.56928302173038, 55.762492952630204], [37.56931283511222, 55.76248297217619], [37.56931283511222, 55.76247299172216], [37.569292959524326, 55.76246633808615], [37.569213457172744, 55.76246633808615], [37.569203519378796, 55.762459684450135], [37.569213457172744, 55.762436396724084], [37.56924327055459, 55.76242641627006], [37.56930289731827, 55.76242974308807], [37.56933271070012, 55.762419762634046], [37.56935258628801, 55.762399801726005], [37.5693923374638, 55.762399801726005], [37.5694122130517, 55.76240645536202], [37.5693923374638, 55.76244970399611], [37.56936252408196, 55.76246966490416], [37.569382399669855, 55.7624896258122], [37.569382399669855, 55.76250625990224], [37.56936252408196, 55.762516240356256], [37.569382399669855, 55.76252289399227], [37.5693923374638, 55.76254285490031]]]}, "properties": {"id": 1, "bound": true, "edge_id": 4, "ID": "{e3096058-353f-4b0f-b84f-bb9c621a6a45}", "na_obj": "\u041a\u0440\u0430\u0441\u043d\u0430\u044f \u041f\u0440\u0435\u0441\u043d\u044f \u0443\u043b\u0438\u0446\u0430", "um_code": "011570", "no_omk": "-", "ao": "\u0426\u0410\u041e", "rajon": "\u041f\u0440\u0435\u0441\u043d\u0435\u043d\u0441\u043a\u0438\u0439", "status": "\u0421\u0443\u0449\u0435\u0441\u0442\u0432\u0443\u044e\u0449\u0438\u0435", "length": 329.2, "type_uds": "\u041e\u0434\u043d\u0430 \u043f\u0440\u043e\u0435\u0437\u0436\u0430\u044f \u0447\u0430\u0441\u0442\u044c", "rlane": "\u0414\u0430", "one_way": "\u043d\u0435\u0442", "kl_gp": "\u041c\u0430\u0433\u0438\u0441\u0442\u0440\u0430\u043b\u044c\u043d\u044b\u0435 \u0443\u043b\u0438\u0446\u044b \u043e\u0431\u0449\u0435\u0433\u043e\u0440\u043e\u0434\u0441\u043a\u043e\u0433\u043e \u0437\u043d\u0430\u0447\u0435\u043d\u0438\u044f I \u043a\u043b\u0430\u0441\u0441\u0430 \u0446\u0435\u043d\u0442\u0440\u0430", "class_active_2016": "\u041c\u0430\u0433\u0438\u0441\u0442\u0440\u0430\u043b\u044c\u043d\u044b\u0435 \u0443\u043b\u0438\u0446\u044b \u043e\u0431\u0449\u0435\u0433\u043e\u0440\u043e\u0434\u0441\u043a\u043e\u0433\u043e \u0437\u043d\u0430\u0447\u0435\u043d\u0438\u044f 2-\u0433\u043e \u043a\u043b\u0430\u0441\u0441\u0430 - \u0440\u0435\u0433\u0443\u043b\u0438\u0440\u0443\u0435\u043c\u043e\u0433\u043e \u0434\u0432\u0438\u0436\u0435\u043d\u0438\u044f", "offer_2016": "\u041c\u0430\u0433\u0438\u0441\u0442\u0440\u0430\u043b\u044c\u043d\u044b\u0435 \u0443\u043b\u0438\u0446\u044b \u043e\u0431\u0449\u0435\u0433\u043e\u0440\u043e\u0434\u0441\u043a\u043e\u0433\u043e \u0437\u043d\u0430\u0447\u0435\u043d\u0438\u044f 1-\u0433\u043e \u043a\u043b\u0430\u0441\u0441\u0430 - \u043d\u0435\u043f\u0440\u0435\u0440\u044b\u0432\u043d\u043e\u0433\u043e \u0434\u0432\u0438\u0436\u0435\u043d\u0438\u044f"}}, {"type": "Feature", "geometry": {"type": "Polygon", "coordinates": [[[37.57032649009489, 55.76293209260715], [37.57034636568279, 55.76289217079106], [37.57039605465253, 55.76286555624701], [37.57037617906463, 55.76283228806694], [37.57032649009489, 55.762825634430925], [37.570276801125154, 55.762825634430925], [37.57024698774331, 55.76283228806694], [37.57020723656752, 55.76281898079491], [37.57016748539173, 55.76282896124893], [37.57011779642199, 55.76282896124893], [37.5700780452462, 55.762845595338966], [37.57003829407041, 55.76283894170295], [37.569958791718825, 55.762845595338966], [37.56985941377935, 55.76267925443861], [37.569869351573296, 55.76266262034857], [37.569919040543034, 55.76266594716658], [37.56998860510067, 55.76264598625853], [37.57001841848251, 55.762612718078465], [37.570097920834094, 55.76261604489647], [37.570187360979624, 55.76259941080644], [37.57021717436147, 55.7625827767164], [37.570266863331206, 55.76266594716658], [37.570316552300945, 55.76268590807462], [37.57033642788884, 55.76268590807462], [37.57036624127068, 55.7626759276206], [37.57036624127068, 55.76262269853249], [37.570306614507, 55.76260606444245], [37.570316552300945, 55.76259608398843], [37.57036624127068, 55.76259941080644], [37.57038611685858, 55.762609391260455], [37.57041593024042, 55.762612718078465], [37.57041593024042, 55.76281232715889], [37.57038611685858, 55.762825634430925], [37.57041593024042, 55.76283561488494], [37.57041593024042, 55.76293209260715], [37.57032649009489, 55.76293209260715]]]}, "properties": {"id": 2, "bound": true, "edge_id": 4, "ID": "{e3096058-353f-4b0f-b84f-bb9c621a6a45}", "na_obj": "\u041a\u0440\u0430\u0441\u043d\u0430\u044f \u041f\u0440\u0435\u0441\u043d\u044f \u0443\u043b\u0438\u0446\u0430", "um_code": "011570", "no_omk": "-", "ao": "\u0426\u0410\u041e", "rajon": "\u041f\u0440\u0435\u0441\u043d\u0435\u043d\u0441\u043a\u0438\u0439", "status": "\u0421\u0443\u0449\u0435\u0441\u0442\u0432\u0443\u044e\u0449\u0438\u0435", "length": 329.2, "type_uds": "\u041e\u0434\u043d\u0430 \u043f\u0440\u043e\u0435\u0437\u0436\u0430\u044f \u0447\u0430\u0441\u0442\u044c", "rlane": "\u0414\u0430", "one_way": "\u043d\u0435\u0442", "kl_gp": "\u041c\u0430\u0433\u0438\u0441\u0442\u0440\u0430\u043b\u044c\u043d\u044b\u0435 \u0443\u043b\u0438\u0446\u044b \u043e\u0431\u0449\u0435\u0433\u043e\u0440\u043e\u0434\u0441\u043a\u043e\u0433\u043e \u0437\u043d\u0430\u0447\u0435\u043d\u0438\u044f I \u043a\u043b\u0430\u0441\u0441\u0430 \u0446\u0435\u043d\u0442\u0440\u0430", "class_active_2016": "\u041c\u0430\u0433\u0438\u0441\u0442\u0440\u0430\u043b\u044c\u043d\u044b\u0435 \u0443\u043b\u0438\u0446\u044b \u043e\u0431\u0449\u0435\u0433\u043e\u0440\u043e\u0434\u0441\u043a\u043e\u0433\u043e \u0437\u043d\u0430\u0447\u0435\u043d\u0438\u044f 2-\u0433\u043e \u043a\u043b\u0430\u0441\u0441\u0430 - \u0440\u0435\u0433\u0443\u043b\u0438\u0440\u0443\u0435\u043c\u043e\u0433\u043e \u0434\u0432\u0438\u0436\u0435\u043d\u0438\u044f", "offer_2016": "\u041c\u0430\u0433\u0438\u0441\u0442\u0440\u0430\u043b\u044c\u043d\u044b\u0435 \u0443\u043b\u0438\u0446\u044b \u043e\u0431\u0449\u0435\u0433\u043e\u0440\u043e\u0434\u0441\u043a\u043e\u0433\u043e \u0437\u043d\u0430\u0447\u0435\u043d\u0438\u044f 1-\u0433\u043e \u043a\u043b\u0430\u0441\u0441\u0430 - \u043d\u0435\u043f\u0440\u0435\u0440\u044b\u0432\u043d\u043e\u0433\u043e \u0434\u0432\u0438\u0436\u0435\u043d\u0438\u044f"}}, {"type": "Feature", "geometry": {"type": "Polygon", "coordinates": [[[37.568547624978244, 55.76293209260715], [37.568547624978244, 55.76289217079106], [37.56847806042061, 55.76287220988302], [37.568448247038766, 55.76287220988302], [37.56841843365692, 55.76285224897498], [37.568448247038766, 55.76283228806694], [37.56841843365692, 55.762822307612915], [37.56837868248113, 55.762822307612915], [37.56832899351139, 55.76283228806694], [37.5683091179235, 55.76281898079491], [37.56829918012955, 55.76279569306886], [37.56837868248113, 55.7627690785248], [37.56837868248113, 55.76274911761676], [37.56839855806903, 55.76274246398074], [37.56913395482116, 55.76265929353056], [37.5691836437909, 55.762649313076544], [37.56942215084565, 55.76262602535049], [37.56946190202144, 55.762612718078465], [37.569471839815385, 55.76257944989839], [37.569521528785124, 55.76259941080644], [37.569601031136706, 55.76258610353441], [37.569650720106445, 55.76260273762444], [37.56968053348829, 55.76262602535049], [37.56972028466408, 55.76263600580452], [37.56973022245803, 55.76266594716658], [37.56976003583987, 55.7626759276206], [37.569779911427766, 55.76271917625469], [37.569829600397505, 55.76274246398074], [37.56987928936724, 55.762845595338966], [37.56989916495514, 55.762862229429004], [37.56988922716119, 55.762878863519035], [37.56985941377935, 55.762878863519035], [37.56980972480961, 55.76285557579299], [37.56975009804592, 55.762845595338966], [37.56966065790039, 55.76285557579299], [37.5696209067246, 55.76284892215697], [37.56957121775486, 55.762762424888784], [37.56957121775486, 55.76273581034473], [37.569610968930654, 55.762729156708716], [37.5696209067246, 55.76271252261868], [37.569650720106445, 55.762705868982664], [37.569650720106445, 55.76267925443861], [37.569690471282236, 55.76265263989455], [37.56966065790039, 55.7626293521685], [37.56959109334276, 55.762609391260455], [37.56948177760933, 55.76262269853249], [37.56944202643354, 55.762649313076544], [37.56944202643354, 55.76270254216466], [37.56948177760933, 55.76271252261868], [37.56950165319723, 55.762709195800674], [37.569511590991176, 55.76271917625469], [37.56949171540328, 55.762725829890705], [37.56926314614248, 55.76274911761676], [37.56919358158485, 55.762762424888784], [37.569124017027214, 55.762765751706795], [37.56908426585142, 55.76277573216081], [37.5689550745301, 55.76278238579683], [37.568726505269304, 55.76280900034089], [37.56865694071167, 55.762842268520956], [37.56865694071167, 55.76286555624701], [37.568716567475356, 55.76288884397306], [37.56873644306325, 55.76293209260715], [37.568547624978244, 55.76293209260715]]]}, "properties": {"id": 3, "bound": true, "edge_id": 4, "ID": "{e3096058-353f-4b0f-b84f-bb9c621a6a45}", "na_obj": "\u041a\u0440\u0430\u0441\u043d\u0430\u044f \u041f\u0440\u0435\u0441\u043d\u044f \u0443\u043b\u0438\u0446\u0430", "um_code": "011570", "no_omk": "-", "ao": "\u0426\u0410\u041e", "rajon": "\u041f\u0440\u0435\u0441\u043d\u0435\u043d\u0441\u043a\u0438\u0439", "status": "\u0421\u0443\u0449\u0435\u0441\u0442\u0432\u0443\u044e\u0449\u0438\u0435", "length": 329.2, "type_uds": "\u041e\u0434\u043d\u0430 \u043f\u0440\u043e\u0435\u0437\u0436\u0430\u044f \u0447\u0430\u0441\u0442\u044c", "rlane": "\u0414\u0430", "one_way": "\u043d\u0435\u0442", "kl_gp": "\u041c\u0430\u0433\u0438\u0441\u0442\u0440\u0430\u043b\u044c\u043d\u044b\u0435 \u0443\u043b\u0438\u0446\u044b \u043e\u0431\u0449\u0435\u0433\u043e\u0440\u043e\u0434\u0441\u043a\u043e\u0433\u043e \u0437\u043d\u0430\u0447\u0435\u043d\u0438\u044f I \u043a\u043b\u0430\u0441\u0441\u0430 \u0446\u0435\u043d\u0442\u0440\u0430", "class_active_2016": "\u041c\u0430\u0433\u0438\u0441\u0442\u0440\u0430\u043b\u044c\u043d\u044b\u0435 \u0443\u043b\u0438\u0446\u044b \u043e\u0431\u0449\u0435\u0433\u043e\u0440\u043e\u0434\u0441\u043a\u043e\u0433\u043e \u0437\u043d\u0430\u0447\u0435\u043d\u0438\u044f 2-\u0433\u043e \u043a\u043b\u0430\u0441\u0441\u0430 - \u0440\u0435\u0433\u0443\u043b\u0438\u0440\u0443\u0435\u043c\u043e\u0433\u043e \u0434\u0432\u0438\u0436\u0435\u043d\u0438\u044f", "offer_2016": "\u041c\u0430\u0433\u0438\u0441\u0442\u0440\u0430\u043b\u044c\u043d\u044b\u0435 \u0443\u043b\u0438\u0446\u044b \u043e\u0431\u0449\u0435\u0433\u043e\u0440\u043e\u0434\u0441\u043a\u043e\u0433\u043e \u0437\u043d\u0430\u0447\u0435\u043d\u0438\u044f 1-\u0433\u043e \u043a\u043b\u0430\u0441\u0441\u0430 - \u043d\u0435\u043f\u0440\u0435\u0440\u044b\u0432\u043d\u043e\u0433\u043e \u0434\u0432\u0438\u0436\u0435\u043d\u0438\u044f"}}, {"type": "Feature", "geometry": {"type": "Polygon", "coordinates": [[[37.56789173057769, 55.76293209260715], [37.56789173057769, 55.762918785335124], [37.567832103814006, 55.76291213169911], [37.56778241484427, 55.76289549760907], [37.56777247705032, 55.762845595338966], [37.56775260146242, 55.76283894170295], [37.56772278808058, 55.76283561488494], [37.56767309911084, 55.76284892215697], [37.5676234101411, 55.762845595338966], [37.56759359675926, 55.76283228806694], [37.56750415661373, 55.762842268520956], [37.56753396999557, 55.76279569306886], [37.56760353455321, 55.76277240534281], [37.567613472347155, 55.762789039432846], [37.56763334793505, 55.76279569306886], [37.567663161316894, 55.76279569306886], [37.567742663668476, 55.76281232715889], [37.567792352638214, 55.76281232715889], [37.56784204160795, 55.76279236625085], [37.567881792783744, 55.762789039432846], [37.56802092189901, 55.76279236625085], [37.5680805486627, 55.76277573216081], [37.56807061086875, 55.76275577125277], [37.56811036204454, 55.76273581034473], [37.568050735280856, 55.76271917625469], [37.568050735280856, 55.76270254216466], [37.5680805486627, 55.76269588852864], [37.568100424250595, 55.76270254216466], [37.568100424250595, 55.76271917625469], [37.568140175426386, 55.76274911761676], [37.56811036204454, 55.762822307612915], [37.56813023763244, 55.76282896124893], [37.56820973998402, 55.762825634430925], [37.56825942895376, 55.762842268520956], [37.56826936674771, 55.76287220988302], [37.5683091179235, 55.76289549760907], [37.568319055717446, 55.76293209260715], [37.56789173057769, 55.76293209260715]]]}, "properties": {"id": 4, "bound": true, "edge_id": 4, "ID": "{e3096058-353f-4b0f-b84f-bb9c621a6a45}", "na_obj": "\u041a\u0440\u0430\u0441\u043d\u0430\u044f \u041f\u0440\u0435\u0441\u043d\u044f \u0443\u043b\u0438\u0446\u0430", "um_code": "011570", "no_omk": "-", "ao": "\u0426\u0410\u041e", "rajon": "\u041f\u0440\u0435\u0441\u043d\u0435\u043d\u0441\u043a\u0438\u0439", "status": "\u0421\u0443\u0449\u0435\u0441\u0442\u0432\u0443\u044e\u0449\u0438\u0435", "length": 329.2, "type_uds": "\u041e\u0434\u043d\u0430 \u043f\u0440\u043e\u0435\u0437\u0436\u0430\u044f \u0447\u0430\u0441\u0442\u044c", "rlane": "\u0414\u0430", "one_way": "\u043d\u0435\u0442", "kl_gp": "\u041c\u0430\u0433\u0438\u0441\u0442\u0440\u0430\u043b\u044c\u043d\u044b\u0435 \u0443\u043b\u0438\u0446\u044b \u043e\u0431\u0449\u0435\u0433\u043e\u0440\u043e\u0434\u0441\u043a\u043e\u0433\u043e \u0437\u043d\u0430\u0447\u0435\u043d\u0438\u044f I \u043a\u043b\u0430\u0441\u0441\u0430 \u0446\u0435\u043d\u0442\u0440\u0430", "class_active_2016": "\u041c\u0430\u0433\u0438\u0441\u0442\u0440\u0430\u043b\u044c\u043d\u044b\u0435 \u0443\u043b\u0438\u0446\u044b \u043e\u0431\u0449\u0435\u0433\u043e\u0440\u043e\u0434\u0441\u043a\u043e\u0433\u043e \u0437\u043d\u0430\u0447\u0435\u043d\u0438\u044f 2-\u0433\u043e \u043a\u043b\u0430\u0441\u0441\u0430 - \u0440\u0435\u0433\u0443\u043b\u0438\u0440\u0443\u0435\u043c\u043e\u0433\u043e \u0434\u0432\u0438\u0436\u0435\u043d\u0438\u044f", "offer_2016": "\u041c\u0430\u0433\u0438\u0441\u0442\u0440\u0430\u043b\u044c\u043d\u044b\u0435 \u0443\u043b\u0438\u0446\u044b \u043e\u0431\u0449\u0435\u0433\u043e\u0440\u043e\u0434\u0441\u043a\u043e\u0433\u043e \u0437\u043d\u0430\u0447\u0435\u043d\u0438\u044f 1-\u0433\u043e \u043a\u043b\u0430\u0441\u0441\u0430 - \u043d\u0435\u043f\u0440\u0435\u0440\u044b\u0432\u043d\u043e\u0433\u043e \u0434\u0432\u0438\u0436\u0435\u043d\u0438\u044f"}}, {"type": "Feature", "geometry": {"type": "Polygon", "coordinates": [[[37.567484281025834, 55.76293209260715], [37.567474343231886, 55.7629088048811], [37.56744452985004, 55.76289549760907], [37.567474343231886, 55.76288551715505], [37.567474343231886, 55.76287553670103], [37.56751409440768, 55.76287220988302], [37.56753396999557, 55.76288551715505], [37.567573721171364, 55.76288551715505], [37.56760353455321, 55.762882190337045], [37.56763334793505, 55.76286888306502], [37.567643285729, 55.762878863519035], [37.5676234101411, 55.76293209260715], [37.567484281025834, 55.76293209260715]]]}, "properties": {"id": 5, "bound": true, "edge_id": 4, "ID": "{e3096058-353f-4b0f-b84f-bb9c621a6a45}", "na_obj": "\u041a\u0440\u0430\u0441\u043d\u0430\u044f \u041f\u0440\u0435\u0441\u043d\u044f \u0443\u043b\u0438\u0446\u0430", "um_code": "011570", "no_omk": "-", "ao": "\u0426\u0410\u041e", "rajon": "\u041f\u0440\u0435\u0441\u043d\u0435\u043d\u0441\u043a\u0438\u0439", "status": "\u0421\u0443\u0449\u0435\u0441\u0442\u0432\u0443\u044e\u0449\u0438\u0435", "length": 329.2, "type_uds": "\u041e\u0434\u043d\u0430 \u043f\u0440\u043e\u0435\u0437\u0436\u0430\u044f \u0447\u0430\u0441\u0442\u044c", "rlane": "\u0414\u0430", "one_way": "\u043d\u0435\u0442", "kl_gp": "\u041c\u0430\u0433\u0438\u0441\u0442\u0440\u0430\u043b\u044c\u043d\u044b\u0435 \u0443\u043b\u0438\u0446\u044b \u043e\u0431\u0449\u0435\u0433\u043e\u0440\u043e\u0434\u0441\u043a\u043e\u0433\u043e \u0437\u043d\u0430\u0447\u0435\u043d\u0438\u044f I \u043a\u043b\u0430\u0441\u0441\u0430 \u0446\u0435\u043d\u0442\u0440\u0430", "class_active_2016": "\u041c\u0430\u0433\u0438\u0441\u0442\u0440\u0430\u043b\u044c\u043d\u044b\u0435 \u0443\u043b\u0438\u0446\u044b \u043e\u0431\u0449\u0435\u0433\u043e\u0440\u043e\u0434\u0441\u043a\u043e\u0433\u043e \u0437\u043d\u0430\u0447\u0435\u043d\u0438\u044f 2-\u0433\u043e \u043a\u043b\u0430\u0441\u0441\u0430 - \u0440\u0435\u0433\u0443\u043b\u0438\u0440\u0443\u0435\u043c\u043e\u0433\u043e \u0434\u0432\u0438\u0436\u0435\u043d\u0438\u044f", "offer_2016": "\u041c\u0430\u0433\u0438\u0441\u0442\u0440\u0430\u043b\u044c\u043d\u044b\u0435 \u0443\u043b\u0438\u0446\u044b \u043e\u0431\u0449\u0435\u0433\u043e\u0440\u043e\u0434\u0441\u043a\u043e\u0433\u043e \u0437\u043d\u0430\u0447\u0435\u043d\u0438\u044f 1-\u0433\u043e \u043a\u043b\u0430\u0441\u0441\u0430 - \u043d\u0435\u043f\u0440\u0435\u0440\u044b\u0432\u043d\u043e\u0433\u043e \u0434\u0432\u0438\u0436\u0435\u043d\u0438\u044f"}}, {"type": "Feature", "geometry": {"type": "Polygon", "coordinates": [[[37.56648056383711, 55.76292543897114], [37.5665401906008, 55.76291213169911], [37.56657000398264, 55.76285890261099], [37.56657000398264, 55.76282896124893], [37.566510377218954, 55.76281898079491], [37.566281807958156, 55.76285224897498], [37.56622218119447, 55.76285224897498], [37.56620230560657, 55.76281898079491], [37.56617249222473, 55.76279901988686], [37.56618243001868, 55.76279236625085], [37.566242056782365, 55.76279569306886], [37.56627187016421, 55.76278238579683], [37.56627187016421, 55.762765751706795], [37.56621224340052, 55.76275577125277], [37.56621224340052, 55.76274911761676], [37.56616255443078, 55.76273581034473], [37.56614267884289, 55.76274246398074], [37.566102927667096, 55.762725829890705], [37.56607311428525, 55.76273581034473], [37.56609298987315, 55.76274911761676], [37.566102927667096, 55.76278238579683], [37.56607311428525, 55.76277905897882], [37.56605323869736, 55.76277240534281], [37.56604330090341, 55.76274911761676], [37.566013487521566, 55.76273913716274], [37.56600354972762, 55.762709195800674], [37.5660830520792, 55.762689234892626], [37.56622218119447, 55.76269256171064], [37.56626193237026, 55.76268258125661], [37.56632155913395, 55.76268590807462], [37.56636131030974, 55.762672600802595], [37.56636131030974, 55.76266262034857], [37.56640106148553, 55.76265596671256], [37.56647062604316, 55.7626293521685], [37.566550128394745, 55.76268258125661], [37.56662963074633, 55.762709195800674], [37.56666938192212, 55.762709195800674], [37.56669919530396, 55.76269588852864], [37.56669919530396, 55.76267925443861], [37.566679319716066, 55.762672600802595], [37.56668925751001, 55.76265929353056], [37.56670913309791, 55.76265929353056], [37.56675882206765, 55.76264265944053], [37.56678863544949, 55.76264598625853], [37.566858200007125, 55.762632678986506], [37.56687807559502, 55.76262602535049], [37.56688801338897, 55.76260606444245], [37.56687807559502, 55.762592757170424], [37.56683832441923, 55.76257944989839], [37.56679857324344, 55.762592757170424], [37.566768759861596, 55.762592757170424], [37.56669919530396, 55.762609391260455], [37.56665944412817, 55.76259608398843], [37.56661969295238, 55.76260273762444], [37.566589879570536, 55.76259941080644], [37.56653025280685, 55.76261937171448], [37.566510377218954, 55.762609391260455], [37.566510377218954, 55.76260273762444], [37.56657994177659, 55.762576123080386], [37.566589879570536, 55.76255948899035], [37.56660975515843, 55.762556162172345], [37.56665944412817, 55.76256946944437], [37.56670913309791, 55.76256946944437], [37.566729008685805, 55.76256281580836], [37.56670913309791, 55.76252289399227], [37.56666938192212, 55.76250625990224], [37.566679319716066, 55.762492952630204], [37.5667488842737, 55.76252622081028], [37.56680851103739, 55.76252954762828], [37.56682838662528, 55.7625362012643], [37.56683832441923, 55.762552835354334], [37.56686813780107, 55.76256281580836], [37.56688801338897, 55.76256281580836], [37.566947640152655, 55.76253952808231], [37.5669575779466, 55.762516240356256], [37.5669774535345, 55.76250958672024], [37.56702714250424, 55.76251291353825], [37.56702714250424, 55.762519567174266], [37.56710664485582, 55.76254618171832], [37.567166271619506, 55.76252289399227], [37.5671861472074, 55.76247964535818], [37.56724577397109, 55.76246966490416], [37.56728552514688, 55.76245303081412], [37.56733521411662, 55.76244637717811], [37.56736502749846, 55.76245303081412], [37.5674147164682, 55.76244637717811], [37.56744452985004, 55.76243306990608], [37.5674147164682, 55.76242641627006], [37.5674147164682, 55.76241310899803], [37.567434592056095, 55.762419762634046], [37.56745446764399, 55.76241310899803], [37.56749421881978, 55.76242974308807], [37.567484281025834, 55.76248629899419], [37.56749421881978, 55.76249960626622], [37.567524032201625, 55.76250958672024], [37.567563783377416, 55.76259941080644], [37.5676234101411, 55.76263600580452], [37.5676234101411, 55.76265596671256], [37.567663161316894, 55.76266594716658], [37.567742663668476, 55.76266262034857], [37.567742663668476, 55.76268258125661], [37.567702912492685, 55.76269921534665], [37.567663161316894, 55.76270254216466], [37.567613472347155, 55.762725829890705], [37.56759359675926, 55.7627225030727], [37.56758365896531, 55.762705868982664], [37.567563783377416, 55.76269921534665], [37.567573721171364, 55.76268258125661], [37.56750415661373, 55.76265263989455], [37.56746440543794, 55.76266262034857], [37.56745446764399, 55.7626759276206], [37.56738490308636, 55.76268258125661], [37.567345151910565, 55.76269256171064], [37.56727558735293, 55.76265596671256], [37.56723583617714, 55.76264598625853], [37.5672060227953, 55.76265596671256], [37.56719608500135, 55.762672600802595], [37.567166271619506, 55.762672600802595], [37.56711658264977, 55.76265596671256], [37.567076831473976, 55.76265929353056], [37.56704701809213, 55.76265263989455], [37.56702714250424, 55.76265929353056], [37.56691782677081, 55.762669273984585], [37.566897951182916, 55.7626759276206], [37.566897951182916, 55.76269588852864], [37.566858200007125, 55.762705868982664], [37.56686813780107, 55.76274579079875], [37.56684826221318, 55.76277240534281], [37.56693770235871, 55.76280234670487], [37.56704701809213, 55.76279569306886], [37.56714639603161, 55.762762424888784], [37.567176209413454, 55.76277240534281], [37.567176209413454, 55.76278238579683], [37.56719608500135, 55.762789039432846], [37.5671861472074, 55.76281898079491], [37.5672060227953, 55.76283894170295], [37.5672060227953, 55.762862229429004], [37.56723583617714, 55.76288884397306], [37.56723583617714, 55.7629054780631], [37.567255711765036, 55.762915458517114], [37.567255711765036, 55.76293209260715], [37.56678863544949, 55.76293209260715], [37.56677869765554, 55.762918785335124], [37.5667488842737, 55.7629088048811], [37.566679319716066, 55.76291213169911], [37.56666938192212, 55.76289549760907], [37.56664950633422, 55.76288884397306], [37.56662963074633, 55.76288884397306], [37.566599817364484, 55.76291213169911], [37.56657000398264, 55.76292211215313], [37.56657000398264, 55.76293209260715], [37.56639112369158, 55.76293209260715], [37.56648056383711, 55.76292543897114]]]}, "properties": {"id": 6, "bound": true, "edge_id": 4, "ID": "{e3096058-353f-4b0f-b84f-bb9c621a6a45}", "na_obj": "\u041a\u0440\u0430\u0441\u043d\u0430\u044f \u041f\u0440\u0435\u0441\u043d\u044f \u0443\u043b\u0438\u0446\u0430", "um_code": "011570", "no_omk": "-", "ao": "\u0426\u0410\u041e", "rajon": "\u041f\u0440\u0435\u0441\u043d\u0435\u043d\u0441\u043a\u0438\u0439", "status": "\u0421\u0443\u0449\u0435\u0441\u0442\u0432\u0443\u044e\u0449\u0438\u0435", "length": 329.2, "type_uds": "\u041e\u0434\u043d\u0430 \u043f\u0440\u043e\u0435\u0437\u0436\u0430\u044f \u0447\u0430\u0441\u0442\u044c", "rlane": "\u0414\u0430", "one_way": "\u043d\u0435\u0442", "kl_gp": "\u041c\u0430\u0433\u0438\u0441\u0442\u0440\u0430\u043b\u044c\u043d\u044b\u0435 \u0443\u043b\u0438\u0446\u044b \u043e\u0431\u0449\u0435\u0433\u043e\u0440\u043e\u0434\u0441\u043a\u043e\u0433\u043e \u0437\u043d\u0430\u0447\u0435\u043d\u0438\u044f I \u043a\u043b\u0430\u0441\u0441\u0430 \u0446\u0435\u043d\u0442\u0440\u0430", "class_active_2016": "\u041c\u0430\u0433\u0438\u0441\u0442\u0440\u0430\u043b\u044c\u043d\u044b\u0435 \u0443\u043b\u0438\u0446\u044b \u043e\u0431\u0449\u0435\u0433\u043e\u0440\u043e\u0434\u0441\u043a\u043e\u0433\u043e \u0437\u043d\u0430\u0447\u0435\u043d\u0438\u044f 2-\u0433\u043e \u043a\u043b\u0430\u0441\u0441\u0430 - \u0440\u0435\u0433\u0443\u043b\u0438\u0440\u0443\u0435\u043c\u043e\u0433\u043e \u0434\u0432\u0438\u0436\u0435\u043d\u0438\u044f", "offer_2016": "\u041c\u0430\u0433\u0438\u0441\u0442\u0440\u0430\u043b\u044c\u043d\u044b\u0435 \u0443\u043b\u0438\u0446\u044b \u043e\u0431\u0449\u0435\u0433\u043e\u0440\u043e\u0434\u0441\u043a\u043e\u0433\u043e \u0437\u043d\u0430\u0447\u0435\u043d\u0438\u044f 1-\u0433\u043e \u043a\u043b\u0430\u0441\u0441\u0430 - \u043d\u0435\u043f\u0440\u0435\u0440\u044b\u0432\u043d\u043e\u0433\u043e \u0434\u0432\u0438\u0436\u0435\u043d\u0438\u044f"}}, {"type": "Feature", "geometry": {"type": "Polygon", "coordinates": [[[37.566023425315514, 55.76293209260715], [37.565973736345775, 55.762915458517114], [37.566013487521566, 55.762882190337045], [37.566013487521566, 55.76286888306502], [37.565973736345775, 55.76285557579299], [37.56603336310946, 55.762842268520956], [37.566063176491305, 55.76285224897498], [37.56612280325499, 55.76285890261099], [37.56616255443078, 55.7629054780631], [37.566242056782365, 55.76291213169911], [37.56631162134, 55.76293209260715], [37.566023425315514, 55.76293209260715]]]}, "properties": {"id": 7, "bound": true, "edge_id": 4, "ID": "{e3096058-353f-4b0f-b84f-bb9c621a6a45}", "na_obj": "\u041a\u0440\u0430\u0441\u043d\u0430\u044f \u041f\u0440\u0435\u0441\u043d\u044f \u0443\u043b\u0438\u0446\u0430", "um_code": "011570", "no_omk": "-", "ao": "\u0426\u0410\u041e", "rajon": "\u041f\u0440\u0435\u0441\u043d\u0435\u043d\u0441\u043a\u0438\u0439", "status": "\u0421\u0443\u0449\u0435\u0441\u0442\u0432\u0443\u044e\u0449\u0438\u0435", "length": 329.2, "type_uds": "\u041e\u0434\u043d\u0430 \u043f\u0440\u043e\u0435\u0437\u0436\u0430\u044f \u0447\u0430\u0441\u0442\u044c", "rlane": "\u0414\u0430", "one_way": "\u043d\u0435\u0442", "kl_gp": "\u041c\u0430\u0433\u0438\u0441\u0442\u0440\u0430\u043b\u044c\u043d\u044b\u0435 \u0443\u043b\u0438\u0446\u044b \u043e\u0431\u0449\u0435\u0433\u043e\u0440\u043e\u0434\u0441\u043a\u043e\u0433\u043e \u0437\u043d\u0430\u0447\u0435\u043d\u0438\u044f I \u043a\u043b\u0430\u0441\u0441\u0430 \u0446\u0435\u043d\u0442\u0440\u0430", "class_active_2016": "\u041c\u0430\u0433\u0438\u0441\u0442\u0440\u0430\u043b\u044c\u043d\u044b\u0435 \u0443\u043b\u0438\u0446\u044b \u043e\u0431\u0449\u0435\u0433\u043e\u0440\u043e\u0434\u0441\u043a\u043e\u0433\u043e \u0437\u043d\u0430\u0447\u0435\u043d\u0438\u044f 2-\u0433\u043e \u043a\u043b\u0430\u0441\u0441\u0430 - \u0440\u0435\u0433\u0443\u043b\u0438\u0440\u0443\u0435\u043c\u043e\u0433\u043e \u0434\u0432\u0438\u0436\u0435\u043d\u0438\u044f", "offer_2016": "\u041c\u0430\u0433\u0438\u0441\u0442\u0440\u0430\u043b\u044c\u043d\u044b\u0435 \u0443\u043b\u0438\u0446\u044b \u043e\u0431\u0449\u0435\u0433\u043e\u0440\u043e\u0434\u0441\u043a\u043e\u0433\u043e \u0437\u043d\u0430\u0447\u0435\u043d\u0438\u044f 1-\u0433\u043e \u043a\u043b\u0430\u0441\u0441\u0430 - \u043d\u0435\u043f\u0440\u0435\u0440\u044b\u0432\u043d\u043e\u0433\u043e \u0434\u0432\u0438\u0436\u0435\u043d\u0438\u044f"}}, {"type": "Feature", "geometry": {"type": "Polygon", "coordinates": [[[37.56556628679392, 55.762915458517114], [37.565536473412074, 55.76292211215313], [37.56550666003023, 55.7629054780631], [37.56550666003023, 55.762878863519035], [37.565486784442335, 55.76286888306502], [37.56551659782418, 55.76284892215697], [37.565486784442335, 55.76283894170295], [37.56547684664839, 55.76281232715889], [37.565437095472596, 55.76279236625085], [37.565447033266544, 55.76277573216081], [37.5654172198847, 55.762765751706795], [37.5654172198847, 55.76274579079875], [37.56546690885444, 55.7627225030727], [37.565437095472596, 55.76271252261868], [37.56537746870891, 55.762705868982664], [37.56533771753312, 55.76269256171064], [37.5654172198847, 55.762669273984585], [37.5654172198847, 55.76265929353056], [37.56538740650286, 55.762649313076544], [37.56536753091496, 55.76265596671256], [37.56533771753312, 55.76265596671256], [37.56533771753312, 55.7621635976475], [37.56536753091496, 55.762153617193476], [37.565397344296805, 55.76210704174137], [37.56536753091496, 55.762097061287356], [37.56533771753312, 55.762097061287356], [37.56533771753312, 55.76204383219924], [37.56540728209075, 55.762073773561305], [37.565437095472596, 55.762073773561305], [37.565486784442335, 55.76206046628928], [37.56551659782418, 55.762037178563226], [37.565536473412074, 55.762033851745215], [37.56555634899997, 55.76204050538123], [37.56565572693945, 55.762013890837174], [37.56569547811524, 55.7620271981092], [37.56571535370313, 55.76202054447319], [37.56572529149708, 55.76204715901725], [37.56574516708498, 55.762053812653264], [37.56574516708498, 55.76208042719732], [37.5658743584063, 55.76212034901341], [37.565884296200245, 55.76214363673945], [37.56595386075788, 55.762150290375466], [37.566063176491305, 55.762130329467425], [37.56614267884289, 55.76213698310344], [37.56623211898842, 55.76212700264942], [37.56627187016421, 55.7621170221954], [37.566331496927894, 55.76213698310344], [37.566331496927894, 55.76214363673945], [37.56636131030974, 55.762153617193476], [37.56638118589763, 55.762153617193476], [37.566410999279476, 55.76214363673945], [37.566410999279476, 55.762133656285435], [37.56639112369158, 55.76212700264942], [37.56640106148553, 55.7621170221954], [37.56643087486737, 55.762110368559384], [37.56645075045527, 55.76208708083333], [37.56647062604316, 55.76209040765134], [37.56662963074633, 55.76206711992529], [37.56671907089186, 55.76206379310728], [37.566818448831334, 55.762097061287356], [37.56686813780107, 55.76208042719732], [37.56687807559502, 55.76204383219924], [37.566907888976864, 55.76202054447319], [37.56696751574055, 55.7620238712912], [37.56709670706187, 55.76200058356515], [37.567176209413454, 55.76200058356515], [37.5672060227953, 55.76201056401917], [37.5672060227953, 55.76202054447319], [37.56726564955898, 55.762037178563226], [37.56731533852872, 55.76202054447319], [37.56733521411662, 55.761980622657106], [37.56740477867425, 55.76196066174906], [37.5674147164682, 55.76194735447703], [37.56746440543794, 55.761934047205], [37.567524032201625, 55.761940700841016], [37.56755384558347, 55.761934047205], [37.567573721171364, 55.76193737402301], [37.567643285729, 55.761930720387], [37.56768303690479, 55.761957334931054], [37.56771285028663, 55.76196731538508], [37.567742663668476, 55.76196731538508], [37.56777247705032, 55.761957334931054], [37.567792352638214, 55.76190743266095], [37.56782216602006, 55.76189412538892], [37.5678519794019, 55.761897452206924], [37.567881792783744, 55.76189079857091], [37.56791160616559, 55.761897452206924], [37.56799110851717, 55.76187416448087], [37.568010984105065, 55.761860857208845], [37.56804079748691, 55.761860857208845], [37.568100424250595, 55.76187416448087], [37.568100424250595, 55.761884144934896], [37.56816005101428, 55.76190410584294], [37.56817992660218, 55.76190410584294], [37.56821967777797, 55.76189412538892], [37.56824949115981, 55.76183756948279], [37.56834886909929, 55.76182093539276], [37.56842837145087, 55.76182093539276], [37.56848799821456, 55.76181095493874], [37.5685178115964, 55.76181760857475], [37.56855756277219, 55.76181428175675], [37.56856750056614, 55.761824262210766], [37.56861718953588, 55.761840896300804], [37.568637065123774, 55.761840896300804], [37.568676816299565, 55.761827589028776], [37.56868675409351, 55.76179764766671], [37.568716567475356, 55.76177435994066], [37.56883582100273, 55.76175772585062], [37.56887557217852, 55.761744418578594], [37.5689550745301, 55.76174109176059], [37.56891532335431, 55.76175772585062], [37.56887557217852, 55.76175439903262], [37.56884575879668, 55.761767706304646], [37.56886563438457, 55.76177435994066], [37.56886563438457, 55.76180762812073], [37.56891532335431, 55.76182093539276], [37.56899482570589, 55.76179764766671], [37.56904451467563, 55.7617943208487], [37.56906439026353, 55.76178766721269], [37.569074328057475, 55.761747745396605], [37.56905445246958, 55.76174109176059], [37.56899482570589, 55.761747745396605], [37.56899482570589, 55.76174109176059], [37.56904451467563, 55.76172445767055], [37.56915383040906, 55.76171447721653], [37.569203519378796, 55.7617011699445], [37.56924327055459, 55.76164461403838], [37.56923333276064, 55.761627979948344], [37.56917370599695, 55.761614672676316], [37.56910414143932, 55.761627979948344], [37.568984887911945, 55.76163796040237], [37.56892526114826, 55.76164128722037], [37.56891532335431, 55.761631306766354], [37.568974950118, 55.7615614435882], [37.56900476349984, 55.76147161950201], [37.569034576881684, 55.76141173677788], [37.56905445246958, 55.76139842950585], [37.569024639087736, 55.761325239509695], [37.56899482570589, 55.76131525905567], [37.568974950118, 55.76129197132962], [37.56892526114826, 55.76127533723959], [37.568895447766415, 55.761285317693606], [37.568895447766415, 55.76129529814763], [37.56892526114826, 55.761345200417736], [37.568984887911945, 55.761381795415815], [37.56896501232405, 55.76138844905183], [37.56891532335431, 55.76138844905183], [37.568806007620886, 55.761361834507774], [37.56877619423904, 55.76137181496179], [37.56879606982694, 55.76139177586984], [37.56875631865115, 55.761418390413894], [37.568726505269304, 55.76140508314187], [37.56861718953588, 55.76139842950585], [37.56852774939035, 55.76142504404991], [37.568497936008505, 55.7614217172319], [37.56846812262666, 55.76142837086792], [37.56843830924482, 55.7614217172319], [37.56839855806903, 55.76143502450393], [37.568368744687184, 55.76142504404991], [37.56834886909929, 55.76142504404991], [37.56829918012955, 55.76145165859396], [37.56829918012955, 55.76148825359204], [37.56824949115981, 55.761468292684], [37.56819980219007, 55.761478273138025], [37.568150113220334, 55.761478273138025], [37.56811036204454, 55.761498234046066], [37.56807061086875, 55.761498234046066], [37.568050735280856, 55.76150488768208], [37.56802092189901, 55.76149158041005], [37.56793148175348, 55.761498234046066], [37.56789173057769, 55.76148159995603], [37.5678718549898, 55.76148159995603], [37.5678519794019, 55.76148825359204], [37.5678519794019, 55.761558116770196], [37.56778241484427, 55.76152817540813], [37.56775260146242, 55.76152817540813], [37.56773272587453, 55.76153815586215], [37.567573721171364, 55.76156809722421], [37.567524032201625, 55.761558116770196], [37.56749421881978, 55.76157807767824], [37.56742465426215, 55.76155146313418], [37.567394840880304, 55.7615614435882], [37.567394840880304, 55.76157807767824], [37.56737496529241, 55.76158473131425], [37.567394840880304, 55.76160469222229], [37.56738490308636, 55.76162465313034], [37.567345151910565, 55.761614672676316], [37.56726564955898, 55.761627979948344], [37.56722589838319, 55.76164128722037], [37.567166271619506, 55.76164128722037], [37.56713645823766, 55.761651267674395], [37.56709670706187, 55.76164461403838], [37.56705695588608, 55.76166124812842], [37.5669575779466, 55.76167788221845], [37.5669575779466, 55.76169118949048], [37.56693770235871, 55.7617011699445], [37.56692776456476, 55.76169451630849], [37.56687807559502, 55.761687862672474], [37.56683832441923, 55.76169451630849], [37.566768759861596, 55.76172445767055], [37.56669919530396, 55.76172445767055], [37.56665944412817, 55.76173776494258], [37.56662963074633, 55.76173443812458], [37.566599817364484, 55.76174109176059], [37.56656006618869, 55.76172445767055], [37.566500439425006, 55.76172445767055], [37.56648056383711, 55.761747745396605], [37.56649050163106, 55.76176105266863], [37.5665203150129, 55.761771033122656], [37.566510377218954, 55.761784340394684], [37.56647062604316, 55.761764379486635], [37.56644081266132, 55.76175439903262], [37.566420937073424, 55.76175439903262], [37.56635137251579, 55.76177435994066], [37.56634143472184, 55.761784340394684], [37.56631162134, 55.761784340394684], [37.56623211898842, 55.761764379486635], [37.56617249222473, 55.76177435994066], [37.56612280325499, 55.761767706304646], [37.56607311428525, 55.76178101357667], [37.566063176491305, 55.7617943208487], [37.56603336310946, 55.76179764766671], [37.56598367413972, 55.761771033122656], [37.56595386075788, 55.76176105266863], [37.565924047376036, 55.76176105266863], [37.56590417178814, 55.761767706304646], [37.565884296200245, 55.76179764766671], [37.565844545024454, 55.76181095493874], [37.565844545024454, 55.76183424266479], [37.56581473164261, 55.76184422311881], [37.565794856054715, 55.76186751084486], [37.56576504267287, 55.76187749129888], [37.56573522929103, 55.76187749129888], [37.565705415909186, 55.76189412538892], [37.56567560252734, 55.76189412538892], [37.56567560252734, 55.76180762812073], [37.56571535370313, 55.76179764766671], [37.56571535370313, 55.7617909940307], [37.565665664733395, 55.761764379486635], [37.5656457891455, 55.76176105266863], [37.565526535618126, 55.76178101357667], [37.56533771753312, 55.761824262210766], [37.56533771753312, 55.761611345858306], [37.565447033266544, 55.761571424042224], [37.5654172198847, 55.7615614435882], [37.56538740650286, 55.76156809722421], [37.56537746870891, 55.7615614435882], [37.565397344296805, 55.761554789952186], [37.56540728209075, 55.761534829044145], [37.565437095472596, 55.76152484859012], [37.56542715767865, 55.761494907228055], [37.56540728209075, 55.76148825359204], [37.56536753091496, 55.761494907228055], [37.56533771753312, 55.76149158041005], [37.56533771753312, 55.76135518087176], [37.565357593121014, 55.761361834507774], [37.565347655327066, 55.76138844905183], [37.56537746870891, 55.76139842950585], [37.56537746870891, 55.76143169768592], [37.565397344296805, 55.761438351321935], [37.565437095472596, 55.76143169768592], [37.56549672223628, 55.76143169768592], [37.56551659782418, 55.76142504404991], [37.56551659782418, 55.76141173677788], [37.56555634899997, 55.76139510268784], [37.565615975763656, 55.76139510268784], [37.56565572693945, 55.761401756323856], [37.56569547811524, 55.76139177586984], [37.565755104878924, 55.76139177586984], [37.56583460723051, 55.76136848814379], [37.56583460723051, 55.76135518087176], [37.56578491826077, 55.761341873599726], [37.56567560252734, 55.76135850768976], [37.56565572693945, 55.76131858587368], [37.56559610017576, 55.76130860541966], [37.56556628679392, 55.76131193223767], [37.56551659782418, 55.76133521996371], [37.565486784442335, 55.7613285663277], [37.56554641120602, 55.76130860541966], [37.56555634899997, 55.76129197132962], [37.565486784442335, 55.7612819908756], [37.56542715767865, 55.76129862496563], [37.5654172198847, 55.761265356785565], [37.565437095472596, 55.76125204951354], [37.56538740650286, 55.76123874224151], [37.565347655327066, 55.76124872269553], [37.56533771753312, 55.761232088605496], [37.565844545024454, 55.761232088605496], [37.565844545024454, 55.76123874224151], [37.56578491826077, 55.76125537633154], [37.56578491826077, 55.761268683603575], [37.56580479384866, 55.761285317693606], [37.56586442061235, 55.76130527860165], [37.56590417178814, 55.76130195178364], [37.56594392296393, 55.761288644511616], [37.56594392296393, 55.76124539587752], [37.56596379855183, 55.76127201042158], [37.56596379855183, 55.76130195178364], [37.565924047376036, 55.76131525905567], [37.565924047376036, 55.761321912691685], [37.56586442061235, 55.76133854678172], [37.56586442061235, 55.76135185405375], [37.565884296200245, 55.76135850768976], [37.565933985169984, 55.76135850768976], [37.565933985169984, 55.76136848814379], [37.56589423399419, 55.761381795415815], [37.565844545024454, 55.761385122233825], [37.56580479384866, 55.76139842950585], [37.56576504267287, 55.76139510268784], [37.56573522929103, 55.76140508314187], [37.56574516708498, 55.7614217172319], [37.56577498046682, 55.76143169768592], [37.565844545024454, 55.76143502450393], [37.56590417178814, 55.7614217172319], [37.56589423399419, 55.76140840995987], [37.56594392296393, 55.76139177586984], [37.566013487521566, 55.76139177586984], [37.5660830520792, 55.76137181496179], [37.56612280325499, 55.7613751417798], [37.56613274104894, 55.761401756323856], [37.566152616636835, 55.76140840995987], [37.5660830520792, 55.76143502450393], [37.56605323869736, 55.76142837086792], [37.566013487521566, 55.76144833177596], [37.56586442061235, 55.76148492677404], [37.56582466943656, 55.76148825359204], [37.56577498046682, 55.761474946320014], [37.565755104878924, 55.76148159995603], [37.56568554032129, 55.76148159995603], [37.565665664733395, 55.761468292684], [37.565615975763656, 55.761468292684], [37.56559610017576, 55.761474946320014], [37.565536473412074, 55.76147161950201], [37.56549672223628, 55.76148159995603], [37.56549672223628, 55.76152152177212], [37.56551659782418, 55.76154148268016], [37.565576224587865, 55.761558116770196], [37.565576224587865, 55.76156477040621], [37.56563585135155, 55.76158805813226], [37.565665664733395, 55.76158805813226], [37.56569547811524, 55.76157807767824], [37.56569547811524, 55.76156477040621], [37.56572529149708, 55.761554789952186], [37.565794856054715, 55.761571424042224], [37.56581473164261, 55.761571424042224], [37.565844545024454, 55.7615614435882], [37.56590417178814, 55.76156477040621], [37.56595386075788, 55.76157475086023], [37.56600354972762, 55.76157475086023], [37.566023425315514, 55.76156809722421], [37.56605323869736, 55.76156809722421], [37.56614267884289, 55.76153815586215], [37.566152616636835, 55.76152152177212], [37.566192367812626, 55.76152484859012], [37.56631162134, 55.761498234046066], [37.56638118589763, 55.761501560864076], [37.566420937073424, 55.7615148681361], [37.56644081266132, 55.76151154131809], [37.56647062604316, 55.761501560864076], [37.56647062604316, 55.76149158041005], [37.56643087486737, 55.76148492677404], [37.56643087486737, 55.761474946320014], [37.566510377218954, 55.76145165859396], [37.5665401906008, 55.76145498541197], [37.566589879570536, 55.76143502450393], [37.566639568540275, 55.76144833177596], [37.56669919530396, 55.76145498541197], [37.56671907089186, 55.76144833177596], [37.56669919530396, 55.76143169768592], [37.566729008685805, 55.7614217172319], [37.56673894647975, 55.76143169768592], [37.56677869765554, 55.761441678139946], [37.566818448831334, 55.76142837086792], [37.566818448831334, 55.7614217172319], [37.56678863544949, 55.761415063595884], [37.56678863544949, 55.76139842950585], [37.56691782677081, 55.761381795415815], [37.566947640152655, 55.76139842950585], [37.5669774535345, 55.76139842950585], [37.56701720471029, 55.761385122233825], [37.56701720471029, 55.761378468597805], [37.566987391328446, 55.76136848814379], [37.5669575779466, 55.7613751417798], [37.566947640152655, 55.76136516132578], [37.5669774535345, 55.76135185405375], [37.566997329122394, 55.76131858587368], [37.56706689368003, 55.761345200417736], [37.56709670706187, 55.76134852723575], [37.56709670706187, 55.761361834507774], [37.56713645823766, 55.761378468597805], [37.567166271619506, 55.7613751417798], [37.56722589838319, 55.761381795415815], [37.567176209413454, 55.76139842950585], [37.56714639603161, 55.7614217172319], [37.567126520443715, 55.761418390413894], [37.567037080298185, 55.76145165859396], [37.56701720471029, 55.761474946320014], [37.56706689368003, 55.76149158041005], [37.56709670706187, 55.76149158041005], [37.56715633382556, 55.76151154131809], [37.5671861472074, 55.761501560864076], [37.5671861472074, 55.76148825359204], [37.56714639603161, 55.761464965866], [37.5671861472074, 55.76145165859396], [37.5671861472074, 55.761438351321935], [37.56722589838319, 55.761415063595884], [37.567255711765036, 55.76142504404991], [37.56727558735293, 55.76145165859396], [37.567305400734774, 55.761464965866], [37.567345151910565, 55.761478273138025], [37.567394840880304, 55.761474946320014], [37.56744452985004, 55.76146163904799], [37.56744452985004, 55.76145498541197], [37.56735508970451, 55.761438351321935], [37.567345151910565, 55.76142504404991], [37.567434592056095, 55.76139177586984], [37.567434592056095, 55.761381795415815], [37.567484281025834, 55.76135518087176], [37.567484281025834, 55.761345200417736], [37.567434592056095, 55.7613285663277], [37.567434592056095, 55.761321912691685], [37.56745446764399, 55.76129862496563], [37.56755384558347, 55.76127201042158], [37.56755384558347, 55.761265356785565], [37.567524032201625, 55.76125537633154], [37.56753396999557, 55.761232088605496], [37.56835880689324, 55.761232088605496], [37.56834886909929, 55.76124539587752], [37.56832899351139, 55.76124206905951], [37.568279304541655, 55.76125537633154], [37.568279304541655, 55.761285317693606], [37.56820973998402, 55.76131525905567], [37.56823955336586, 55.761325239509695], [37.56823955336586, 55.76133189314571], [37.568279304541655, 55.761341873599726], [37.5683091179235, 55.761325239509695], [37.56837868248113, 55.761325239509695], [37.56847806042061, 55.76130860541966], [37.5685178115964, 55.76129197132962], [37.56861718953588, 55.76127201042158], [37.56865694071167, 55.76125204951354], [37.56870662968141, 55.761262029967554], [37.56875631865115, 55.761262029967554], [37.56879606982694, 55.76124872269553], [37.56877619423904, 55.761232088605496], [37.56884575879668, 55.761232088605496], [37.56887557217852, 55.76124206905951], [37.568895447766415, 55.76124206905951], [37.56891532335431, 55.761232088605496], [37.56913395482116, 55.761232088605496], [37.569124017027214, 55.76127533723959], [37.569163768203005, 55.76130195178364], [37.56914389261511, 55.76131525905567], [37.56917370599695, 55.761325239509695], [37.56922339496669, 55.761325239509695], [37.56930289731827, 55.76131193223767], [37.569342648494064, 55.761341873599726], [37.56937246187591, 55.76135185405375], [37.5694122130517, 55.76135518087176], [37.56948177760933, 55.761345200417736], [37.569511590991176, 55.76135518087176], [37.56953146657907, 55.76135518087176], [37.569561279960915, 55.761341873599726], [37.56954140437302, 55.761325239509695], [37.569561279960915, 55.761325239509695], [37.569601031136706, 55.76130527860165], [37.5696407823125, 55.76129862496563], [37.569610968930654, 55.761268683603575], [37.5696209067246, 55.76125870314955], [37.56966065790039, 55.76124872269553], [37.56967059569434, 55.761232088605496], [37.569919040543034, 55.761232088605496], [37.56994885392488, 55.76124539587752], [37.56997866730672, 55.761232088605496], [37.57006810745225, 55.761232088605496], [37.57011779642199, 55.76124872269553], [37.57015754759778, 55.761232088605496], [37.57033642788884, 55.761232088605496], [37.57033642788884, 55.76124206905951], [37.570356303476736, 55.76124872269553], [37.57041593024042, 55.76124539587752], [37.57041593024042, 55.761285317693606], [37.57038611685858, 55.761288644511616], [37.570356303476736, 55.76130195178364], [37.57041593024042, 55.76130860541966], [37.57041593024042, 55.76139842950585], [37.57039605465253, 55.76139510268784], [37.57039605465253, 55.761385122233825], [37.57033642788884, 55.761378468597805], [37.57029667671305, 55.7613285663277], [37.570306614507, 55.76131193223767], [37.570266863331206, 55.76130195178364], [37.57021717436147, 55.761325239509695], [37.570227112155415, 55.76133854678172], [37.57019729877357, 55.76135185405375], [37.57010785862804, 55.76135185405375], [37.5700581696583, 55.76136516132578], [37.57003829407041, 55.761385122233825], [37.57006810745225, 55.76144500495795], [37.570048231864355, 55.76144833177596], [37.57002835627646, 55.761441678139946], [37.570008480688564, 55.76144500495795], [37.56990910274909, 55.76140508314187], [37.56992897833698, 55.76139842950585], [37.56992897833698, 55.761361834507774], [37.56988922716119, 55.76135518087176], [37.56983953819145, 55.76136848814379], [37.569869351573296, 55.76141173677788], [37.5698494759854, 55.76140840995987], [37.56979978701566, 55.761418390413894], [37.56973022245803, 55.76139842950585], [37.56975009804592, 55.761385122233825], [37.56972028466408, 55.7613751417798], [37.569690471282236, 55.761385122233825], [37.56971034687013, 55.76139842950585], [37.5696407823125, 55.761415063595884], [37.56966065790039, 55.761438351321935], [37.56966065790039, 55.761474946320014], [37.56968053348829, 55.76148159995603], [37.56967059569434, 55.761494907228055], [37.56963084451855, 55.76148159995603], [37.56957121775486, 55.761474946320014], [37.56954140437302, 55.76142504404991], [37.56950165319723, 55.76140508314187], [37.56946190202144, 55.76141173677788], [37.56946190202144, 55.76142504404991], [37.56944202643354, 55.76143169768592], [37.56942215084565, 55.76143169768592], [37.56933271070012, 55.76145498541197], [37.56933271070012, 55.76149158041005], [37.56937246187591, 55.76150821450009], [37.56933271070012, 55.76160136540429], [37.56928302173038, 55.76164461403838], [37.569253208348535, 55.761707823580515], [37.56923333276064, 55.76171447721653], [37.569213457172744, 55.761711150398526], [37.5691836437909, 55.76172113085254], [37.569203519378796, 55.76173443812458], [37.569203519378796, 55.76177435994066], [37.5691836437909, 55.761800974484714], [37.569203519378796, 55.761864184026855], [37.56923333276064, 55.76189412538892], [37.56927308393643, 55.76191075947895], [37.5694122130517, 55.76188747175291], [37.56945196422749, 55.76189412538892], [37.56948177760933, 55.76191408629696], [37.569511590991176, 55.76191408629696], [37.569601031136706, 55.761884144934896], [37.569610968930654, 55.76186751084486], [37.56968053348829, 55.761860857208845], [37.569700409076184, 55.76185420357283], [37.56973022245803, 55.76185753039084], [37.56979978701566, 55.76184754993682], [37.56981966260356, 55.76184754993682], [37.56983953819145, 55.761860857208845], [37.56988922716119, 55.76187416448087], [37.56993891613093, 55.761864184026855], [37.569958791718825, 55.76185420357283], [37.56993891613093, 55.76184422311881], [37.569998542894616, 55.761827589028776], [37.57001841848251, 55.76181095493874], [37.5700581696583, 55.761804301302725], [37.570087983040146, 55.761804301302725], [37.57010785862804, 55.76181095493874], [37.57014760980383, 55.761800974484714], [37.57021717436147, 55.761804301302725], [37.57025692553726, 55.761824262210766], [37.57029667671305, 55.761824262210766], [37.57036624127068, 55.76180762812073], [37.57036624127068, 55.76178766721269], [37.57039605465253, 55.76177768675867], [37.57041593024042, 55.76177768675867], [37.57041593024042, 55.76200391038316], [37.570356303476736, 55.76202054447319], [37.570276801125154, 55.7620271981092], [37.57019729877357, 55.76205048583525], [37.57014760980383, 55.76205048583525], [37.57012773421594, 55.76205713947127], [37.57012773421594, 55.76208042719732], [37.57021717436147, 55.762133656285435], [37.57025692553726, 55.76218023173753], [37.57024698774331, 55.7622600753697], [37.57029667671305, 55.762283363095754], [37.57033642788884, 55.76228003627775], [37.570356303476736, 55.762286689913765], [37.570356303476736, 55.76229999718579], [37.57041593024042, 55.762306650821806], [37.57041593024042, 55.762343245819885], [37.57039605465253, 55.762339919001874], [37.570356303476736, 55.76235655309191], [37.570306614507, 55.76233326536586], [37.57024698774331, 55.76233326536586], [37.570227112155415, 55.762323284911844], [37.570227112155415, 55.76230997763981], [37.57019729877357, 55.76229667036778], [37.57021717436147, 55.762286689913765], [37.570177423185676, 55.7622600753697], [37.570137672009885, 55.76226672900572], [37.57014760980383, 55.76229001673177], [37.570177423185676, 55.76229999718579], [37.57011779642199, 55.76231995809383], [37.570087983040146, 55.76232661172985], [37.570048231864355, 55.76232661172985], [37.57002835627646, 55.76231663127583], [37.56997866730672, 55.76231330445782], [37.56996872951277, 55.76229667036778], [37.56992897833698, 55.762283363095754], [37.56988922716119, 55.762223480371624], [37.56980972480961, 55.76219353900956], [37.569779911427766, 55.762190212191555], [37.56967059569434, 55.76220684628159], [37.5696407823125, 55.76221682673561], [37.56959109334276, 55.76221349991761], [37.569511590991176, 55.76224011446166], [37.56944202643354, 55.76222015355362], [37.56942215084565, 55.76222015355362], [37.56940227525775, 55.76223346082565], [37.56944202643354, 55.76229334354978], [37.56944202643354, 55.76232661172985], [37.56940227525775, 55.76235322627391], [37.5693923374638, 55.76237651399995], [37.56936252408196, 55.76237318718195], [37.56931283511222, 55.76235322627391], [37.569213457172744, 55.76235987990992], [37.5691836437909, 55.76236986036394], [37.56914389261511, 55.762339919001874], [37.56913395482116, 55.76229999718579], [37.569114079233266, 55.76229334354978], [37.569114079233266, 55.76227338264173], [37.569074328057475, 55.76223346082565], [37.56904451467563, 55.76216027082949], [37.56899482570589, 55.76210704174137], [37.56900476349984, 55.762097061287356], [37.569034576881684, 55.762097061287356], [37.56910414143932, 55.76208042719732], [37.569163768203005, 55.7621170221954], [37.569203519378796, 55.76216027082949], [37.56924327055459, 55.7621635976475], [37.569292959524326, 55.76215694401148], [37.56932277290617, 55.76214363673945], [37.569292959524326, 55.762133656285435], [37.569292959524326, 55.7621170221954], [37.56930289731827, 55.76210371492337], [37.56933271070012, 55.762093734469346], [37.56932277290617, 55.762070446743294], [37.569342648494064, 55.762037178563226], [37.56930289731827, 55.7620238712912], [37.569253208348535, 55.7620238712912], [37.569203519378796, 55.7620271981092], [37.569163768203005, 55.762037178563226], [37.56913395482116, 55.762033851745215], [37.56909420364537, 55.76204383219924], [37.569024639087736, 55.76204050538123], [37.56899482570589, 55.762053812653264], [37.5689550745301, 55.76205713947127], [37.56892526114826, 55.76206711992529], [37.56892526114826, 55.762073773561305], [37.56886563438457, 55.76209040765134], [37.56883582100273, 55.76208375401533], [37.56881594541483, 55.76208708083333], [37.568766256445095, 55.762073773561305], [37.568716567475356, 55.76207710037931], [37.56868675409351, 55.76208708083333], [37.56868675409351, 55.76210371492337], [37.568726505269304, 55.7621170221954], [37.56879606982694, 55.7621170221954], [37.56887557217852, 55.76220019264558], [37.5689550745301, 55.76222015355362], [37.568974950118, 55.76227005582373], [37.56899482570589, 55.76228003627775], [37.569074328057475, 55.76241310899803], [37.56913395482116, 55.762436396724084], [37.56913395482116, 55.76244970399611], [37.56909420364537, 55.76246301126814], [37.569114079233266, 55.762519567174266], [37.56908426585142, 55.76250625990224], [37.56906439026353, 55.76250625990224], [37.56900476349984, 55.7625362012643], [37.568974950118, 55.76252622081028], [37.5689550745301, 55.76252622081028], [37.568895447766415, 55.76254950853633], [37.5689550745301, 55.76256614262636], [37.569114079233266, 55.76254285490031], [37.569203519378796, 55.76254285490031], [37.56917370599695, 55.762572796262376], [37.56923333276064, 55.76259608398843], [37.56917370599695, 55.76261937171448], [37.56910414143932, 55.76261604489647], [37.56914389261511, 55.76260273762444], [37.569114079233266, 55.762592757170424], [37.568974950118, 55.76261604489647], [37.568945136736154, 55.76261604489647], [37.56892526114826, 55.76258943035241], [37.568895447766415, 55.76257944989839], [37.568855696590624, 55.76257944989839], [37.56881594541483, 55.76256614262636], [37.56881594541483, 55.762556162172345], [37.56879606982694, 55.76254950853633], [37.568726505269304, 55.76254950853633], [37.56870662968141, 55.762556162172345], [37.568676816299565, 55.76254618171832], [37.56865694071167, 55.76252622081028], [37.56861718953588, 55.762516240356256], [37.56856750056614, 55.76254285490031], [37.56856750056614, 55.762552835354334], [37.568627127329826, 55.7625827767164], [37.568676816299565, 55.76258610353441], [37.56861718953588, 55.76259941080644], [37.56861718953588, 55.762612718078465], [37.56859731394798, 55.76261937171448], [37.56852774939035, 55.76262602535049], [37.56846812262666, 55.76263933262252], [37.56841843365692, 55.76263933262252], [37.56833893130534, 55.76265596671256], [37.5683091179235, 55.76264598625853], [37.568279304541655, 55.76265263989455], [37.56826936674771, 55.76264598625853], [37.56821967777797, 55.76263933262252], [37.56816998880823, 55.76264265944053], [37.568140175426386, 55.76263600580452], [37.56812029983849, 55.76264265944053], [37.56809048645665, 55.76263933262252], [37.56803085969296, 55.76265929353056], [37.56802092189901, 55.76262602535049], [37.56794141954743, 55.76261604489647], [37.56790166837164, 55.76259608398843], [37.56789173057769, 55.76255948899035], [37.567921543959535, 55.76254950853633], [37.567961295135326, 55.762552835354334], [37.56800104631112, 55.76254285490031], [37.56802092189901, 55.76254950853633], [37.5680805486627, 55.762552835354334], [37.568100424250595, 55.76253952808231], [37.56804079748691, 55.762519567174266], [37.567971232929274, 55.762519567174266], [37.56798117072322, 55.76250293308423], [37.56794141954743, 55.7624896258122], [37.5678718549898, 55.76249960626622], [37.56782216602006, 55.76247964535818], [37.56775260146242, 55.76246301126814], [37.56772278808058, 55.76246633808615], [37.567702912492685, 55.762459684450135], [37.56769297469874, 55.76244637717811], [37.56775260146242, 55.762419762634046], [37.56773272587453, 55.76241310899803], [37.567653223522946, 55.762419762634046], [37.56758365896531, 55.76238316763597], [37.56760353455321, 55.76237651399995], [37.56760353455321, 55.76235655309191], [37.567573721171364, 55.76232661172985], [37.567563783377416, 55.76229334354978], [37.56753396999557, 55.76227670945974], [37.56753396999557, 55.76226672900572], [37.56750415661373, 55.7622567485517], [37.56750415661373, 55.76224344127967], [37.56745446764399, 55.762226807189634], [37.567434592056095, 55.762223480371624], [37.56740477867425, 55.76223013400764], [37.56735508970451, 55.762226807189634], [37.56731533852872, 55.76223346082565], [37.56723583617714, 55.76223346082565], [37.5672060227953, 55.76224344127967], [37.567215960589245, 55.76226672900572], [37.56723583617714, 55.76227338264173], [37.567255711765036, 55.762306650821806], [37.56729546294083, 55.76233326536586], [37.56729546294083, 55.7623498994559], [37.567255711765036, 55.762366533545936], [37.56719608500135, 55.76237651399995], [37.567176209413454, 55.76237651399995], [37.56711658264977, 55.76235987990992], [37.567076831473976, 55.762339919001874], [37.56706689368003, 55.762323284911844], [37.56706689368003, 55.76230997763981], [37.56713645823766, 55.76228003627775], [37.56714639603161, 55.76226672900572], [37.56704701809213, 55.7622567485517], [37.56702714250424, 55.7622600753697], [37.5669774535345, 55.76227670945974], [37.5669575779466, 55.76229999718579], [37.56693770235871, 55.762306650821806], [37.56693770235871, 55.76232661172985], [37.5669575779466, 55.76233659218387], [37.5669774535345, 55.76237318718195], [37.5669575779466, 55.762379840817964], [37.566947640152655, 55.762399801726005], [37.56692776456476, 55.762403128544015], [37.566818448831334, 55.762403128544015], [37.566768759861596, 55.76236986036394], [37.566768759861596, 55.76235322627391], [37.566858200007125, 55.76231995809383], [37.56687807559502, 55.762323284911844], [37.566907888976864, 55.76231330445782], [37.566907888976864, 55.762306650821806], [37.56687807559502, 55.76229667036778], [37.566818448831334, 55.76229999718579], [37.566768759861596, 55.762283363095754], [37.5667488842737, 55.76229001673177], [37.56673894647975, 55.762306650821806], [37.56661969295238, 55.76229001673177], [37.56657994177659, 55.76229999718579], [37.566589879570536, 55.762339919001874], [37.56657000398264, 55.76234657263789], [37.5665401906008, 55.762343245819885], [37.566500439425006, 55.762363206727926], [37.566420937073424, 55.7623498994559], [37.56630168354605, 55.76237651399995], [37.56623211898842, 55.762379840817964], [37.566112865461044, 55.762399801726005], [37.566063176491305, 55.762396474908], [37.565973736345775, 55.76242308945206], [37.56596379855183, 55.76243306990608], [37.56590417178814, 55.762419762634046], [37.565844545024454, 55.76243306990608], [37.56578491826077, 55.762456357632125], [37.565705415909186, 55.762459684450135], [37.56568554032129, 55.76246633808615], [37.565625913557604, 55.76246301126814], [37.565576224587865, 55.76248629899419], [37.56556628679392, 55.76246633808615], [37.56551659782418, 55.762456357632125], [37.565437095472596, 55.76247964535818], [37.565437095472596, 55.76252622081028], [37.56546690885444, 55.7625362012643], [37.56547684664839, 55.76256614262636], [37.56549672223628, 55.762576123080386], [37.56547684664839, 55.762592757170424], [37.565536473412074, 55.76260606444245], [37.565536473412074, 55.762612718078465], [37.56556628679392, 55.76262269853249], [37.56563585135155, 55.76271252261868], [37.565705415909186, 55.76273913716274], [37.56573522929103, 55.76273248352672], [37.56576504267287, 55.76275909807078], [37.56586442061235, 55.76278238579683], [37.565884296200245, 55.76281232715889], [37.565884296200245, 55.76281898079491], [37.5658544828184, 55.76282896124893], [37.5658544828184, 55.76287553670103], [37.565884296200245, 55.76288884397306], [37.56586442061235, 55.76289549760907], [37.56586442061235, 55.76291213169911], [37.565884296200245, 55.76293209260715], [37.56559610017576, 55.76293209260715], [37.56559610017576, 55.76292543897114], [37.56556628679392, 55.762915458517114]]]}, "properties": {"id": 8, "bound": true, "edge_id": 4, "ID": "{e3096058-353f-4b0f-b84f-bb9c621a6a45}", "na_obj": "\u041a\u0440\u0430\u0441\u043d\u0430\u044f \u041f\u0440\u0435\u0441\u043d\u044f \u0443\u043b\u0438\u0446\u0430", "um_code": "011570", "no_omk": "-", "ao": "\u0426\u0410\u041e", "rajon": "\u041f\u0440\u0435\u0441\u043d\u0435\u043d\u0441\u043a\u0438\u0439", "status": "\u0421\u0443\u0449\u0435\u0441\u0442\u0432\u0443\u044e\u0449\u0438\u0435", "length": 329.2, "type_uds": "\u041e\u0434\u043d\u0430 \u043f\u0440\u043e\u0435\u0437\u0436\u0430\u044f \u0447\u0430\u0441\u0442\u044c", "rlane": "\u0414\u0430", "one_way": "\u043d\u0435\u0442", "kl_gp": "\u041c\u0430\u0433\u0438\u0441\u0442\u0440\u0430\u043b\u044c\u043d\u044b\u0435 \u0443\u043b\u0438\u0446\u044b \u043e\u0431\u0449\u0435\u0433\u043e\u0440\u043e\u0434\u0441\u043a\u043e\u0433\u043e \u0437\u043d\u0430\u0447\u0435\u043d\u0438\u044f I \u043a\u043b\u0430\u0441\u0441\u0430 \u0446\u0435\u043d\u0442\u0440\u0430", "class_active_2016": "\u041c\u0430\u0433\u0438\u0441\u0442\u0440\u0430\u043b\u044c\u043d\u044b\u0435 \u0443\u043b\u0438\u0446\u044b \u043e\u0431\u0449\u0435\u0433\u043e\u0440\u043e\u0434\u0441\u043a\u043e\u0433\u043e \u0437\u043d\u0430\u0447\u0435\u043d\u0438\u044f 2-\u0433\u043e \u043a\u043b\u0430\u0441\u0441\u0430 - \u0440\u0435\u0433\u0443\u043b\u0438\u0440\u0443\u0435\u043c\u043e\u0433\u043e \u0434\u0432\u0438\u0436\u0435\u043d\u0438\u044f", "offer_2016": "\u041c\u0430\u0433\u0438\u0441\u0442\u0440\u0430\u043b\u044c\u043d\u044b\u0435 \u0443\u043b\u0438\u0446\u044b \u043e\u0431\u0449\u0435\u0433\u043e\u0440\u043e\u0434\u0441\u043a\u043e\u0433\u043e \u0437\u043d\u0430\u0447\u0435\u043d\u0438\u044f 1-\u0433\u043e \u043a\u043b\u0430\u0441\u0441\u0430 - \u043d\u0435\u043f\u0440\u0435\u0440\u044b\u0432\u043d\u043e\u0433\u043e \u0434\u0432\u0438\u0436\u0435\u043d\u0438\u044f"}}, {"type": "Feature", "geometry": {"type": "Polygon", "coordinates": [[[37.565357593121014, 55.76131193223767], [37.56537746870891, 55.76131858587368], [37.56537746870891, 55.76133521996371], [37.56533771753312, 55.76135518087176], [37.56533771753312, 55.76131525905567], [37.565357593121014, 55.76131193223767]]]}, "properties": {"id": 9, "bound": true, "edge_id": 0, "ID": "{0a47ea0d-c189-44a3-bf1f-46d5b5b1e7ea}", "na_obj": "\u0422\u0440\u0435\u0445\u0433\u043e\u0440\u043d\u044b\u0439 \u0411\u043e\u043b\u044c\u0448\u043e\u0439 \u043f\u0435\u0440\u0435\u0443\u043b\u043e\u043a", "um_code": "028350", "no_omk": "-", "ao": "\u0426\u0410\u041e", "rajon": "\u041f\u0440\u0435\u0441\u043d\u0435\u043d\u0441\u043a\u0438\u0439", "status": "\u0421\u0443\u0449\u0435\u0441\u0442\u0432\u0443\u044e\u0449\u0438\u0435", "length": 126.6, "type_uds": "\u041e\u0434\u043d\u0430 \u043f\u0440\u043e\u0435\u0437\u0436\u0430\u044f \u0447\u0430\u0441\u0442\u044c", "rlane": "\u0414\u0430", "one_way": "\u0434\u0430", "kl_gp": "\u041f\u0440\u043e\u0447\u0430\u044f \u0443\u043b\u0438\u0447\u043d\u043e-\u0434\u043e\u0440\u043e\u0436\u043d\u0430\u044f \u0441\u0435\u0442\u044c \u041c\u043e\u0441\u043a\u0432\u044b", "class_active_2016": "\u0423\u043b\u0438\u0446\u044b \u0438 \u0434\u043e\u0440\u043e\u0433\u0438 \u043c\u0435\u0441\u0442\u043d\u043e\u0433\u043e \u0437\u043d\u0430\u0447\u0435\u043d\u0438\u044f", "offer_2016": "\u0423\u043b\u0438\u0446\u044b \u0438 \u0434\u043e\u0440\u043e\u0433\u0438 \u043c\u0435\u0441\u0442\u043d\u043e\u0433\u043e \u0437\u043d\u0430\u0447\u0435\u043d\u0438\u044f"}}, {"type": "Feature", "geometry": {"type": "Polygon", "coordinates": [[[37.56533771753312, 55.76293209260715], [37.56533771753312, 55.76279569306886], [37.56542715767865, 55.76293209260715], [37.56533771753312, 55.76293209260715]]]}, "properties": {"id": 10, "bound": true, "edge_id": 5, "ID": "{29a86f05-0ad4-448b-9aff-d03776a82b90}", "na_obj": "\u041a\u0440\u0430\u0441\u043d\u0430\u044f \u041f\u0440\u0435\u0441\u043d\u044f \u0443\u043b\u0438\u0446\u0430", "um_code": "011570", "no_omk": "-", "ao": "\u0426\u0410\u041e", "rajon": "\u041f\u0440\u0435\u0441\u043d\u0435\u043d\u0441\u043a\u0438\u0439", "status": "\u0421\u0443\u0449\u0435\u0441\u0442\u0432\u0443\u044e\u0449\u0438\u0435", "length": 136.3, "type_uds": "\u041e\u0434\u043d\u0430 \u043f\u0440\u043e\u0435\u0437\u0436\u0430\u044f \u0447\u0430\u0441\u0442\u044c", "rlane": "\u0414\u0430", "one_way": "\u043d\u0435\u0442", "kl_gp": "\u041c\u0430\u0433\u0438\u0441\u0442\u0440\u0430\u043b\u044c\u043d\u044b\u0435 \u0443\u043b\u0438\u0446\u044b \u043e\u0431\u0449\u0435\u0433\u043e\u0440\u043e\u0434\u0441\u043a\u043e\u0433\u043e \u0437\u043d\u0430\u0447\u0435\u043d\u0438\u044f I \u043a\u043b\u0430\u0441\u0441\u0430 \u0446\u0435\u043d\u0442\u0440\u0430", "class_active_2016": "\u041c\u0430\u0433\u0438\u0441\u0442\u0440\u0430\u043b\u044c\u043d\u044b\u0435 \u0443\u043b\u0438\u0446\u044b \u043e\u0431\u0449\u0435\u0433\u043e\u0440\u043e\u0434\u0441\u043a\u043e\u0433\u043e \u0437\u043d\u0430\u0447\u0435\u043d\u0438\u044f 2-\u0433\u043e \u043a\u043b\u0430\u0441\u0441\u0430 - \u0440\u0435\u0433\u0443\u043b\u0438\u0440\u0443\u0435\u043c\u043e\u0433\u043e \u0434\u0432\u0438\u0436\u0435\u043d\u0438\u044f", "offer_2016": "\u041c\u0430\u0433\u0438\u0441\u0442\u0440\u0430\u043b\u044c\u043d\u044b\u0435 \u0443\u043b\u0438\u0446\u044b \u043e\u0431\u0449\u0435\u0433\u043e\u0440\u043e\u0434\u0441\u043a\u043e\u0433\u043e \u0437\u043d\u0430\u0447\u0435\u043d\u0438\u044f 1-\u0433\u043e \u043a\u043b\u0430\u0441\u0441\u0430 - \u043d\u0435\u043f\u0440\u0435\u0440\u044b\u0432\u043d\u043e\u0433\u043e \u0434\u0432\u0438\u0436\u0435\u043d\u0438\u044f"}}]}