{"type": "FeatureCollection", "features": [{"type": "Feature", "geometry": {"type": "Polygon", "coordinates": [[[37.59877769218293, 55.75711585803892], [37.598719692032326, 55.757112321586206], [37.59872496477329, 55.75710524868079], [37.598746055737145, 55.757103480454425], [37.598767146701, 55.75709287109629], [37.59879878314678, 55.75710171222807], [37.598830419592566, 55.757091102869936], [37.59887787426124, 55.757094639322645], [37.59887260152028, 55.75710171222807], [37.59884623781546, 55.75710524868079], [37.5988251468516, 55.75711585803892], [37.59880405588775, 55.75711055335985], [37.59877769218293, 55.75711585803892]]]}, "properties": {"id": 0, "bound": true, "edge_id": 6, "ID": "{36bf092d-e47c-4fde-85d5-c928a5eefe4a}", "na_obj": "\u041d\u0438\u043a\u0438\u0442\u0441\u043a\u0438\u0439 \u0431\u0443\u043b\u044c\u0432\u0430\u0440", "um_code": "027050", "no_omk": "-", "ao": "\u0426\u0410\u041e", "rajon": "\u041f\u0440\u0435\u0441\u043d\u0435\u043d\u0441\u043a\u0438\u0439", "status": "\u0421\u0443\u0449\u0435\u0441\u0442\u0432\u0443\u044e\u0449\u0438\u0435", "length": 291.3, "type_uds": "\u041d\u0430\u043f\u0440\u0430\u0432\u043b\u0435\u043d\u0438\u0435 1", "rlane": "\u0414\u0430", "one_way": "\u0434\u0430", "kl_gp": "\u041c\u0430\u0433\u0438\u0441\u0442\u0440\u0430\u043b\u044c\u043d\u044b\u0435 \u0443\u043b\u0438\u0446\u044b \u043e\u0431\u0449\u0435\u0433\u043e\u0440\u043e\u0434\u0441\u043a\u043e\u0433\u043e \u0437\u043d\u0430\u0447\u0435\u043d\u0438\u044f II \u043a\u043b\u0430\u0441\u0441\u0430 \u0446\u0435\u043d\u0442\u0440\u0430", "class_active_2016": "\u041c\u0430\u0433\u0438\u0441\u0442\u0440\u0430\u043b\u044c\u043d\u044b\u0435 \u0443\u043b\u0438\u0446\u044b \u043e\u0431\u0449\u0435\u0433\u043e\u0440\u043e\u0434\u0441\u043a\u043e\u0433\u043e \u0437\u043d\u0430\u0447\u0435\u043d\u0438\u044f 3-\u0433\u043e \u043a\u043b\u0430\u0441\u0441\u0430 - \u0440\u0435\u0433\u0443\u043b\u0438\u0440\u0443\u0435\u043c\u043e\u0433\u043e \u0434\u0432\u0438\u0436\u0435\u043d\u0438\u044f", "offer_2016": "\u041c\u0430\u0433\u0438\u0441\u0442\u0440\u0430\u043b\u044c\u043d\u044b\u0435 \u0443\u043b\u0438\u0446\u044b \u043e\u0431\u0449\u0435\u0433\u043e\u0440\u043e\u0434\u0441\u043a\u043e\u0433\u043e \u0437\u043d\u0430\u0447\u0435\u043d\u0438\u044f 3-\u0433\u043e \u043a\u043b\u0430\u0441\u0441\u0430 - \u0440\u0435\u0433\u0443\u043b\u0438\u0440\u0443\u0435\u043c\u043e\u0433\u043e \u0434\u0432\u0438\u0436\u0435\u043d\u0438\u044f"}}, {"type": "Feature", "geometry": {"type": "Polygon", "coordinates": [[[37.599937695194974, 55.75718835531953], [37.59987969504437, 55.75718835531953], [37.59985860408052, 55.7571812824141], [37.59984805859859, 55.757168904829605], [37.59990605874919, 55.75716713660325], [37.59994296793594, 55.757151222566044], [37.59994296793594, 55.75713707675519], [37.59996933164076, 55.75711939449163], [37.59996933164076, 55.75710701690714], [37.59999042260461, 55.757099944001716], [37.59999042260461, 55.757091102869936], [37.60001678630943, 55.757064579474594], [37.60003260453232, 55.75705397011645], [37.60004315001425, 55.75705397011645], [37.60010115016485, 55.757068115927304], [37.60010642290582, 55.75707518883273], [37.60006424097811, 55.75709287109629], [37.600048422755215, 55.75710701690714], [37.600022059050396, 55.75711585803892], [37.600022059050396, 55.7571246991707], [37.60000096808654, 55.75713707675519], [37.60000096808654, 55.75714591788698], [37.59999042260461, 55.75714945433969], [37.59998514986365, 55.757160063697825], [37.599953513417866, 55.75718305064046], [37.599937695194974, 55.75718835531953]]]}, "properties": {"id": 1, "bound": true, "edge_id": 1, "ID": "{c6e43283-d6c7-4947-bf42-9f1e286a838c}", "na_obj": "\u041a\u0430\u043b\u0430\u0448\u043d\u044b\u0439 \u043f\u0435\u0440\u0435\u0443\u043b\u043e\u043a", "um_code": "009200", "no_omk": "-", "ao": "\u0426\u0410\u041e", "rajon": "\u0410\u0440\u0431\u0430\u0442,\u041f\u0440\u0435\u0441\u043d\u0435\u043d\u0441\u043a\u0438\u0439", "status": "\u0421\u0443\u0449\u0435\u0441\u0442\u0432\u0443\u044e\u0449\u0438\u0435", "length": 453.6, "type_uds": "\u041e\u0434\u043d\u0430 \u043f\u0440\u043e\u0435\u0437\u0436\u0430\u044f \u0447\u0430\u0441\u0442\u044c", "rlane": "\u0414\u0430", "one_way": "\u0434\u0430", "kl_gp": "\u041f\u0440\u043e\u0447\u0430\u044f \u0443\u043b\u0438\u0447\u043d\u043e-\u0434\u043e\u0440\u043e\u0436\u043d\u0430\u044f \u0441\u0435\u0442\u044c \u041c\u043e\u0441\u043a\u0432\u044b", "class_active_2016": "\u0423\u043b\u0438\u0446\u044b \u0438 \u0434\u043e\u0440\u043e\u0433\u0438 \u043c\u0435\u0441\u0442\u043d\u043e\u0433\u043e \u0437\u043d\u0430\u0447\u0435\u043d\u0438\u044f", "offer_2016": "\u0423\u043b\u0438\u0446\u044b \u0438 \u0434\u043e\u0440\u043e\u0433\u0438 \u043c\u0435\u0441\u0442\u043d\u043e\u0433\u043e \u0437\u043d\u0430\u0447\u0435\u043d\u0438\u044f"}}, {"type": "Feature", "geometry": {"type": "Polygon", "coordinates": [[[37.59790241718293, 55.75726085260013], [37.59790241718293, 55.757221951620295], [37.59796041733353, 55.75720250113037], [37.59796041733353, 55.75718481886681], [37.597992053779315, 55.75717067305597], [37.598007872002206, 55.75719012354588], [37.59798678103835, 55.75719719645131], [37.59798678103835, 55.75720250113037], [37.597965690074496, 55.75721134226216], [37.597965690074496, 55.75722371984665], [37.59793405362871, 55.75723256097843], [37.59791823540582, 55.757243170336565], [37.59791823540582, 55.75725554792106], [37.59790241718293, 55.75726085260013]]]}, "properties": {"id": 2, "bound": true, "edge_id": 4, "ID": "{5abd58c6-c551-4c1c-be3b-868cb80cca32}", "na_obj": "\u041d\u0438\u043a\u0438\u0442\u0441\u043a\u0438\u0439 \u0431\u0443\u043b\u044c\u0432\u0430\u0440", "um_code": "027050", "no_omk": "-", "ao": "\u0426\u0410\u041e", "rajon": "\u041f\u0440\u0435\u0441\u043d\u0435\u043d\u0441\u043a\u0438\u0439", "status": "\u0421\u0443\u0449\u0435\u0441\u0442\u0432\u0443\u044e\u0449\u0438\u0435", "length": 239.3, "type_uds": "\u041d\u0430\u043f\u0440\u0430\u0432\u043b\u0435\u043d\u0438\u0435 2", "rlane": "\u0414\u0430", "one_way": "\u0434\u0430", "kl_gp": "\u041c\u0430\u0433\u0438\u0441\u0442\u0440\u0430\u043b\u044c\u043d\u044b\u0435 \u0443\u043b\u0438\u0446\u044b \u043e\u0431\u0449\u0435\u0433\u043e\u0440\u043e\u0434\u0441\u043a\u043e\u0433\u043e \u0437\u043d\u0430\u0447\u0435\u043d\u0438\u044f II \u043a\u043b\u0430\u0441\u0441\u0430 \u0446\u0435\u043d\u0442\u0440\u0430", "class_active_2016": "\u041c\u0430\u0433\u0438\u0441\u0442\u0440\u0430\u043b\u044c\u043d\u044b\u0435 \u0443\u043b\u0438\u0446\u044b \u043e\u0431\u0449\u0435\u0433\u043e\u0440\u043e\u0434\u0441\u043a\u043e\u0433\u043e \u0437\u043d\u0430\u0447\u0435\u043d\u0438\u044f 3-\u0433\u043e \u043a\u043b\u0430\u0441\u0441\u0430 - \u0440\u0435\u0433\u0443\u043b\u0438\u0440\u0443\u0435\u043c\u043e\u0433\u043e \u0434\u0432\u0438\u0436\u0435\u043d\u0438\u044f", "offer_2016": "\u041c\u0430\u0433\u0438\u0441\u0442\u0440\u0430\u043b\u044c\u043d\u044b\u0435 \u0443\u043b\u0438\u0446\u044b \u043e\u0431\u0449\u0435\u0433\u043e\u0440\u043e\u0434\u0441\u043a\u043e\u0433\u043e \u0437\u043d\u0430\u0447\u0435\u043d\u0438\u044f 3-\u0433\u043e \u043a\u043b\u0430\u0441\u0441\u0430 - \u0440\u0435\u0433\u0443\u043b\u0438\u0440\u0443\u0435\u043c\u043e\u0433\u043e \u0434\u0432\u0438\u0436\u0435\u043d\u0438\u044f"}}, {"type": "Feature", "geometry": {"type": "Polygon", "coordinates": [[[37.5992627843516, 55.75728030309005], [37.59925751161064, 55.75725201146835], [37.599268057092566, 55.757239633883856], [37.59928914805642, 55.75723256097843], [37.59928914805642, 55.75721487871487], [37.59929969353835, 55.757204269356734], [37.59931023902028, 55.75720073290402], [37.59933132998413, 55.7572095740358], [37.59934714820702, 55.7572095740358], [37.59937878465281, 55.75720073290402], [37.599389330134734, 55.757213110488514], [37.59937878465281, 55.75723609743115], [37.59935242094799, 55.75725024324199], [37.599320784502204, 55.75723609743115], [37.599294420797385, 55.75724493856293], [37.59927332983353, 55.75725377969471], [37.59927332983353, 55.75727499841098], [37.5992627843516, 55.75728030309005]]]}, "properties": {"id": 3, "bound": true, "edge_id": 7, "ID": "{77dc09a4-d7ce-48c3-b67d-f7f1256d802f}", "na_obj": "\u041d\u0438\u043a\u0438\u0442\u0441\u043a\u0430\u044f \u0411\u043e\u043b\u044c\u0448\u0430\u044f \u0443\u043b\u0438\u0446\u0430", "um_code": "004730", "no_omk": "-", "ao": "\u0426\u0410\u041e", "rajon": "\u041f\u0440\u0435\u0441\u043d\u0435\u043d\u0441\u043a\u0438\u0439", "status": "\u0421\u0443\u0449\u0435\u0441\u0442\u0432\u0443\u044e\u0449\u0438\u0435", "length": 68.2, "type_uds": "\u041e\u0434\u043d\u0430 \u043f\u0440\u043e\u0435\u0437\u0436\u0430\u044f \u0447\u0430\u0441\u0442\u044c", "rlane": "\u0414\u0430", "one_way": "\u043d\u0435\u0442", "kl_gp": "\u041c\u0430\u0433\u0438\u0441\u0442\u0440\u0430\u043b\u044c\u043d\u044b\u0435 \u0443\u043b\u0438\u0446\u044b \u043e\u0431\u0449\u0435\u0433\u043e\u0440\u043e\u0434\u0441\u043a\u043e\u0433\u043e \u0437\u043d\u0430\u0447\u0435\u043d\u0438\u044f II \u043a\u043b\u0430\u0441\u0441\u0430 \u0446\u0435\u043d\u0442\u0440\u0430", "class_active_2016": "\u041c\u0430\u0433\u0438\u0441\u0442\u0440\u0430\u043b\u044c\u043d\u044b\u0435 \u0443\u043b\u0438\u0446\u044b \u0440\u0430\u0439\u043e\u043d\u043d\u043e\u0433\u043e \u0437\u043d\u0430\u0447\u0435\u043d\u0438\u044f", "offer_2016": "\u041c\u0430\u0433\u0438\u0441\u0442\u0440\u0430\u043b\u044c\u043d\u044b\u0435 \u0443\u043b\u0438\u0446\u044b \u0440\u0430\u0439\u043e\u043d\u043d\u043e\u0433\u043e \u0437\u043d\u0430\u0447\u0435\u043d\u0438\u044f"}}, {"type": "Feature", "geometry": {"type": "Polygon", "coordinates": [[[37.59847714594799, 55.75741999297219], [37.598471873207025, 55.75738639667142], [37.59842441853835, 55.757370482634215], [37.59842441853835, 55.757361641502435], [37.59839805483353, 55.757352800370654], [37.59839805483353, 55.75734926391794], [37.59841387305642, 55.757343959238874], [37.59841387305642, 55.75732627697531], [37.59842441853835, 55.757322740522596], [37.598429691279314, 55.757343959238874], [37.59845605498413, 55.757352800370654], [37.598487691429916, 55.7573510321443], [37.5985193278757, 55.75736340972879], [37.5985193278757, 55.75736871440786], [37.59849296417088, 55.75737755553964], [37.598487691429916, 55.75742176119854], [37.59847714594799, 55.75741999297219]]]}, "properties": {"id": 4, "bound": true, "edge_id": 5, "ID": "{f92bdfbf-2034-45f4-9ccf-d4b1af059d0f}", "na_obj": "\u041d\u0438\u043a\u0438\u0442\u0441\u043a\u0430\u044f \u0411\u043e\u043b\u044c\u0448\u0430\u044f \u0443\u043b\u0438\u0446\u0430", "um_code": "004730", "no_omk": "-", "ao": "\u0426\u0410\u041e", "rajon": "\u041f\u0440\u0435\u0441\u043d\u0435\u043d\u0441\u043a\u0438\u0439", "status": "\u0421\u0443\u0449\u0435\u0441\u0442\u0432\u0443\u044e\u0449\u0438\u0435", "length": 48.0, "type_uds": "\u041e\u0434\u043d\u0430 \u043f\u0440\u043e\u0435\u0437\u0436\u0430\u044f \u0447\u0430\u0441\u0442\u044c", "rlane": "\u0414\u0430", "one_way": "\u043d\u0435\u0442", "kl_gp": "\u041c\u0430\u0433\u0438\u0441\u0442\u0440\u0430\u043b\u044c\u043d\u044b\u0435 \u0443\u043b\u0438\u0446\u044b \u043e\u0431\u0449\u0435\u0433\u043e\u0440\u043e\u0434\u0441\u043a\u043e\u0433\u043e \u0437\u043d\u0430\u0447\u0435\u043d\u0438\u044f II \u043a\u043b\u0430\u0441\u0441\u0430 \u0446\u0435\u043d\u0442\u0440\u0430", "class_active_2016": "\u041c\u0430\u0433\u0438\u0441\u0442\u0440\u0430\u043b\u044c\u043d\u044b\u0435 \u0443\u043b\u0438\u0446\u044b \u0440\u0430\u0439\u043e\u043d\u043d\u043e\u0433\u043e \u0437\u043d\u0430\u0447\u0435\u043d\u0438\u044f", "offer_2016": "\u041c\u0430\u0433\u0438\u0441\u0442\u0440\u0430\u043b\u044c\u043d\u044b\u0435 \u0443\u043b\u0438\u0446\u044b \u0440\u0430\u0439\u043e\u043d\u043d\u043e\u0433\u043e \u0437\u043d\u0430\u0447\u0435\u043d\u0438\u044f"}}, {"type": "Feature", "geometry": {"type": "Polygon", "coordinates": [[[37.60023824142991, 55.7574641986311], [37.600211877725094, 55.75745535749931], [37.60019078676124, 55.757453589272956], [37.6001960595022, 55.75744828459389], [37.60022242320702, 55.75744828459389], [37.60023824142991, 55.75744297991482], [37.60023824142991, 55.7574641986311]]]}, "properties": {"id": 5, "bound": true, "edge_id": 12, "ID": "{d5067311-abb6-4149-8cc1-1ae7654e318f}", "na_obj": "\u041b\u0435\u043e\u043d\u0442\u044c\u0435\u0432\u0441\u043a\u0438\u0439 \u043f\u0435\u0440\u0435\u0443\u043b\u043e\u043a", "um_code": "026390", "no_omk": "-", "ao": "\u0426\u0410\u041e", "rajon": "\u041f\u0440\u0435\u0441\u043d\u0435\u043d\u0441\u043a\u0438\u0439", "status": "\u0421\u0443\u0449\u0435\u0441\u0442\u0432\u0443\u044e\u0449\u0438\u0435", "length": 419.3, "type_uds": "\u041e\u0434\u043d\u0430 \u043f\u0440\u043e\u0435\u0437\u0436\u0430\u044f \u0447\u0430\u0441\u0442\u044c", "rlane": "\u0414\u0430", "one_way": "\u0434\u0430", "kl_gp": "\u041f\u0440\u043e\u0447\u0430\u044f \u0443\u043b\u0438\u0447\u043d\u043e-\u0434\u043e\u0440\u043e\u0436\u043d\u0430\u044f \u0441\u0435\u0442\u044c \u041c\u043e\u0441\u043a\u0432\u044b", "class_active_2016": "\u0423\u043b\u0438\u0446\u044b \u0438 \u0434\u043e\u0440\u043e\u0433\u0438 \u043c\u0435\u0441\u0442\u043d\u043e\u0433\u043e \u0437\u043d\u0430\u0447\u0435\u043d\u0438\u044f", "offer_2016": "\u0423\u043b\u0438\u0446\u044b \u0438 \u0434\u043e\u0440\u043e\u0433\u0438 \u043c\u0435\u0441\u0442\u043d\u043e\u0433\u043e \u0437\u043d\u0430\u0447\u0435\u043d\u0438\u044f"}}, {"type": "Feature", "geometry": {"type": "Polygon", "coordinates": [[[37.59989551326726, 55.75746773508381], [37.59990078600823, 55.757444748141175], [37.5998902405263, 55.757441211688466], [37.5998902405263, 55.757435907009395], [37.599911331490155, 55.75742883410397], [37.599911331490155, 55.75739170135049], [37.59993242245401, 55.757356336823364], [37.59997460438172, 55.757343959238874], [37.59997460438172, 55.757322740522596], [37.600006240827504, 55.757313899390816], [37.60002733179136, 55.757292680674546], [37.600048422755215, 55.7572820713164], [37.600048422755215, 55.75726792550556], [37.600080059201, 55.757248475015636], [37.600080059201, 55.757243170336565], [37.600143332092564, 55.75719189177224], [37.60015387757449, 55.75717597773503], [37.600185514020275, 55.7571529907924], [37.6001960595022, 55.75713707675519], [37.60024878691184, 55.757096407549], [37.60024878691184, 55.75708756641722], [37.6002698778757, 55.757076957059084], [37.6002698778757, 55.75706281124823], [37.600296241580516, 55.7570522018901], [37.60030678706244, 55.75700445977848], [37.60037533269497, 55.75700445977848], [37.60038060543594, 55.7570239102684], [37.600364787213046, 55.75703098317382], [37.60035951447208, 55.75705397011645], [37.600348968990154, 55.75705750656917], [37.60033842350823, 55.75707872528544], [37.6003278780263, 55.757082261738155], [37.600296241580516, 55.75711585803892], [37.60022242320702, 55.75714414966062], [37.60022242320702, 55.757151222566044], [37.60024351417088, 55.757161831924186], [37.60024351417088, 55.757168904829605], [37.600227695947986, 55.757177745961386], [37.60021715046606, 55.757177745961386], [37.60019078676124, 55.75718658709317], [37.60018024127931, 55.75720250113037], [37.60014860483353, 55.757225488073004], [37.60014860483353, 55.75724670678928], [37.600116968387745, 55.75725908437377], [37.60011169564678, 55.75727499841098], [37.60009587742389, 55.75728030309005], [37.60009587742389, 55.757299753579964], [37.6001380593516, 55.75731036293811], [37.600090604682926, 55.75731920406989], [37.600080059201, 55.75731566761717], [37.60005369549618, 55.75732450874895], [37.60005369549618, 55.75733511810709], [37.60003260453232, 55.75734749569158], [37.60003260453232, 55.75736340972879], [37.60001678630943, 55.757370482634215], [37.60001151356847, 55.75738639667142], [37.60000096808654, 55.75738993312413], [37.599979877122685, 55.75741115184041], [37.599979877122685, 55.75742529765126], [37.59996933164076, 55.75742883410397], [37.59996405889979, 55.7574518210466], [37.599937695194974, 55.75746950331016], [37.59992187697208, 55.75747127153652], [37.59989551326726, 55.75746773508381]]]}, "properties": {"id": 6, "bound": true, "edge_id": 0, "ID": "{857058a0-dc24-483e-a991-0ed03693b26f}", "na_obj": "\u041d\u0438\u043a\u0438\u0442\u0441\u043a\u0430\u044f \u0411\u043e\u043b\u044c\u0448\u0430\u044f \u0443\u043b\u0438\u0446\u0430", "um_code": "004730", "no_omk": "-", "ao": "\u0426\u0410\u041e", "rajon": "\u041f\u0440\u0435\u0441\u043d\u0435\u043d\u0441\u043a\u0438\u0439", "status": "\u0421\u0443\u0449\u0435\u0441\u0442\u0432\u0443\u044e\u0449\u0438\u0435", "length": 125.2, "type_uds": "\u041e\u0434\u043d\u0430 \u043f\u0440\u043e\u0435\u0437\u0436\u0430\u044f \u0447\u0430\u0441\u0442\u044c", "rlane": "\u0414\u0430", "one_way": "\u043d\u0435\u0442", "kl_gp": "\u041c\u0430\u0433\u0438\u0441\u0442\u0440\u0430\u043b\u044c\u043d\u044b\u0435 \u0443\u043b\u0438\u0446\u044b \u043e\u0431\u0449\u0435\u0433\u043e\u0440\u043e\u0434\u0441\u043a\u043e\u0433\u043e \u0437\u043d\u0430\u0447\u0435\u043d\u0438\u044f II \u043a\u043b\u0430\u0441\u0441\u0430 \u0446\u0435\u043d\u0442\u0440\u0430", "class_active_2016": "\u041c\u0430\u0433\u0438\u0441\u0442\u0440\u0430\u043b\u044c\u043d\u044b\u0435 \u0443\u043b\u0438\u0446\u044b \u0440\u0430\u0439\u043e\u043d\u043d\u043e\u0433\u043e \u0437\u043d\u0430\u0447\u0435\u043d\u0438\u044f", "offer_2016": "\u041c\u0430\u0433\u0438\u0441\u0442\u0440\u0430\u043b\u044c\u043d\u044b\u0435 \u0443\u043b\u0438\u0446\u044b \u0440\u0430\u0439\u043e\u043d\u043d\u043e\u0433\u043e \u0437\u043d\u0430\u0447\u0435\u043d\u0438\u044f"}}, {"type": "Feature", "geometry": {"type": "Polygon", "coordinates": [[[37.60029096883955, 55.757488953800085], [37.600280423357624, 55.75748364912101], [37.60029096883955, 55.757480112668304], [37.60031733254437, 55.75747834444194], [37.600364787213046, 55.75746950331016], [37.60039642365883, 55.75746596685745], [37.6004438783275, 55.75746596685745], [37.60046496929136, 55.75746950331016], [37.6004438783275, 55.75747480798923], [37.6003858781769, 55.757480112668304], [37.60034369624919, 55.757488953800085], [37.60029096883955, 55.757488953800085]]]}, "properties": {"id": 7, "bound": true, "edge_id": 12, "ID": "{d5067311-abb6-4149-8cc1-1ae7654e318f}", "na_obj": "\u041b\u0435\u043e\u043d\u0442\u044c\u0435\u0432\u0441\u043a\u0438\u0439 \u043f\u0435\u0440\u0435\u0443\u043b\u043e\u043a", "um_code": "026390", "no_omk": "-", "ao": "\u0426\u0410\u041e", "rajon": "\u041f\u0440\u0435\u0441\u043d\u0435\u043d\u0441\u043a\u0438\u0439", "status": "\u0421\u0443\u0449\u0435\u0441\u0442\u0432\u0443\u044e\u0449\u0438\u0435", "length": 419.3, "type_uds": "\u041e\u0434\u043d\u0430 \u043f\u0440\u043e\u0435\u0437\u0436\u0430\u044f \u0447\u0430\u0441\u0442\u044c", "rlane": "\u0414\u0430", "one_way": "\u0434\u0430", "kl_gp": "\u041f\u0440\u043e\u0447\u0430\u044f \u0443\u043b\u0438\u0447\u043d\u043e-\u0434\u043e\u0440\u043e\u0436\u043d\u0430\u044f \u0441\u0435\u0442\u044c \u041c\u043e\u0441\u043a\u0432\u044b", "class_active_2016": "\u0423\u043b\u0438\u0446\u044b \u0438 \u0434\u043e\u0440\u043e\u0433\u0438 \u043c\u0435\u0441\u0442\u043d\u043e\u0433\u043e \u0437\u043d\u0430\u0447\u0435\u043d\u0438\u044f", "offer_2016": "\u0423\u043b\u0438\u0446\u044b \u0438 \u0434\u043e\u0440\u043e\u0433\u0438 \u043c\u0435\u0441\u0442\u043d\u043e\u0433\u043e \u0437\u043d\u0430\u0447\u0435\u043d\u0438\u044f"}}, {"type": "Feature", "geometry": {"type": "Polygon", "coordinates": [[[37.59887260152028, 55.757497794931865], [37.59887260152028, 55.757492490252794], [37.598840965074494, 55.75748188089466], [37.59880405588775, 55.75747480798923], [37.59880405588775, 55.757462430404736], [37.59883569233353, 55.75745535749931], [37.598856783297386, 55.75743413878304], [37.598856783297386, 55.75742176119854], [37.59888841974317, 55.75741115184041], [37.59888841974317, 55.75739700602956], [37.59887787426124, 55.757388164897776], [37.598909510707024, 55.75738109199235], [37.598909510707024, 55.757375787313286], [37.59892005618895, 55.75737225086057], [37.598909510707024, 55.757358105049725], [37.59894114715281, 55.75734749569158], [37.59893587441184, 55.75733511810709], [37.59894641989377, 55.757296217127255], [37.59896751085763, 55.7572944489009], [37.598993874562446, 55.75730329003268], [37.59903605649016, 55.757290912448184], [37.59903605649016, 55.75725377969471], [37.59906769293594, 55.75724493856293], [37.599062420194976, 55.75720073290402], [37.59909932938172, 55.7571812824141], [37.59909932938172, 55.757156527245115], [37.59912042034558, 55.757142381434264], [37.59912042034558, 55.75713530852884], [37.59909405664076, 55.75712646739706], [37.59908351115883, 55.75712823562341], [37.59908351115883, 55.75711408981257], [37.599115147604614, 55.75712293094435], [37.59917842049618, 55.75710171222807], [37.599183693237144, 55.757082261738155], [37.59917314775522, 55.75707872528544], [37.59917314775522, 55.757073420606375], [37.59919423871907, 55.75705750656917], [37.599204784201, 55.75703628785289], [37.59921532968293, 55.75703275140018], [37.59923642064678, 55.75700445977848], [37.59933132998413, 55.75700445977848], [37.59933132998413, 55.75701330091026], [37.59929969353835, 55.75701330091026], [37.59927332983353, 55.75702214204204], [37.59927332983353, 55.75703628785289], [37.59933132998413, 55.75705397011645], [37.59937878465281, 55.75704866543739], [37.599389330134734, 55.7570522018901], [37.59941569383955, 55.75704512898467], [37.599457875767264, 55.757020373815685], [37.59946314850823, 55.75700445977848], [37.599526421399794, 55.75700445977848], [37.599526421399794, 55.75701860558933], [37.59955805784558, 55.757029214947465], [37.59957387606847, 55.75704512898467], [37.599594967032324, 55.7570522018901], [37.599594967032324, 55.75706104302188], [37.59962660347811, 55.75706988415366], [37.59966878540582, 55.75705397011645], [37.599663512664854, 55.75703451962654], [37.59969514911064, 55.7570239102684], [37.59971096733353, 55.75700445977848], [37.59977951296606, 55.75700445977848], [37.599774240225095, 55.757020373815685], [37.599747876520276, 55.75703275140018], [37.59974260377931, 55.75706104302188], [37.59972678555642, 55.757068115927304], [37.59972678555642, 55.75708756641722], [37.59971096733353, 55.757094639322645], [37.59971096733353, 55.757099944001716], [37.59969514911064, 55.75710524868079], [37.59969514911064, 55.75711762626528], [37.59968460362871, 55.7571246991707], [37.599637148960035, 55.75714414966062], [37.599637148960035, 55.757177745961386], [37.599610785255216, 55.75719719645131], [37.59960551251425, 55.75717244128232], [37.59962660347811, 55.757161831924186], [37.59962660347811, 55.75714591788698], [37.59960023977329, 55.75713707675519], [37.59960023977329, 55.7571246991707], [37.59957387606847, 55.75711585803892], [37.59956333058654, 55.75711585803892], [37.599526421399794, 55.75712646739706], [37.599526421399794, 55.75714591788698], [37.599542239622686, 55.757151222566044], [37.59954751236365, 55.75715829547147], [37.59953696688172, 55.757161831924186], [37.59950533043594, 55.757161831924186], [37.59948951221305, 55.757160063697825], [37.59948951221305, 55.75714414966062], [37.59944733028534, 55.75713530852884], [37.599457875767264, 55.75713177207613], [37.59949478495401, 55.75713177207613], [37.59952114865883, 55.7571246991707], [37.59952114865883, 55.75711408981257], [37.59949478495401, 55.75710524868079], [37.59947896673112, 55.75710524868079], [37.5994526030263, 55.75709817577536], [37.599431512062445, 55.75710524868079], [37.59937878465281, 55.757099944001716], [37.59937878465281, 55.75708933464358], [37.59935242094799, 55.7570804935118], [37.59931023902028, 55.757085798190865], [37.599294420797385, 55.757085798190865], [37.59927332983353, 55.7570804935118], [37.59924696612871, 55.75708933464358], [37.59924696612871, 55.75710524868079], [37.5992627843516, 55.757112321586206], [37.59925751161064, 55.75711762626528], [37.59924696612871, 55.75711762626528], [37.59922060242389, 55.75712646739706], [37.59922060242389, 55.757142381434264], [37.59921005694196, 55.75714945433969], [37.59918896597811, 55.75715475901876], [37.59918896597811, 55.75717067305597], [37.59916260227329, 55.7571812824141], [37.59916260227329, 55.75719719645131], [37.59918896597811, 55.75720603758309], [37.59921532968293, 55.75719719645131], [37.59922060242389, 55.757225488073004], [37.59918896597811, 55.7572378656575], [37.59918896597811, 55.75726262082649], [37.599157329532325, 55.75727323018462], [37.59915205679136, 55.757299753579964], [37.59913623856847, 55.75730682648539], [37.59913623856847, 55.757322740522596], [37.599115147604614, 55.75732981342802], [37.599115147604614, 55.75734749569158], [37.59909405664076, 55.757352800370654], [37.59910460212269, 55.75739877425592], [37.599088783899795, 55.757430602330324], [37.59906769293594, 55.757430602330324], [37.59905187471305, 55.757435907009395], [37.59905187471305, 55.757441211688466], [37.599020238267265, 55.7574518210466], [37.598951692634735, 55.7574518210466], [37.598925328929916, 55.75746066217838], [37.59892005618895, 55.75747127153652], [37.59890423796606, 55.75747657621559], [37.59890423796606, 55.75749072202644], [37.598883147002205, 55.75749956315822], [37.59887260152028, 55.757497794931865]]]}, "properties": {"id": 8, "bound": true, "edge_id": 7, "ID": "{77dc09a4-d7ce-48c3-b67d-f7f1256d802f}", "na_obj": "\u041d\u0438\u043a\u0438\u0442\u0441\u043a\u0430\u044f \u0411\u043e\u043b\u044c\u0448\u0430\u044f \u0443\u043b\u0438\u0446\u0430", "um_code": "004730", "no_omk": "-", "ao": "\u0426\u0410\u041e", "rajon": "\u041f\u0440\u0435\u0441\u043d\u0435\u043d\u0441\u043a\u0438\u0439", "status": "\u0421\u0443\u0449\u0435\u0441\u0442\u0432\u0443\u044e\u0449\u0438\u0435", "length": 68.2, "type_uds": "\u041e\u0434\u043d\u0430 \u043f\u0440\u043e\u0435\u0437\u0436\u0430\u044f \u0447\u0430\u0441\u0442\u044c", "rlane": "\u0414\u0430", "one_way": "\u043d\u0435\u0442", "kl_gp": "\u041c\u0430\u0433\u0438\u0441\u0442\u0440\u0430\u043b\u044c\u043d\u044b\u0435 \u0443\u043b\u0438\u0446\u044b \u043e\u0431\u0449\u0435\u0433\u043e\u0440\u043e\u0434\u0441\u043a\u043e\u0433\u043e \u0437\u043d\u0430\u0447\u0435\u043d\u0438\u044f II \u043a\u043b\u0430\u0441\u0441\u0430 \u0446\u0435\u043d\u0442\u0440\u0430", "class_active_2016": "\u041c\u0430\u0433\u0438\u0441\u0442\u0440\u0430\u043b\u044c\u043d\u044b\u0435 \u0443\u043b\u0438\u0446\u044b \u0440\u0430\u0439\u043e\u043d\u043d\u043e\u0433\u043e \u0437\u043d\u0430\u0447\u0435\u043d\u0438\u044f", "offer_2016": "\u041c\u0430\u0433\u0438\u0441\u0442\u0440\u0430\u043b\u044c\u043d\u044b\u0435 \u0443\u043b\u0438\u0446\u044b \u0440\u0430\u0439\u043e\u043d\u043d\u043e\u0433\u043e \u0437\u043d\u0430\u0447\u0435\u043d\u0438\u044f"}}, {"type": "Feature", "geometry": {"type": "Polygon", "coordinates": [[[37.59917842049618, 55.75751194074271], [37.59916787501425, 55.757492490252794], [37.59917314775522, 55.75747657621559], [37.59915205679136, 55.75746950331016], [37.59915205679136, 55.757462430404736], [37.59914151130943, 55.75745889395203], [37.5991467840504, 55.757453589272956], [37.59916787501425, 55.757453589272956], [37.59919423871907, 55.75744651636753], [37.599199511460036, 55.75745889395203], [37.59921005694196, 55.757462430404736], [37.59921005694196, 55.75748364912101], [37.59922060242389, 55.757492490252794], [37.59918896597811, 55.757501331384574], [37.59918896597811, 55.75750840429], [37.59917842049618, 55.75751194074271]]]}, "properties": {"id": 9, "bound": true, "edge_id": 7, "ID": "{77dc09a4-d7ce-48c3-b67d-f7f1256d802f}", "na_obj": "\u041d\u0438\u043a\u0438\u0442\u0441\u043a\u0430\u044f \u0411\u043e\u043b\u044c\u0448\u0430\u044f \u0443\u043b\u0438\u0446\u0430", "um_code": "004730", "no_omk": "-", "ao": "\u0426\u0410\u041e", "rajon": "\u041f\u0440\u0435\u0441\u043d\u0435\u043d\u0441\u043a\u0438\u0439", "status": "\u0421\u0443\u0449\u0435\u0441\u0442\u0432\u0443\u044e\u0449\u0438\u0435", "length": 68.2, "type_uds": "\u041e\u0434\u043d\u0430 \u043f\u0440\u043e\u0435\u0437\u0436\u0430\u044f \u0447\u0430\u0441\u0442\u044c", "rlane": "\u0414\u0430", "one_way": "\u043d\u0435\u0442", "kl_gp": "\u041c\u0430\u0433\u0438\u0441\u0442\u0440\u0430\u043b\u044c\u043d\u044b\u0435 \u0443\u043b\u0438\u0446\u044b \u043e\u0431\u0449\u0435\u0433\u043e\u0440\u043e\u0434\u0441\u043a\u043e\u0433\u043e \u0437\u043d\u0430\u0447\u0435\u043d\u0438\u044f II \u043a\u043b\u0430\u0441\u0441\u0430 \u0446\u0435\u043d\u0442\u0440\u0430", "class_active_2016": "\u041c\u0430\u0433\u0438\u0441\u0442\u0440\u0430\u043b\u044c\u043d\u044b\u0435 \u0443\u043b\u0438\u0446\u044b \u0440\u0430\u0439\u043e\u043d\u043d\u043e\u0433\u043e \u0437\u043d\u0430\u0447\u0435\u043d\u0438\u044f", "offer_2016": "\u041c\u0430\u0433\u0438\u0441\u0442\u0440\u0430\u043b\u044c\u043d\u044b\u0435 \u0443\u043b\u0438\u0446\u044b \u0440\u0430\u0439\u043e\u043d\u043d\u043e\u0433\u043e \u0437\u043d\u0430\u0447\u0435\u043d\u0438\u044f"}}, {"type": "Feature", "geometry": {"type": "Polygon", "coordinates": [[[37.59984805859859, 55.75757029221247], [37.59984805859859, 55.75755968285433], [37.59981114941184, 55.75754730526984], [37.59981114941184, 55.75754023236441], [37.59982169489377, 55.75753315945899], [37.5998322403757, 55.75753315945899], [37.59985860408052, 55.75752431832721], [37.59985860408052, 55.75751724542178], [37.5998322403757, 55.75750840429], [37.5998322403757, 55.75750486783729], [37.599869149562444, 55.75749072202644], [37.59987969504437, 55.757488953800085], [37.59990605874919, 55.757497794931865], [37.59992187697208, 55.757497794931865], [37.599953513417866, 55.75749072202644], [37.59996933164076, 55.75749425847915], [37.59997460438172, 55.75750840429], [37.60000096808654, 55.75751724542178], [37.60002733179136, 55.75751724542178], [37.60003787727329, 55.75751370896907], [37.60010642290582, 55.75751370896907], [37.60014860483353, 55.757510172516355], [37.600185514020275, 55.7574960267055], [37.60020133224317, 55.75749425847915], [37.60023296868895, 55.75748188089466], [37.60023824142991, 55.75747303976288], [37.60025933239377, 55.75748541734737], [37.60024351417088, 55.75749072202644], [37.60024351417088, 55.75750486783729], [37.60020133224317, 55.75752255010085], [37.60020133224317, 55.75752962300628], [37.60016969579738, 55.75753846413806], [37.60012751386967, 55.75754200059077], [37.60010115016485, 55.757527854779916], [37.60006951371907, 55.75751724542178], [37.60004315001425, 55.75752431832721], [37.60003787727329, 55.75753139123263], [37.60002733179136, 55.75753139123263], [37.60000096808654, 55.75754023236441], [37.60001151356847, 55.75755614640162], [37.5999482406769, 55.7575649875334], [37.59992714971305, 55.7575649875334], [37.59990605874919, 55.757572060438825], [37.59984805859859, 55.75757029221247]]]}, "properties": {"id": 10, "bound": true, "edge_id": 12, "ID": "{d5067311-abb6-4149-8cc1-1ae7654e318f}", "na_obj": "\u041b\u0435\u043e\u043d\u0442\u044c\u0435\u0432\u0441\u043a\u0438\u0439 \u043f\u0435\u0440\u0435\u0443\u043b\u043e\u043a", "um_code": "026390", "no_omk": "-", "ao": "\u0426\u0410\u041e", "rajon": "\u041f\u0440\u0435\u0441\u043d\u0435\u043d\u0441\u043a\u0438\u0439", "status": "\u0421\u0443\u0449\u0435\u0441\u0442\u0432\u0443\u044e\u0449\u0438\u0435", "length": 419.3, "type_uds": "\u041e\u0434\u043d\u0430 \u043f\u0440\u043e\u0435\u0437\u0436\u0430\u044f \u0447\u0430\u0441\u0442\u044c", "rlane": "\u0414\u0430", "one_way": "\u0434\u0430", "kl_gp": "\u041f\u0440\u043e\u0447\u0430\u044f \u0443\u043b\u0438\u0447\u043d\u043e-\u0434\u043e\u0440\u043e\u0436\u043d\u0430\u044f \u0441\u0435\u0442\u044c \u041c\u043e\u0441\u043a\u0432\u044b", "class_active_2016": "\u0423\u043b\u0438\u0446\u044b \u0438 \u0434\u043e\u0440\u043e\u0433\u0438 \u043c\u0435\u0441\u0442\u043d\u043e\u0433\u043e \u0437\u043d\u0430\u0447\u0435\u043d\u0438\u044f", "offer_2016": "\u0423\u043b\u0438\u0446\u044b \u0438 \u0434\u043e\u0440\u043e\u0433\u0438 \u043c\u0435\u0441\u0442\u043d\u043e\u0433\u043e \u0437\u043d\u0430\u0447\u0435\u043d\u0438\u044f"}}, {"type": "Feature", "geometry": {"type": "Polygon", "coordinates": [[[37.59990078600823, 55.757708213868256], [37.599884967785336, 55.75770467741554], [37.59985333133955, 55.75769937273647], [37.59990605874919, 55.757702909189184], [37.59990078600823, 55.757708213868256]]]}, "properties": {"id": 11, "bound": true, "edge_id": 12, "ID": "{d5067311-abb6-4149-8cc1-1ae7654e318f}", "na_obj": "\u041b\u0435\u043e\u043d\u0442\u044c\u0435\u0432\u0441\u043a\u0438\u0439 \u043f\u0435\u0440\u0435\u0443\u043b\u043e\u043a", "um_code": "026390", "no_omk": "-", "ao": "\u0426\u0410\u041e", "rajon": "\u041f\u0440\u0435\u0441\u043d\u0435\u043d\u0441\u043a\u0438\u0439", "status": "\u0421\u0443\u0449\u0435\u0441\u0442\u0432\u0443\u044e\u0449\u0438\u0435", "length": 419.3, "type_uds": "\u041e\u0434\u043d\u0430 \u043f\u0440\u043e\u0435\u0437\u0436\u0430\u044f \u0447\u0430\u0441\u0442\u044c", "rlane": "\u0414\u0430", "one_way": "\u0434\u0430", "kl_gp": "\u041f\u0440\u043e\u0447\u0430\u044f \u0443\u043b\u0438\u0447\u043d\u043e-\u0434\u043e\u0440\u043e\u0436\u043d\u0430\u044f \u0441\u0435\u0442\u044c \u041c\u043e\u0441\u043a\u0432\u044b", "class_active_2016": "\u0423\u043b\u0438\u0446\u044b \u0438 \u0434\u043e\u0440\u043e\u0433\u0438 \u043c\u0435\u0441\u0442\u043d\u043e\u0433\u043e \u0437\u043d\u0430\u0447\u0435\u043d\u0438\u044f", "offer_2016": "\u0423\u043b\u0438\u0446\u044b \u0438 \u0434\u043e\u0440\u043e\u0433\u0438 \u043c\u0435\u0441\u0442\u043d\u043e\u0433\u043e \u0437\u043d\u0430\u0447\u0435\u043d\u0438\u044f"}}, {"type": "Feature", "geometry": {"type": "Polygon", "coordinates": [[[37.59866696462269, 55.75776656533801], [37.59864587365883, 55.75775418775351], [37.59865641914076, 55.7577506513008], [37.59865641914076, 55.75772589613182], [37.59864587365883, 55.757720591452745], [37.59864587365883, 55.757706445641894], [37.59866696462269, 55.75769760451011], [37.59866696462269, 55.75768699515198], [37.59864587365883, 55.75767992224655], [37.598651146399796, 55.75761096141866], [37.598624782694976, 55.757602120286876], [37.59861423721305, 55.75760388851324], [37.598556237062446, 55.757580901570606], [37.59853514609859, 55.757580901570606], [37.59849296417088, 55.75757029221247], [37.5984613277251, 55.75756852398611], [37.598429691279314, 55.757557914627974], [37.59841387305642, 55.75755614640162], [37.5983875093516, 55.7575649875334], [37.59838223661064, 55.757589742702386], [37.59835587290582, 55.757580901570606], [37.59831896371907, 55.757589742702386], [37.59829787275522, 55.75759858383417], [37.59826096356847, 55.757584438023315], [37.598266236309435, 55.75756852398611], [37.598239872604616, 55.75755968285433], [37.59820823615883, 55.75755968285433], [37.59819241793594, 55.757563219307045], [37.59817659971305, 55.75756852398611], [37.59817659971305, 55.75758620624968], [37.59818714519498, 55.75759151092874], [37.598144963267266, 55.75760388851324], [37.598144963267266, 55.7576215707768], [37.59811859956245, 55.75762510722951], [37.59805532667088, 55.757646325945785], [37.59804478118895, 55.75764278949307], [37.598018417484134, 55.757651630624856], [37.59801314474317, 55.75767638579384], [37.59800259926124, 55.75768169047291], [37.59799732652028, 55.75767461756748], [37.597965690074496, 55.7576657764357], [37.597939326369676, 55.75767461756748], [37.59793405362871, 55.75768345869926], [37.59792878088775, 55.75767284934113], [37.59790768992389, 55.75766754466206], [37.59790241718293, 55.7576215707768], [37.59792878088775, 55.757619802550444], [37.59795514459257, 55.75761096141866], [37.59795514459257, 55.757593279155095], [37.59792878088775, 55.75758266979696], [37.59792878088775, 55.757557914627974], [37.59790241718293, 55.75754907349619], [37.59790241718293, 55.757388164897776], [37.59793405362871, 55.75738993312413], [37.59795514459257, 55.75739877425592], [37.59795514459257, 55.75740584716134], [37.59798150829739, 55.757414688293125], [37.598007872002206, 55.757414688293125], [37.59805005392992, 55.75742176119854], [37.59809750859859, 55.75740407893498], [37.598102781339556, 55.75740938361405], [37.59815023600823, 55.75742176119854], [37.59821878164076, 55.757423529424905], [37.5982715090504, 55.757441211688466], [37.598266236309435, 55.7574518210466], [37.598239872604616, 55.757462430404736], [37.59824514534558, 55.75747657621559], [37.5982715090504, 55.75748541734737], [37.59828732727329, 55.75748188089466], [37.59834005468293, 55.75748364912101], [37.59831369097811, 55.75748541734737], [37.598282054532326, 55.757497794931865], [37.598282054532326, 55.757506636063646], [37.59834005468293, 55.75752255010085], [37.59838223661064, 55.757519013648135], [37.59843496402028, 55.757501331384574], [37.59843496402028, 55.75749072202644], [37.598419145797386, 55.75748541734737], [37.5983875093516, 55.75748364912101], [37.598376963869676, 55.757480112668304], [37.59840860031546, 55.75746596685745], [37.59845605498413, 55.75746596685745], [37.59845078224317, 55.75748364912101], [37.59848241868895, 55.757492490252794], [37.598487691429916, 55.757497794931865], [37.5984613277251, 55.757506636063646], [37.59845605498413, 55.75752431832721], [37.598498236911844, 55.757536695911696], [37.5985193278757, 55.75753139123263], [37.59856150980341, 55.75753139123263], [37.598582600767266, 55.75752431832721], [37.598608964472085, 55.75752431832721], [37.598635328176904, 55.75753315945899], [37.59866696462269, 55.75752431832721], [37.59867223736365, 55.75751724542178], [37.59868278284558, 55.757515477195426], [37.598719692032326, 55.75752608655356], [37.598746055737145, 55.75751724542178], [37.59875132847811, 55.757506636063646], [37.59880932862871, 55.757506636063646], [37.598840965074494, 55.75751370896907], [37.59886205603835, 55.75752255010085], [37.598830419592566, 55.75753315945899], [37.598830419592566, 55.75754023236441], [37.59886205603835, 55.75754907349619], [37.59889369248413, 55.757563219307045], [37.598993874562446, 55.757566755759754], [37.599020238267265, 55.757572060438825], [37.5990149655263, 55.757602120286876], [37.598993874562446, 55.75759504738146], [37.59896223811666, 55.75759681560781], [37.598925328929916, 55.7576091931923], [37.598925328929916, 55.75761626609773], [37.598951692634735, 55.75762510722951], [37.59899914730341, 55.75762687545587], [37.59896751085763, 55.75763394836129], [37.59891478344799, 55.75763394836129], [37.59889369248413, 55.757632180134934], [37.59887260152028, 55.75762510722951], [37.59885151055642, 55.75762510722951], [37.5988251468516, 55.75763394836129], [37.598830419592566, 55.75765339885121], [37.598814601369675, 55.75766047175664], [37.598814601369675, 55.75766754466206], [37.598830419592566, 55.75767461756748], [37.598830419592566, 55.75769229983105], [37.59886205603835, 55.75770467741554], [37.59893060167088, 55.75770467741554], [37.59897278359859, 55.75768876337833], [37.59903078374919, 55.75768699515198], [37.59904132923112, 55.75769229983105], [37.5990149655263, 55.757702909189184], [37.5990149655263, 55.75770998209461], [37.59903078374919, 55.757715286773674], [37.59903078374919, 55.75771882322639], [37.598978056339554, 55.757729432584526], [37.598925328929916, 55.757729432584526], [37.59890423796606, 55.7577223596791], [37.59888841974317, 55.7577223596791], [37.59879351040582, 55.7577506513008], [37.598788237664856, 55.757759492432584], [37.598767146701, 55.75776302888529], [37.598746055737145, 55.75776302888529], [37.59873551025522, 55.757759492432584], [37.59871441929136, 55.75776656533801], [37.59866696462269, 55.75776656533801]]]}, "properties": {"id": 12, "bound": true, "edge_id": 5, "ID": "{f92bdfbf-2034-45f4-9ccf-d4b1af059d0f}", "na_obj": "\u041d\u0438\u043a\u0438\u0442\u0441\u043a\u0430\u044f \u0411\u043e\u043b\u044c\u0448\u0430\u044f \u0443\u043b\u0438\u0446\u0430", "um_code": "004730", "no_omk": "-", "ao": "\u0426\u0410\u041e", "rajon": "\u041f\u0440\u0435\u0441\u043d\u0435\u043d\u0441\u043a\u0438\u0439", "status": "\u0421\u0443\u0449\u0435\u0441\u0442\u0432\u0443\u044e\u0449\u0438\u0435", "length": 48.0, "type_uds": "\u041e\u0434\u043d\u0430 \u043f\u0440\u043e\u0435\u0437\u0436\u0430\u044f \u0447\u0430\u0441\u0442\u044c", "rlane": "\u0414\u0430", "one_way": "\u043d\u0435\u0442", "kl_gp": "\u041c\u0430\u0433\u0438\u0441\u0442\u0440\u0430\u043b\u044c\u043d\u044b\u0435 \u0443\u043b\u0438\u0446\u044b \u043e\u0431\u0449\u0435\u0433\u043e\u0440\u043e\u0434\u0441\u043a\u043e\u0433\u043e \u0437\u043d\u0430\u0447\u0435\u043d\u0438\u044f II \u043a\u043b\u0430\u0441\u0441\u0430 \u0446\u0435\u043d\u0442\u0440\u0430", "class_active_2016": "\u041c\u0430\u0433\u0438\u0441\u0442\u0440\u0430\u043b\u044c\u043d\u044b\u0435 \u0443\u043b\u0438\u0446\u044b \u0440\u0430\u0439\u043e\u043d\u043d\u043e\u0433\u043e \u0437\u043d\u0430\u0447\u0435\u043d\u0438\u044f", "offer_2016": "\u041c\u0430\u0433\u0438\u0441\u0442\u0440\u0430\u043b\u044c\u043d\u044b\u0435 \u0443\u043b\u0438\u0446\u044b \u0440\u0430\u0439\u043e\u043d\u043d\u043e\u0433\u043e \u0437\u043d\u0430\u0447\u0435\u043d\u0438\u044f"}}, {"type": "Feature", "geometry": {"type": "Polygon", "coordinates": [[[37.59934187546606, 55.75783729439225], [37.59933132998413, 55.75782138035505], [37.59929969353835, 55.75780192986513], [37.59928387531546, 55.757782479375216], [37.59924696612871, 55.75777010179072], [37.59925751161064, 55.75776656533801], [37.5992627843516, 55.75774181016902], [37.59927332983353, 55.75774534662173], [37.59927332983353, 55.75775241952716], [37.59928914805642, 55.75775772420623], [37.59931023902028, 55.75778424760157], [37.59932605724317, 55.757791320506996], [37.59932605724317, 55.75779662518606], [37.59934714820702, 55.75781077099691], [37.59934187546606, 55.75783729439225]]]}, "properties": {"id": 13, "bound": true, "edge_id": 13, "ID": "{c30422c2-1875-4088-8053-02cad544b8ed}", "na_obj": "\u0422\u0432\u0435\u0440\u0441\u043a\u043e\u0439 \u0431\u0443\u043b\u044c\u0432\u0430\u0440", "um_code": "027730", "no_omk": "-", "ao": "\u0426\u0410\u041e", "rajon": "\u041f\u0440\u0435\u0441\u043d\u0435\u043d\u0441\u043a\u0438\u0439", "status": "\u0421\u0443\u0449\u0435\u0441\u0442\u0432\u0443\u044e\u0449\u0438\u0435", "length": 492.2, "type_uds": "\u041d\u0430\u043f\u0440\u0430\u0432\u043b\u0435\u043d\u0438\u0435 1", "rlane": "\u0414\u0430", "one_way": "\u0434\u0430", "kl_gp": "\u041c\u0430\u0433\u0438\u0441\u0442\u0440\u0430\u043b\u044c\u043d\u044b\u0435 \u0443\u043b\u0438\u0446\u044b \u043e\u0431\u0449\u0435\u0433\u043e\u0440\u043e\u0434\u0441\u043a\u043e\u0433\u043e \u0437\u043d\u0430\u0447\u0435\u043d\u0438\u044f II \u043a\u043b\u0430\u0441\u0441\u0430 \u0446\u0435\u043d\u0442\u0440\u0430", "class_active_2016": "\u041c\u0430\u0433\u0438\u0441\u0442\u0440\u0430\u043b\u044c\u043d\u044b\u0435 \u0443\u043b\u0438\u0446\u044b \u043e\u0431\u0449\u0435\u0433\u043e\u0440\u043e\u0434\u0441\u043a\u043e\u0433\u043e \u0437\u043d\u0430\u0447\u0435\u043d\u0438\u044f 3-\u0433\u043e \u043a\u043b\u0430\u0441\u0441\u0430 - \u0440\u0435\u0433\u0443\u043b\u0438\u0440\u0443\u0435\u043c\u043e\u0433\u043e \u0434\u0432\u0438\u0436\u0435\u043d\u0438\u044f", "offer_2016": "\u041c\u0430\u0433\u0438\u0441\u0442\u0440\u0430\u043b\u044c\u043d\u044b\u0435 \u0443\u043b\u0438\u0446\u044b \u043e\u0431\u0449\u0435\u0433\u043e\u0440\u043e\u0434\u0441\u043a\u043e\u0433\u043e \u0437\u043d\u0430\u0447\u0435\u043d\u0438\u044f 3-\u0433\u043e \u043a\u043b\u0430\u0441\u0441\u0430 - \u0440\u0435\u0433\u0443\u043b\u0438\u0440\u0443\u0435\u043c\u043e\u0433\u043e \u0434\u0432\u0438\u0436\u0435\u043d\u0438\u044f"}}, {"type": "Feature", "geometry": {"type": "Polygon", "coordinates": [[[37.59790241718293, 55.757846135524034], [37.59791296266486, 55.757789552280634], [37.59792878088775, 55.75779308873335], [37.597939326369676, 55.757791320506996], [37.59798150829739, 55.7577789429225], [37.59798678103835, 55.757773638243435], [37.598018417484134, 55.75777010179072], [37.59803950844799, 55.757777174696145], [37.598060599411845, 55.757773638243435], [37.59812387230341, 55.75777187001707], [37.59815023600823, 55.75776302888529], [37.59815023600823, 55.75775418775351], [37.59818714519498, 55.75774181016902], [37.59818714519498, 55.757715286773674], [37.59816078149016, 55.75770467741554], [37.59821878164076, 55.75770467741554], [37.59824514534558, 55.75769583628376], [37.59825041808654, 55.75768345869926], [37.59827678179136, 55.75767638579384], [37.598292600014254, 55.75768169047291], [37.598292600014254, 55.757694068057404], [37.59831369097811, 55.757702909189184], [37.598292600014254, 55.75770998209461], [37.598292600014254, 55.757720591452745], [37.598266236309435, 55.75773296903724], [37.598266236309435, 55.75774004194266], [37.598292600014254, 55.75774888307444], [37.598308418237146, 55.75774888307444], [37.59834005468293, 55.75774534662173], [37.59836641838775, 55.75773650548995], [37.59836641838775, 55.757729432584526], [37.598350600164856, 55.757724127905455], [37.598350600164856, 55.757720591452745], [37.59837169112871, 55.757711750320965], [37.59837169112871, 55.757702909189184], [37.59840860031546, 55.75768699515198], [37.59840860031546, 55.75767284934113], [37.59839278209257, 55.75766047175664], [37.59839278209257, 55.75764809417214], [37.59838223661064, 55.75764455771943], [37.59838223661064, 55.75763394836129], [37.598361145646784, 55.757619802550444], [37.5983875093516, 55.757602120286876], [37.598429691279314, 55.75761449787137], [37.598429691279314, 55.75763394836129], [37.598419145797386, 55.757637484814005], [37.598419145797386, 55.75768169047291], [37.598429691279314, 55.75769229983105], [37.598471873207025, 55.757708213868256], [37.59846660046606, 55.757724127905455], [37.59849296417088, 55.75773296903724], [37.598540418839555, 55.757717055000036], [37.5985773280263, 55.757729432584526], [37.59857205528534, 55.75774357839538], [37.59861950995401, 55.75775595597987], [37.598566782544374, 55.757773638243435], [37.59847714594799, 55.757780711148854], [37.598445509502206, 55.757786015827925], [37.598403327574495, 55.75778778405428], [37.59834005468293, 55.75779662518606], [37.59832423646004, 55.757803698091486], [37.59830314549618, 55.7578072345442], [37.59825041808654, 55.75780546631784], [37.59817659971305, 55.75781430744963], [37.59810805408052, 55.757812539223266], [37.598060599411845, 55.75782668503412], [37.59797096281546, 55.757833757939544], [37.59790241718293, 55.757846135524034]]]}, "properties": {"id": 14, "bound": true, "edge_id": 9, "ID": "{9eac3da1-e2e3-4bb5-8ce9-bf9bf0b3193b}", "na_obj": "\u0431/\u043d", "um_code": "-", "no_omk": "-", "ao": "\u0426\u0410\u041e", "rajon": "\u041f\u0440\u0435\u0441\u043d\u0435\u043d\u0441\u043a\u0438\u0439", "status": "\u0421\u0443\u0449\u0435\u0441\u0442\u0432\u0443\u044e\u0449\u0438\u0435", "length": 50.3, "type_uds": "\u0421\u044a\u0435\u0437\u0434", "rlane": "\u0414\u0430", "one_way": "\u0434\u0430", "kl_gp": "\u041c\u0430\u0433\u0438\u0441\u0442\u0440\u0430\u043b\u044c\u043d\u044b\u0435 \u0443\u043b\u0438\u0446\u044b \u043e\u0431\u0449\u0435\u0433\u043e\u0440\u043e\u0434\u0441\u043a\u043e\u0433\u043e \u0437\u043d\u0430\u0447\u0435\u043d\u0438\u044f II \u043a\u043b\u0430\u0441\u0441\u0430 \u0446\u0435\u043d\u0442\u0440\u0430", "class_active_2016": "-", "offer_2016": "-"}}, {"type": "Feature", "geometry": {"type": "Polygon", "coordinates": [[[37.60058624233353, 55.75788680473023], [37.60056515136967, 55.757869122466666], [37.60053351492389, 55.757856744882176], [37.60051242396003, 55.757842599071324], [37.60049133299618, 55.75781961212869], [37.60043860558654, 55.757782479375216], [37.60042806010461, 55.75776479711165], [37.600417514622684, 55.75776126065894], [37.600417514622684, 55.75775418775351], [37.60040696914076, 55.75774888307444], [37.60040696914076, 55.75774181016902], [37.600417514622684, 55.757738273716306], [37.600417514622684, 55.757711750320965], [37.60040169639979, 55.757706445641894], [37.60040696914076, 55.75769937273647], [37.600459696550395, 55.75770467741554], [37.60043860558654, 55.757711750320965], [37.60043860558654, 55.75771882322639], [37.60046496929136, 55.75773650548995], [37.60047551477329, 55.7577506513008], [37.600486060255214, 55.75775418775351], [37.600486060255214, 55.75776126065894], [37.60050715121907, 55.757768333564364], [37.60050715121907, 55.757777174696145], [37.60054406040582, 55.75780192986513], [37.600554605887744, 55.75782314858141], [37.600570424110636, 55.75782845326047], [37.600570424110636, 55.757833757939544], [37.60059151507449, 55.757839062618615], [37.600596787815455, 55.75788857295659], [37.60058624233353, 55.75788680473023]]]}, "properties": {"id": 15, "bound": true, "edge_id": 12, "ID": "{d5067311-abb6-4149-8cc1-1ae7654e318f}", "na_obj": "\u041b\u0435\u043e\u043d\u0442\u044c\u0435\u0432\u0441\u043a\u0438\u0439 \u043f\u0435\u0440\u0435\u0443\u043b\u043e\u043a", "um_code": "026390", "no_omk": "-", "ao": "\u0426\u0410\u041e", "rajon": "\u041f\u0440\u0435\u0441\u043d\u0435\u043d\u0441\u043a\u0438\u0439", "status": "\u0421\u0443\u0449\u0435\u0441\u0442\u0432\u0443\u044e\u0449\u0438\u0435", "length": 419.3, "type_uds": "\u041e\u0434\u043d\u0430 \u043f\u0440\u043e\u0435\u0437\u0436\u0430\u044f \u0447\u0430\u0441\u0442\u044c", "rlane": "\u0414\u0430", "one_way": "\u0434\u0430", "kl_gp": "\u041f\u0440\u043e\u0447\u0430\u044f \u0443\u043b\u0438\u0447\u043d\u043e-\u0434\u043e\u0440\u043e\u0436\u043d\u0430\u044f \u0441\u0435\u0442\u044c \u041c\u043e\u0441\u043a\u0432\u044b", "class_active_2016": "\u0423\u043b\u0438\u0446\u044b \u0438 \u0434\u043e\u0440\u043e\u0433\u0438 \u043c\u0435\u0441\u0442\u043d\u043e\u0433\u043e \u0437\u043d\u0430\u0447\u0435\u043d\u0438\u044f", "offer_2016": "\u0423\u043b\u0438\u0446\u044b \u0438 \u0434\u043e\u0440\u043e\u0433\u0438 \u043c\u0435\u0441\u0442\u043d\u043e\u0433\u043e \u0437\u043d\u0430\u0447\u0435\u043d\u0438\u044f"}}, {"type": "Feature", "geometry": {"type": "Polygon", "coordinates": [[[37.5995106031769, 55.75789741408837], [37.59948951221305, 55.75788680473023], [37.59948951221305, 55.757877963598446], [37.59946842124919, 55.75786735424031], [37.59946842124919, 55.757854976655814], [37.59942623932148, 55.75783022148683], [37.59942623932148, 55.75782314858141], [37.59941569383955, 55.75781961212869], [37.59941569383955, 55.7578072345442], [37.599389330134734, 55.75779662518606], [37.59938405739377, 55.757786015827925], [37.599362966429915, 55.75777187001707], [37.599362966429915, 55.75776479711165], [37.59933132998413, 55.75774534662173], [37.59933132998413, 55.757738273716306], [37.59929969353835, 55.757715286773674], [37.59929969353835, 55.757706445641894], [37.59934187546606, 55.757694068057404], [37.59937878465281, 55.757729432584526], [37.59939987561666, 55.75773650548995], [37.59939987561666, 55.75775241952716], [37.59941569383955, 55.757759492432584], [37.59941569383955, 55.75776479711165], [37.599431512062445, 55.75777010179072], [37.599431512062445, 55.75778424760157], [37.599457875767264, 55.75780192986513], [37.59948423947208, 55.75781077099691], [37.599500057694975, 55.75780900277056], [37.59951587591787, 55.75781430744963], [37.599526421399794, 55.7578355261659], [37.59954751236365, 55.757846135524034], [37.59954751236365, 55.75785320842946], [37.59955805784558, 55.75785851310853], [37.59955805784558, 55.75787089069302], [37.599568603327505, 55.75787442714574], [37.599568603327505, 55.75787973182481], [37.5995106031769, 55.75789741408837]]]}, "properties": {"id": 16, "bound": true, "edge_id": 7, "ID": "{77dc09a4-d7ce-48c3-b67d-f7f1256d802f}", "na_obj": "\u041d\u0438\u043a\u0438\u0442\u0441\u043a\u0430\u044f \u0411\u043e\u043b\u044c\u0448\u0430\u044f \u0443\u043b\u0438\u0446\u0430", "um_code": "004730", "no_omk": "-", "ao": "\u0426\u0410\u041e", "rajon": "\u041f\u0440\u0435\u0441\u043d\u0435\u043d\u0441\u043a\u0438\u0439", "status": "\u0421\u0443\u0449\u0435\u0441\u0442\u0432\u0443\u044e\u0449\u0438\u0435", "length": 68.2, "type_uds": "\u041e\u0434\u043d\u0430 \u043f\u0440\u043e\u0435\u0437\u0436\u0430\u044f \u0447\u0430\u0441\u0442\u044c", "rlane": "\u0414\u0430", "one_way": "\u043d\u0435\u0442", "kl_gp": "\u041c\u0430\u0433\u0438\u0441\u0442\u0440\u0430\u043b\u044c\u043d\u044b\u0435 \u0443\u043b\u0438\u0446\u044b \u043e\u0431\u0449\u0435\u0433\u043e\u0440\u043e\u0434\u0441\u043a\u043e\u0433\u043e \u0437\u043d\u0430\u0447\u0435\u043d\u0438\u044f II \u043a\u043b\u0430\u0441\u0441\u0430 \u0446\u0435\u043d\u0442\u0440\u0430", "class_active_2016": "\u041c\u0430\u0433\u0438\u0441\u0442\u0440\u0430\u043b\u044c\u043d\u044b\u0435 \u0443\u043b\u0438\u0446\u044b \u0440\u0430\u0439\u043e\u043d\u043d\u043e\u0433\u043e \u0437\u043d\u0430\u0447\u0435\u043d\u0438\u044f", "offer_2016": "\u041c\u0430\u0433\u0438\u0441\u0442\u0440\u0430\u043b\u044c\u043d\u044b\u0435 \u0443\u043b\u0438\u0446\u044b \u0440\u0430\u0439\u043e\u043d\u043d\u043e\u0433\u043e \u0437\u043d\u0430\u0447\u0435\u043d\u0438\u044f"}}, {"type": "Feature", "geometry": {"type": "Polygon", "coordinates": [[[37.59976369474317, 55.757908023446504], [37.59976369474317, 55.75790271876743], [37.59973733103835, 55.75789387763565], [37.59971624007449, 55.75789387763565], [37.59971096733353, 55.75787089069302], [37.59968987636967, 55.7578638177876], [37.59968987636967, 55.75785851310853], [37.59964769444196, 55.757839062618615], [37.59965823992389, 55.757839062618615], [37.5997004218516, 55.75782491680776], [37.599705694592565, 55.75779662518606], [37.59973733103835, 55.75780016163878], [37.59976369474317, 55.757791320506996], [37.59976369474317, 55.75778424760157], [37.59973733103835, 55.75777540646979], [37.59973733103835, 55.75777187001707], [37.59977951296606, 55.75776302888529], [37.59981114941184, 55.75776656533801], [37.59983751311666, 55.757759492432584], [37.59985860408052, 55.75776656533801], [37.59987969504437, 55.75776656533801], [37.59989551326726, 55.75777010179072], [37.59992714971305, 55.757759492432584], [37.59992714971305, 55.75774004194266], [37.5998902405263, 55.757729432584526], [37.599911331490155, 55.7577223596791], [37.59991660423112, 55.757715286773674], [37.59994296793594, 55.7577223596791], [37.59994296793594, 55.75774357839538], [37.59998514986365, 55.75776302888529], [37.60001678630943, 55.75777010179072], [37.60004315001425, 55.75776126065894], [37.60005369549618, 55.75774888307444], [37.60006424097811, 55.75775241952716], [37.60006424097811, 55.757759492432584], [37.600080059201, 55.75776656533801], [37.60010642290582, 55.757791320506996], [37.60005896823714, 55.75780546631784], [37.60005896823714, 55.75781430744963], [37.60008533194196, 55.75782314858141], [37.60012224112871, 55.757812539223266], [37.60014860483353, 55.75782314858141], [37.60014860483353, 55.757833757939544], [37.60016969579738, 55.75784083084497], [37.60016969579738, 55.75784436729768], [37.60014860483353, 55.757851440203105], [37.600143332092564, 55.757860281334885], [37.60012224112871, 55.75785851310853], [37.60009587742389, 55.757869122466666], [37.60005896823714, 55.75787089069302], [37.60003260453232, 55.757877963598446], [37.59999569534558, 55.757877963598446], [37.59996933164076, 55.75788680473023], [37.599979877122685, 55.757908023446504], [37.599869149562444, 55.757908023446504], [37.599869149562444, 55.757904486993795], [37.599816422152806, 55.75788326827752], [37.59979005844799, 55.75789034118294], [37.59979005844799, 55.757908023446504], [37.59976369474317, 55.757908023446504]]]}, "properties": {"id": 17, "bound": true, "edge_id": 12, "ID": "{d5067311-abb6-4149-8cc1-1ae7654e318f}", "na_obj": "\u041b\u0435\u043e\u043d\u0442\u044c\u0435\u0432\u0441\u043a\u0438\u0439 \u043f\u0435\u0440\u0435\u0443\u043b\u043e\u043a", "um_code": "026390", "no_omk": "-", "ao": "\u0426\u0410\u041e", "rajon": "\u041f\u0440\u0435\u0441\u043d\u0435\u043d\u0441\u043a\u0438\u0439", "status": "\u0421\u0443\u0449\u0435\u0441\u0442\u0432\u0443\u044e\u0449\u0438\u0435", "length": 419.3, "type_uds": "\u041e\u0434\u043d\u0430 \u043f\u0440\u043e\u0435\u0437\u0436\u0430\u044f \u0447\u0430\u0441\u0442\u044c", "rlane": "\u0414\u0430", "one_way": "\u0434\u0430", "kl_gp": "\u041f\u0440\u043e\u0447\u0430\u044f \u0443\u043b\u0438\u0447\u043d\u043e-\u0434\u043e\u0440\u043e\u0436\u043d\u0430\u044f \u0441\u0435\u0442\u044c \u041c\u043e\u0441\u043a\u0432\u044b", "class_active_2016": "\u0423\u043b\u0438\u0446\u044b \u0438 \u0434\u043e\u0440\u043e\u0433\u0438 \u043c\u0435\u0441\u0442\u043d\u043e\u0433\u043e \u0437\u043d\u0430\u0447\u0435\u043d\u0438\u044f", "offer_2016": "\u0423\u043b\u0438\u0446\u044b \u0438 \u0434\u043e\u0440\u043e\u0433\u0438 \u043c\u0435\u0441\u0442\u043d\u043e\u0433\u043e \u0437\u043d\u0430\u0447\u0435\u043d\u0438\u044f"}}]}