{"type": "FeatureCollection", "features": [{"type": "Feature", "geometry": {"type": "Polygon", "coordinates": [[[37.57464992813767, 55.75950966129681], [37.57463465211914, 55.759485556438676], [37.574542996007956, 55.759475914495425], [37.574542996007956, 55.75946627255217], [37.57460410008208, 55.75944698866566], [37.57464992813767, 55.75945180963729], [37.57475686026738, 55.75949519838193], [37.57468048017473, 55.75950001935356], [37.57464992813767, 55.75950966129681]]]}, "properties": {"id": 0, "bound": true, "edge_id": 0, "ID": "{74a8c01f-d264-402b-9673-663962b4e8ac}", "na_obj": "\u0417\u0430\u043c\u043e\u0440\u0435\u043d\u043e\u0432\u0430 \u0443\u043b\u0438\u0446\u0430", "um_code": "007640", "no_omk": "-", "ao": "\u0426\u0410\u041e", "rajon": "\u041f\u0440\u0435\u0441\u043d\u0435\u043d\u0441\u043a\u0438\u0439", "status": "\u0421\u0443\u0449\u0435\u0441\u0442\u0432\u0443\u044e\u0449\u0438\u0435", "length": 271.7, "type_uds": "\u041e\u0434\u043d\u0430 \u043f\u0440\u043e\u0435\u0437\u0436\u0430\u044f \u0447\u0430\u0441\u0442\u044c", "rlane": "\u0414\u0430", "one_way": "\u043d\u0435\u0442", "kl_gp": "\u041f\u0440\u043e\u0447\u0430\u044f \u0443\u043b\u0438\u0447\u043d\u043e-\u0434\u043e\u0440\u043e\u0436\u043d\u0430\u044f \u0441\u0435\u0442\u044c \u041c\u043e\u0441\u043a\u0432\u044b", "class_active_2016": "\u041c\u0430\u0433\u0438\u0441\u0442\u0440\u0430\u043b\u044c\u043d\u044b\u0435 \u0443\u043b\u0438\u0446\u044b \u0440\u0430\u0439\u043e\u043d\u043d\u043e\u0433\u043e \u0437\u043d\u0430\u0447\u0435\u043d\u0438\u044f", "offer_2016": "\u0423\u043b\u0438\u0446\u044b \u0438 \u0434\u043e\u0440\u043e\u0433\u0438 \u043c\u0435\u0441\u0442\u043d\u043e\u0433\u043e \u0437\u043d\u0430\u0447\u0435\u043d\u0438\u044f"}}, {"type": "Feature", "geometry": {"type": "Polygon", "coordinates": [[[37.57365698693321, 55.75973142599165], [37.57365698693321, 55.75971696307677], [37.5737028149888, 55.75970732113352], [37.57367226295174, 55.759673574332126], [37.57364171091468, 55.759663932388875], [37.57359588285909, 55.75967839530375], [37.57358060684056, 55.759663932388875], [37.57350422674791, 55.759644648502366], [37.57356533082203, 55.75962536461586], [37.57361115887762, 55.75963018558748], [37.57367226295174, 55.75960608072935], [37.57379447109998, 55.759610901700974], [37.57377919508145, 55.75963982753074], [37.57374864304439, 55.75964946947399], [37.57374864304439, 55.7596687533605], [37.57377919508145, 55.75967839530375], [37.57393195526675, 55.75963982753074], [37.57396250730381, 55.75963982753074], [37.57414581952617, 55.75958679684284], [37.57419164758176, 55.75958679684284], [37.574268027674414, 55.759553050041454], [37.574313855730004, 55.75955787101308], [37.574359683785595, 55.75953858712657], [37.574359683785595, 55.759514482268436], [37.574436063878245, 55.75951930324006], [37.574512443970896, 55.75954822906983], [37.574527719989426, 55.75963982753074], [37.574451339896775, 55.7596687533605], [37.574420787859715, 55.759673574332126], [37.574374959804125, 55.75965911141724], [37.574374959804125, 55.75963982753074], [37.574344407767065, 55.75962536461586], [37.574298579711474, 55.759610901700974], [37.574268027674414, 55.759610901700974], [37.57379447109998, 55.759721784048395], [37.57365698693321, 55.75973142599165]]]}, "properties": {"id": 1, "bound": true, "edge_id": 0, "ID": "{74a8c01f-d264-402b-9673-663962b4e8ac}", "na_obj": "\u0417\u0430\u043c\u043e\u0440\u0435\u043d\u043e\u0432\u0430 \u0443\u043b\u0438\u0446\u0430", "um_code": "007640", "no_omk": "-", "ao": "\u0426\u0410\u041e", "rajon": "\u041f\u0440\u0435\u0441\u043d\u0435\u043d\u0441\u043a\u0438\u0439", "status": "\u0421\u0443\u0449\u0435\u0441\u0442\u0432\u0443\u044e\u0449\u0438\u0435", "length": 271.7, "type_uds": "\u041e\u0434\u043d\u0430 \u043f\u0440\u043e\u0435\u0437\u0436\u0430\u044f \u0447\u0430\u0441\u0442\u044c", "rlane": "\u0414\u0430", "one_way": "\u043d\u0435\u0442", "kl_gp": "\u041f\u0440\u043e\u0447\u0430\u044f \u0443\u043b\u0438\u0447\u043d\u043e-\u0434\u043e\u0440\u043e\u0436\u043d\u0430\u044f \u0441\u0435\u0442\u044c \u041c\u043e\u0441\u043a\u0432\u044b", "class_active_2016": "\u041c\u0430\u0433\u0438\u0441\u0442\u0440\u0430\u043b\u044c\u043d\u044b\u0435 \u0443\u043b\u0438\u0446\u044b \u0440\u0430\u0439\u043e\u043d\u043d\u043e\u0433\u043e \u0437\u043d\u0430\u0447\u0435\u043d\u0438\u044f", "offer_2016": "\u0423\u043b\u0438\u0446\u044b \u0438 \u0434\u043e\u0440\u043e\u0433\u0438 \u043c\u0435\u0441\u0442\u043d\u043e\u0433\u043e \u0437\u043d\u0430\u0447\u0435\u043d\u0438\u044f"}}, {"type": "Feature", "geometry": {"type": "Polygon", "coordinates": [[[37.58048536721618, 55.75992426485673], [37.58043953916059, 55.759909801941845], [37.58043953916059, 55.75989533902697], [37.58048536721618, 55.759880876112085], [37.58050064323471, 55.75985677125395], [37.58053119527177, 55.7598471293107], [37.58062285138295, 55.75984230833907], [37.58066867943854, 55.75982784542419], [37.58066867943854, 55.75980856153768], [37.58062285138295, 55.7597940986228], [37.58053119527177, 55.75979891959443], [37.58056174730883, 55.75978927765117], [37.58056174730883, 55.759769993764664], [37.58060757536442, 55.75975553084979], [37.58065340342001, 55.759663932388875], [37.5806992314756, 55.75969767919026], [37.58076033554972, 55.75971696307677], [37.58079088758678, 55.75969767919026], [37.58068395545707, 55.75963018558748], [37.58063812740148, 55.75962054364423], [37.58053119527177, 55.759644648502366], [37.58043953916059, 55.75965429044562], [37.580302054993815, 55.75963018558748], [37.580317331012346, 55.759615722672606], [37.580378435086466, 55.75960608072935], [37.580378435086466, 55.75959161781447], [37.580408987123526, 55.759581975871214], [37.580393711104996, 55.759562691984705], [37.58043953916059, 55.75954822906983], [37.58043953916059, 55.75952894518332], [37.580408987123526, 55.75951930324006], [37.580378435086466, 55.759524124211694], [37.580332607030876, 55.75950966129681], [37.580286778975285, 55.75950966129681], [37.580332607030876, 55.75949519838193], [37.580332607030876, 55.759475914495425], [37.580286778975285, 55.75946145158054], [37.580271502956755, 55.75943734672241], [37.580210398882635, 55.759422883807524], [37.580164570827044, 55.75943734672241], [37.580103466752924, 55.75939877894939], [37.580149294808514, 55.759403599921015], [37.580179846845574, 55.7594180628359], [37.580210398882635, 55.75939877894939], [37.580363159067936, 55.75939877894939], [37.580363159067936, 55.75940842089265], [37.580408987123526, 55.7594180628359], [37.58047009119765, 55.75939877894939], [37.58072978351266, 55.75939877894939], [37.58060757536442, 55.75941324186427], [37.58056174730883, 55.75944216769403], [37.58068395545707, 55.759543408098196], [37.58079088758678, 55.75956751295634], [37.58082143962384, 55.75960125975772], [37.58086726767943, 55.759615722672606], [37.58086726767943, 55.7596687533605], [37.58080616360531, 55.759683216275384], [37.58080616360531, 55.759692858218635], [37.58091309573502, 55.759712142105144], [37.58095892379061, 55.75973142599165], [37.58102002786473, 55.75972660502002], [37.58105057990179, 55.75971696307677], [37.58105057990179, 55.759702500161886], [37.5810047518462, 55.759663932388875], [37.58098947582767, 55.75960125975772], [37.58094364777208, 55.75954822906983], [37.58091309573502, 55.75953858712657], [37.58091309573502, 55.759514482268436], [37.58098947582767, 55.759485556438676], [37.58108113193885, 55.759485556438676], [37.58111168397591, 55.759475914495425], [37.58111168397591, 55.7594180628359], [37.5811575120315, 55.75939877894939], [37.581294996198274, 55.75939877894939], [37.581294996198274, 55.75990498097022], [37.58124916814268, 55.75991462291348], [37.58112695999444, 55.759880876112085], [37.5810047518462, 55.759880876112085], [37.58095892379061, 55.75989533902697], [37.58092837175355, 55.75989533902697], [37.5808519916609, 55.75987605514046], [37.58095892379061, 55.7598471293107], [37.58094364777208, 55.75981338250931], [37.58097419980914, 55.75979891959443], [37.58094364777208, 55.75978927765117], [37.58086726767943, 55.75978927765117], [37.58083671564237, 55.75979891959443], [37.58080616360531, 55.7597940986228], [37.58076033554972, 55.75980856153768], [37.58072978351266, 55.759861592225576], [37.5806992314756, 55.75985677125395], [37.58065340342001, 55.7598664131972], [37.58059229934589, 55.75989533902697], [37.5805464712903, 55.759900159998594], [37.58048536721618, 55.75992426485673]]]}, "properties": {"id": 2, "bound": true, "edge_id": 2, "ID": "{cf477ab7-d067-459f-a1da-815569bac2c7}", "na_obj": "\u0411\u0430\u0440\u0440\u0438\u043a\u0430\u0434\u043d\u0430\u044f \u0443\u043b\u0438\u0446\u0430", "um_code": "001270", "no_omk": "-", "ao": "\u0426\u0410\u041e", "rajon": "\u041f\u0440\u0435\u0441\u043d\u0435\u043d\u0441\u043a\u0438\u0439", "status": "\u0421\u0443\u0449\u0435\u0441\u0442\u0432\u0443\u044e\u0449\u0438\u0435", "length": 254.1, "type_uds": "\u041e\u0434\u043d\u0430 \u043f\u0440\u043e\u0435\u0437\u0436\u0430\u044f \u0447\u0430\u0441\u0442\u044c", "rlane": "\u0414\u0430", "one_way": "\u043d\u0435\u0442", "kl_gp": "\u041c\u0430\u0433\u0438\u0441\u0442\u0440\u0430\u043b\u044c\u043d\u044b\u0435 \u0443\u043b\u0438\u0446\u044b \u043e\u0431\u0449\u0435\u0433\u043e\u0440\u043e\u0434\u0441\u043a\u043e\u0433\u043e \u0437\u043d\u0430\u0447\u0435\u043d\u0438\u044f I \u043a\u043b\u0430\u0441\u0441\u0430 \u0446\u0435\u043d\u0442\u0440\u0430", "class_active_2016": "\u041c\u0430\u0433\u0438\u0441\u0442\u0440\u0430\u043b\u044c\u043d\u044b\u0435 \u0443\u043b\u0438\u0446\u044b \u043e\u0431\u0449\u0435\u0433\u043e\u0440\u043e\u0434\u0441\u043a\u043e\u0433\u043e \u0437\u043d\u0430\u0447\u0435\u043d\u0438\u044f 2-\u0433\u043e \u043a\u043b\u0430\u0441\u0441\u0430 - \u0440\u0435\u0433\u0443\u043b\u0438\u0440\u0443\u0435\u043c\u043e\u0433\u043e \u0434\u0432\u0438\u0436\u0435\u043d\u0438\u044f", "offer_2016": "\u041c\u0430\u0433\u0438\u0441\u0442\u0440\u0430\u043b\u044c\u043d\u044b\u0435 \u0443\u043b\u0438\u0446\u044b \u043e\u0431\u0449\u0435\u0433\u043e\u0440\u043e\u0434\u0441\u043a\u043e\u0433\u043e \u0437\u043d\u0430\u0447\u0435\u043d\u0438\u044f 1-\u0433\u043e \u043a\u043b\u0430\u0441\u0441\u0430 - \u043d\u0435\u043f\u0440\u0435\u0440\u044b\u0432\u043d\u043e\u0433\u043e \u0434\u0432\u0438\u0436\u0435\u043d\u0438\u044f"}}, {"type": "Feature", "geometry": {"type": "Polygon", "coordinates": [[[37.57941604591907, 55.7607775768347], [37.57940076990054, 55.76076793489145], [37.57959935814143, 55.76071972517517], [37.57955353008584, 55.76070044128867], [37.57938549388201, 55.76072936711843], [37.57930911378936, 55.760676336430535], [37.57932438980789, 55.76066187351565], [37.5794313219376, 55.760657052544026], [37.57947714999319, 55.76064258962914], [37.57950770203025, 55.76064741060077], [37.57956880610437, 55.760628126714266], [37.57964518619702, 55.760628126714266], [37.57982849841938, 55.76057991699799], [37.5798896024935, 55.76058955894125], [37.57992015453056, 55.76057991699799], [37.5798896024935, 55.76056063311149], [37.57990487851203, 55.760536528253354], [37.57996598258615, 55.760555812139856], [37.57999653462321, 55.76057991699799], [37.57995070656762, 55.7605992008845], [37.57982849841938, 55.7605992008845], [37.57981322240085, 55.760623305742634], [37.57987432647497, 55.76064258962914], [37.57981322240085, 55.76066187351565], [37.57990487851203, 55.76068115740216], [37.5798896024935, 55.76069562031704], [37.57978267036379, 55.76069562031704], [37.57979794638232, 55.760676336430535], [37.5797368423082, 55.76066669448728], [37.57961463415996, 55.76069562031704], [37.57961463415996, 55.76071008323192], [37.57964518619702, 55.76071972517517], [37.57972156628967, 55.760705262260295], [37.5797368423082, 55.76071972517517], [37.57964518619702, 55.76073900906168], [37.57961463415996, 55.76072936711843], [37.57952297804878, 55.76075829294819], [37.57946187397466, 55.760763113919815], [37.57941604591907, 55.7607775768347]]]}, "properties": {"id": 3, "bound": true, "edge_id": 6, "ID": "{9594ea3e-d782-4abe-9e5c-62496eb1b48c}", "na_obj": "\u0411\u0430\u0440\u0440\u0438\u043a\u0430\u0434\u043d\u0430\u044f \u0443\u043b\u0438\u0446\u0430", "um_code": "001270", "no_omk": "-", "ao": "\u0426\u0410\u041e", "rajon": "\u041f\u0440\u0435\u0441\u043d\u0435\u043d\u0441\u043a\u0438\u0439", "status": "\u0421\u0443\u0449\u0435\u0441\u0442\u0432\u0443\u044e\u0449\u0438\u0435", "length": 104.4, "type_uds": "\u041e\u0434\u043d\u0430 \u043f\u0440\u043e\u0435\u0437\u0436\u0430\u044f \u0447\u0430\u0441\u0442\u044c", "rlane": "\u0414\u0430", "one_way": "\u043d\u0435\u0442", "kl_gp": "\u041c\u0430\u0433\u0438\u0441\u0442\u0440\u0430\u043b\u044c\u043d\u044b\u0435 \u0443\u043b\u0438\u0446\u044b \u043e\u0431\u0449\u0435\u0433\u043e\u0440\u043e\u0434\u0441\u043a\u043e\u0433\u043e \u0437\u043d\u0430\u0447\u0435\u043d\u0438\u044f I \u043a\u043b\u0430\u0441\u0441\u0430 \u0446\u0435\u043d\u0442\u0440\u0430", "class_active_2016": "\u041c\u0430\u0433\u0438\u0441\u0442\u0440\u0430\u043b\u044c\u043d\u044b\u0435 \u0443\u043b\u0438\u0446\u044b \u043e\u0431\u0449\u0435\u0433\u043e\u0440\u043e\u0434\u0441\u043a\u043e\u0433\u043e \u0437\u043d\u0430\u0447\u0435\u043d\u0438\u044f 2-\u0433\u043e \u043a\u043b\u0430\u0441\u0441\u0430 - \u0440\u0435\u0433\u0443\u043b\u0438\u0440\u0443\u0435\u043c\u043e\u0433\u043e \u0434\u0432\u0438\u0436\u0435\u043d\u0438\u044f", "offer_2016": "\u041c\u0430\u0433\u0438\u0441\u0442\u0440\u0430\u043b\u044c\u043d\u044b\u0435 \u0443\u043b\u0438\u0446\u044b \u043e\u0431\u0449\u0435\u0433\u043e\u0440\u043e\u0434\u0441\u043a\u043e\u0433\u043e \u0437\u043d\u0430\u0447\u0435\u043d\u0438\u044f 1-\u0433\u043e \u043a\u043b\u0430\u0441\u0441\u0430 - \u043d\u0435\u043f\u0440\u0435\u0440\u044b\u0432\u043d\u043e\u0433\u043e \u0434\u0432\u0438\u0436\u0435\u043d\u0438\u044f"}}, {"type": "Feature", "geometry": {"type": "Polygon", "coordinates": [[[37.577964824158705, 55.761399482174575], [37.577934272121645, 55.761389840231324], [37.577934272121645, 55.76136573537318], [37.577903720084585, 55.761351272458306], [37.577918996103115, 55.761322346628546], [37.577873168047525, 55.76130306274204], [37.57753709563986, 55.76132716760017], [37.57747599156574, 55.761317525656914], [37.57743016351015, 55.7613319885718], [37.57743016351015, 55.76129824177041], [37.57753709563986, 55.76130306274204], [37.57762875175104, 55.76126449496902], [37.57767457980663, 55.76126449496902], [37.57770513184369, 55.76127413691228], [37.57773568388075, 55.761269315940645], [37.577796787954874, 55.76128377885553], [37.577873168047525, 55.761250032054136], [37.577842616010464, 55.761240390110885], [37.577857892028995, 55.761225927196], [37.577934272121645, 55.761225927196], [37.578041204251356, 55.76126449496902], [37.578010652214296, 55.7613319885718], [37.577980100177236, 55.76134645148668], [37.577995376195766, 55.76139466120295], [37.577964824158705, 55.761399482174575]]]}, "properties": {"id": 4, "bound": true, "edge_id": 10, "ID": "{a37a5390-bcb1-4780-b04e-2d8cc9793990}", "na_obj": "\u041a\u0440\u0430\u0441\u043d\u0430\u044f \u041f\u0440\u0435\u0441\u043d\u044f \u0443\u043b\u0438\u0446\u0430", "um_code": "011570", "no_omk": "-", "ao": "\u0426\u0410\u041e", "rajon": "\u041f\u0440\u0435\u0441\u043d\u0435\u043d\u0441\u043a\u0438\u0439", "status": "\u0421\u0443\u0449\u0435\u0441\u0442\u0432\u0443\u044e\u0449\u0438\u0435", "length": 116.0, "type_uds": "\u041e\u0434\u043d\u0430 \u043f\u0440\u043e\u0435\u0437\u0436\u0430\u044f \u0447\u0430\u0441\u0442\u044c", "rlane": "\u0414\u0430", "one_way": "\u043d\u0435\u0442", "kl_gp": "\u041c\u0430\u0433\u0438\u0441\u0442\u0440\u0430\u043b\u044c\u043d\u044b\u0435 \u0443\u043b\u0438\u0446\u044b \u043e\u0431\u0449\u0435\u0433\u043e\u0440\u043e\u0434\u0441\u043a\u043e\u0433\u043e \u0437\u043d\u0430\u0447\u0435\u043d\u0438\u044f I \u043a\u043b\u0430\u0441\u0441\u0430 \u0446\u0435\u043d\u0442\u0440\u0430", "class_active_2016": "\u041c\u0430\u0433\u0438\u0441\u0442\u0440\u0430\u043b\u044c\u043d\u044b\u0435 \u0443\u043b\u0438\u0446\u044b \u043e\u0431\u0449\u0435\u0433\u043e\u0440\u043e\u0434\u0441\u043a\u043e\u0433\u043e \u0437\u043d\u0430\u0447\u0435\u043d\u0438\u044f 2-\u0433\u043e \u043a\u043b\u0430\u0441\u0441\u0430 - \u0440\u0435\u0433\u0443\u043b\u0438\u0440\u0443\u0435\u043c\u043e\u0433\u043e \u0434\u0432\u0438\u0436\u0435\u043d\u0438\u044f", "offer_2016": "\u041c\u0430\u0433\u0438\u0441\u0442\u0440\u0430\u043b\u044c\u043d\u044b\u0435 \u0443\u043b\u0438\u0446\u044b \u043e\u0431\u0449\u0435\u0433\u043e\u0440\u043e\u0434\u0441\u043a\u043e\u0433\u043e \u0437\u043d\u0430\u0447\u0435\u043d\u0438\u044f 1-\u0433\u043e \u043a\u043b\u0430\u0441\u0441\u0430 - \u043d\u0435\u043f\u0440\u0435\u0440\u044b\u0432\u043d\u043e\u0433\u043e \u0434\u0432\u0438\u0436\u0435\u043d\u0438\u044f"}}, {"type": "Feature", "geometry": {"type": "Polygon", "coordinates": [[[37.576589982490994, 55.76147179674898], [37.57655943045393, 55.76145251286247], [37.576605258509524, 55.76141394508946], [37.576681638602174, 55.76139466120295], [37.576742742676295, 55.76136573537318], [37.576803846750416, 55.76136573537318], [37.576834398787476, 55.76139466120295], [37.576773294713355, 55.76139466120295], [37.576742742676295, 55.7614043031462], [37.576727466657765, 55.76143322897596], [37.576589982490994, 55.76147179674898]]]}, "properties": {"id": 5, "bound": true, "edge_id": 10, "ID": "{a37a5390-bcb1-4780-b04e-2d8cc9793990}", "na_obj": "\u041a\u0440\u0430\u0441\u043d\u0430\u044f \u041f\u0440\u0435\u0441\u043d\u044f \u0443\u043b\u0438\u0446\u0430", "um_code": "011570", "no_omk": "-", "ao": "\u0426\u0410\u041e", "rajon": "\u041f\u0440\u0435\u0441\u043d\u0435\u043d\u0441\u043a\u0438\u0439", "status": "\u0421\u0443\u0449\u0435\u0441\u0442\u0432\u0443\u044e\u0449\u0438\u0435", "length": 116.0, "type_uds": "\u041e\u0434\u043d\u0430 \u043f\u0440\u043e\u0435\u0437\u0436\u0430\u044f \u0447\u0430\u0441\u0442\u044c", "rlane": "\u0414\u0430", "one_way": "\u043d\u0435\u0442", "kl_gp": "\u041c\u0430\u0433\u0438\u0441\u0442\u0440\u0430\u043b\u044c\u043d\u044b\u0435 \u0443\u043b\u0438\u0446\u044b \u043e\u0431\u0449\u0435\u0433\u043e\u0440\u043e\u0434\u0441\u043a\u043e\u0433\u043e \u0437\u043d\u0430\u0447\u0435\u043d\u0438\u044f I \u043a\u043b\u0430\u0441\u0441\u0430 \u0446\u0435\u043d\u0442\u0440\u0430", "class_active_2016": "\u041c\u0430\u0433\u0438\u0441\u0442\u0440\u0430\u043b\u044c\u043d\u044b\u0435 \u0443\u043b\u0438\u0446\u044b \u043e\u0431\u0449\u0435\u0433\u043e\u0440\u043e\u0434\u0441\u043a\u043e\u0433\u043e \u0437\u043d\u0430\u0447\u0435\u043d\u0438\u044f 2-\u0433\u043e \u043a\u043b\u0430\u0441\u0441\u0430 - \u0440\u0435\u0433\u0443\u043b\u0438\u0440\u0443\u0435\u043c\u043e\u0433\u043e \u0434\u0432\u0438\u0436\u0435\u043d\u0438\u044f", "offer_2016": "\u041c\u0430\u0433\u0438\u0441\u0442\u0440\u0430\u043b\u044c\u043d\u044b\u0435 \u0443\u043b\u0438\u0446\u044b \u043e\u0431\u0449\u0435\u0433\u043e\u0440\u043e\u0434\u0441\u043a\u043e\u0433\u043e \u0437\u043d\u0430\u0447\u0435\u043d\u0438\u044f 1-\u0433\u043e \u043a\u043b\u0430\u0441\u0441\u0430 - \u043d\u0435\u043f\u0440\u0435\u0440\u044b\u0432\u043d\u043e\u0433\u043e \u0434\u0432\u0438\u0436\u0435\u043d\u0438\u044f"}}, {"type": "Feature", "geometry": {"type": "Polygon", "coordinates": [[[37.5783161725849, 55.76148143869223], [37.57833144860343, 55.761457333834095], [37.57827034452931, 55.76143804994759], [37.57817868841813, 55.761428408004335], [37.57810230832548, 55.761447691890844], [37.57813286036254, 55.76143322897596], [37.57813286036254, 55.76139466120295], [37.57808703230695, 55.761380198288066], [37.57817868841813, 55.761351272458306], [37.57837727665902, 55.76142358703271], [37.57836200064049, 55.761447691890844], [37.57840782869608, 55.76146697577735], [37.57834672462196, 55.76148625966386], [37.5783161725849, 55.76148143869223]]]}, "properties": {"id": 6, "bound": true, "edge_id": 8, "ID": "{cd7e5096-b96a-441b-88c0-33494b15d526}", "na_obj": "\u041a\u0440\u0430\u0441\u043d\u0430\u044f \u041f\u0440\u0435\u0441\u043d\u044f \u0443\u043b\u0438\u0446\u0430", "um_code": "011570", "no_omk": "-", "ao": "\u0426\u0410\u041e", "rajon": "\u041f\u0440\u0435\u0441\u043d\u0435\u043d\u0441\u043a\u0438\u0439", "status": "\u0421\u0443\u0449\u0435\u0441\u0442\u0432\u0443\u044e\u0449\u0438\u0435", "length": 50.8, "type_uds": "\u041e\u0434\u043d\u0430 \u043f\u0440\u043e\u0435\u0437\u0436\u0430\u044f \u0447\u0430\u0441\u0442\u044c", "rlane": "\u0414\u0430", "one_way": "\u043d\u0435\u0442", "kl_gp": "\u041c\u0430\u0433\u0438\u0441\u0442\u0440\u0430\u043b\u044c\u043d\u044b\u0435 \u0443\u043b\u0438\u0446\u044b \u043e\u0431\u0449\u0435\u0433\u043e\u0440\u043e\u0434\u0441\u043a\u043e\u0433\u043e \u0437\u043d\u0430\u0447\u0435\u043d\u0438\u044f I \u043a\u043b\u0430\u0441\u0441\u0430 \u0446\u0435\u043d\u0442\u0440\u0430", "class_active_2016": "\u041c\u0430\u0433\u0438\u0441\u0442\u0440\u0430\u043b\u044c\u043d\u044b\u0435 \u0443\u043b\u0438\u0446\u044b \u043e\u0431\u0449\u0435\u0433\u043e\u0440\u043e\u0434\u0441\u043a\u043e\u0433\u043e \u0437\u043d\u0430\u0447\u0435\u043d\u0438\u044f 2-\u0433\u043e \u043a\u043b\u0430\u0441\u0441\u0430 - \u0440\u0435\u0433\u0443\u043b\u0438\u0440\u0443\u0435\u043c\u043e\u0433\u043e \u0434\u0432\u0438\u0436\u0435\u043d\u0438\u044f", "offer_2016": "\u041c\u0430\u0433\u0438\u0441\u0442\u0440\u0430\u043b\u044c\u043d\u044b\u0435 \u0443\u043b\u0438\u0446\u044b \u043e\u0431\u0449\u0435\u0433\u043e\u0440\u043e\u0434\u0441\u043a\u043e\u0433\u043e \u0437\u043d\u0430\u0447\u0435\u043d\u0438\u044f 1-\u0433\u043e \u043a\u043b\u0430\u0441\u0441\u0430 - \u043d\u0435\u043f\u0440\u0435\u0440\u044b\u0432\u043d\u043e\u0433\u043e \u0434\u0432\u0438\u0436\u0435\u043d\u0438\u044f"}}, {"type": "Feature", "geometry": {"type": "Polygon", "coordinates": [[[37.57764402776957, 55.76168874047219], [37.57756764767692, 55.76165017269918], [37.5776593037881, 55.76165017269918], [37.577812063973404, 55.761635709784294], [37.577812063973404, 55.76166463561405], [37.57773568388075, 55.76167427755731], [37.57768985582516, 55.76165981464243], [37.57764402776957, 55.76168874047219]]]}, "properties": {"id": 7, "bound": true, "edge_id": 10, "ID": "{a37a5390-bcb1-4780-b04e-2d8cc9793990}", "na_obj": "\u041a\u0440\u0430\u0441\u043d\u0430\u044f \u041f\u0440\u0435\u0441\u043d\u044f \u0443\u043b\u0438\u0446\u0430", "um_code": "011570", "no_omk": "-", "ao": "\u0426\u0410\u041e", "rajon": "\u041f\u0440\u0435\u0441\u043d\u0435\u043d\u0441\u043a\u0438\u0439", "status": "\u0421\u0443\u0449\u0435\u0441\u0442\u0432\u0443\u044e\u0449\u0438\u0435", "length": 116.0, "type_uds": "\u041e\u0434\u043d\u0430 \u043f\u0440\u043e\u0435\u0437\u0436\u0430\u044f \u0447\u0430\u0441\u0442\u044c", "rlane": "\u0414\u0430", "one_way": "\u043d\u0435\u0442", "kl_gp": "\u041c\u0430\u0433\u0438\u0441\u0442\u0440\u0430\u043b\u044c\u043d\u044b\u0435 \u0443\u043b\u0438\u0446\u044b \u043e\u0431\u0449\u0435\u0433\u043e\u0440\u043e\u0434\u0441\u043a\u043e\u0433\u043e \u0437\u043d\u0430\u0447\u0435\u043d\u0438\u044f I \u043a\u043b\u0430\u0441\u0441\u0430 \u0446\u0435\u043d\u0442\u0440\u0430", "class_active_2016": "\u041c\u0430\u0433\u0438\u0441\u0442\u0440\u0430\u043b\u044c\u043d\u044b\u0435 \u0443\u043b\u0438\u0446\u044b \u043e\u0431\u0449\u0435\u0433\u043e\u0440\u043e\u0434\u0441\u043a\u043e\u0433\u043e \u0437\u043d\u0430\u0447\u0435\u043d\u0438\u044f 2-\u0433\u043e \u043a\u043b\u0430\u0441\u0441\u0430 - \u0440\u0435\u0433\u0443\u043b\u0438\u0440\u0443\u0435\u043c\u043e\u0433\u043e \u0434\u0432\u0438\u0436\u0435\u043d\u0438\u044f", "offer_2016": "\u041c\u0430\u0433\u0438\u0441\u0442\u0440\u0430\u043b\u044c\u043d\u044b\u0435 \u0443\u043b\u0438\u0446\u044b \u043e\u0431\u0449\u0435\u0433\u043e\u0440\u043e\u0434\u0441\u043a\u043e\u0433\u043e \u0437\u043d\u0430\u0447\u0435\u043d\u0438\u044f 1-\u0433\u043e \u043a\u043b\u0430\u0441\u0441\u0430 - \u043d\u0435\u043f\u0440\u0435\u0440\u044b\u0432\u043d\u043e\u0433\u043e \u0434\u0432\u0438\u0436\u0435\u043d\u0438\u044f"}}, {"type": "Feature", "geometry": {"type": "Polygon", "coordinates": [[[37.57610114989803, 55.76186229545076], [37.57614697795362, 55.76178998087636], [37.57617752999068, 55.76179962281961], [37.57620808202774, 55.761794801847984], [37.57620808202774, 55.761833369621], [37.5762386340648, 55.76184783253588], [37.57619280600921, 55.76186229545076], [37.57610114989803, 55.76186229545076]]]}, "properties": {"id": 8, "bound": true, "edge_id": 13, "ID": "{3988a16c-55f9-4695-85c2-93fe930f0a56}", "na_obj": "\u041a\u0440\u0430\u0441\u043d\u0430\u044f \u041f\u0440\u0435\u0441\u043d\u044f \u0443\u043b\u0438\u0446\u0430", "um_code": "011570", "no_omk": "-", "ao": "\u0426\u0410\u041e", "rajon": "\u041f\u0440\u0435\u0441\u043d\u0435\u043d\u0441\u043a\u0438\u0439", "status": "\u0421\u0443\u0449\u0435\u0441\u0442\u0432\u0443\u044e\u0449\u0438\u0435", "length": 106.6, "type_uds": "\u041e\u0434\u043d\u0430 \u043f\u0440\u043e\u0435\u0437\u0436\u0430\u044f \u0447\u0430\u0441\u0442\u044c", "rlane": "\u0414\u0430", "one_way": "\u043d\u0435\u0442", "kl_gp": "\u041c\u0430\u0433\u0438\u0441\u0442\u0440\u0430\u043b\u044c\u043d\u044b\u0435 \u0443\u043b\u0438\u0446\u044b \u043e\u0431\u0449\u0435\u0433\u043e\u0440\u043e\u0434\u0441\u043a\u043e\u0433\u043e \u0437\u043d\u0430\u0447\u0435\u043d\u0438\u044f I \u043a\u043b\u0430\u0441\u0441\u0430 \u0446\u0435\u043d\u0442\u0440\u0430", "class_active_2016": "\u041c\u0430\u0433\u0438\u0441\u0442\u0440\u0430\u043b\u044c\u043d\u044b\u0435 \u0443\u043b\u0438\u0446\u044b \u043e\u0431\u0449\u0435\u0433\u043e\u0440\u043e\u0434\u0441\u043a\u043e\u0433\u043e \u0437\u043d\u0430\u0447\u0435\u043d\u0438\u044f 2-\u0433\u043e \u043a\u043b\u0430\u0441\u0441\u0430 - \u0440\u0435\u0433\u0443\u043b\u0438\u0440\u0443\u0435\u043c\u043e\u0433\u043e \u0434\u0432\u0438\u0436\u0435\u043d\u0438\u044f", "offer_2016": "\u041c\u0430\u0433\u0438\u0441\u0442\u0440\u0430\u043b\u044c\u043d\u044b\u0435 \u0443\u043b\u0438\u0446\u044b \u043e\u0431\u0449\u0435\u0433\u043e\u0440\u043e\u0434\u0441\u043a\u043e\u0433\u043e \u0437\u043d\u0430\u0447\u0435\u043d\u0438\u044f 1-\u0433\u043e \u043a\u043b\u0430\u0441\u0441\u0430 - \u043d\u0435\u043f\u0440\u0435\u0440\u044b\u0432\u043d\u043e\u0433\u043e \u0434\u0432\u0438\u0436\u0435\u043d\u0438\u044f"}}, {"type": "Feature", "geometry": {"type": "Polygon", "coordinates": [[[37.581279720179744, 55.7614043031462], [37.58114223601297, 55.76144287091922], [37.58111168397591, 55.76143322897596], [37.5810047518462, 55.76143804994759], [37.5810047518462, 55.76141394508946], [37.58095892379061, 55.761399482174575], [37.58097419980914, 55.76138501925969], [37.5810047518462, 55.76138501925969], [37.58105057990179, 55.761399482174575], [37.58120334008709, 55.761370556344815], [37.581289604662324, 55.76133879464939], [37.581279720179744, 55.7614043031462]]]}, "properties": {"id": 9, "bound": true, "edge_id": 4, "ID": "{0e64c520-c463-4740-90fb-cb4b71e4de6e}", "na_obj": "\u0411\u0430\u0440\u0440\u0438\u043a\u0430\u0434\u043d\u0430\u044f \u0443\u043b\u0438\u0446\u0430", "um_code": "001270", "no_omk": "-", "ao": "\u0426\u0410\u041e", "rajon": "\u041f\u0440\u0435\u0441\u043d\u0435\u043d\u0441\u043a\u0438\u0439", "status": "\u0421\u0443\u0449\u0435\u0441\u0442\u0432\u0443\u044e\u0449\u0438\u0435", "length": 34.7, "type_uds": "\u041e\u0434\u043d\u0430 \u043f\u0440\u043e\u0435\u0437\u0436\u0430\u044f \u0447\u0430\u0441\u0442\u044c", "rlane": "\u0414\u0430", "one_way": "\u043d\u0435\u0442", "kl_gp": "\u041c\u0430\u0433\u0438\u0441\u0442\u0440\u0430\u043b\u044c\u043d\u044b\u0435 \u0443\u043b\u0438\u0446\u044b \u043e\u0431\u0449\u0435\u0433\u043e\u0440\u043e\u0434\u0441\u043a\u043e\u0433\u043e \u0437\u043d\u0430\u0447\u0435\u043d\u0438\u044f I \u043a\u043b\u0430\u0441\u0441\u0430 \u0446\u0435\u043d\u0442\u0440\u0430", "class_active_2016": "\u041c\u0430\u0433\u0438\u0441\u0442\u0440\u0430\u043b\u044c\u043d\u044b\u0435 \u0443\u043b\u0438\u0446\u044b \u043e\u0431\u0449\u0435\u0433\u043e\u0440\u043e\u0434\u0441\u043a\u043e\u0433\u043e \u0437\u043d\u0430\u0447\u0435\u043d\u0438\u044f 2-\u0433\u043e \u043a\u043b\u0430\u0441\u0441\u0430 - \u0440\u0435\u0433\u0443\u043b\u0438\u0440\u0443\u0435\u043c\u043e\u0433\u043e \u0434\u0432\u0438\u0436\u0435\u043d\u0438\u044f", "offer_2016": "\u041c\u0430\u0433\u0438\u0441\u0442\u0440\u0430\u043b\u044c\u043d\u044b\u0435 \u0443\u043b\u0438\u0446\u044b \u043e\u0431\u0449\u0435\u0433\u043e\u0440\u043e\u0434\u0441\u043a\u043e\u0433\u043e \u0437\u043d\u0430\u0447\u0435\u043d\u0438\u044f 1-\u0433\u043e \u043a\u043b\u0430\u0441\u0441\u0430 - \u043d\u0435\u043f\u0440\u0435\u0440\u044b\u0432\u043d\u043e\u0433\u043e \u0434\u0432\u0438\u0436\u0435\u043d\u0438\u044f"}}, {"type": "Feature", "geometry": {"type": "Polygon", "coordinates": [[[37.5735500548035, 55.761828548649376], [37.57353477878497, 55.76181408573449], [37.57348895072938, 55.761804443791235], [37.57348895072938, 55.76149108063549], [37.57353477878497, 55.76148625966386], [37.57359588285909, 55.76146215480573], [37.57364171091468, 55.761476617720604], [37.57377919508145, 55.76146215480573], [37.5738555751741, 55.76150072257874], [37.57393195526675, 55.76149590160711], [37.57396250730381, 55.76148625966386], [37.57406943943352, 55.76130306274204], [37.57405416341499, 55.761269315940645], [37.57419164758176, 55.761221106224376], [37.57417637156323, 55.761163254564856], [37.57411526748911, 55.76114397067835], [37.57406943943352, 55.76115843359322], [37.57402361137793, 55.7611536126216], [37.57393195526675, 55.761129507763464], [37.57384029915557, 55.761129507763464], [37.57380974711851, 55.76114397067835], [37.57373336702586, 55.76114879164997], [37.57367226295174, 55.76116807553648], [37.57362643489615, 55.761163254564856], [37.57348895072938, 55.76117771747973], [37.57348895072938, 55.76098005764303], [37.57350422674791, 55.76100898347279], [37.57359588285909, 55.761033088330926], [37.57359588285909, 55.76104755124581], [37.57364171091468, 55.76106683513232], [37.57373336702586, 55.76106683513232], [37.57379447109998, 55.761052372217435], [37.57362643489615, 55.76072936711843], [37.57374864304439, 55.76071008323192], [37.57380974711851, 55.760714904203546], [37.57384029915557, 55.760753471976564], [37.57388612721116, 55.76077275586307], [37.57388612721116, 55.76078721877795], [37.57393195526675, 55.760811323636084], [37.57388612721116, 55.76082578655097], [37.57393195526675, 55.76084024946585], [37.57393195526675, 55.760941489870014], [37.57408471545205, 55.760975236671406], [37.57397778332234, 55.76099934152954], [37.5740083353594, 55.761110223876955], [37.57414581952617, 55.76111504484859], [37.57417637156323, 55.76113432873509], [37.574237475637354, 55.76113432873509], [37.574268027674414, 55.76112468679184], [37.574298579711474, 55.76114879164997], [37.574329131748534, 55.76126449496902], [37.574390235822655, 55.761269315940645], [37.574527719989426, 55.76125485302577], [37.57457354804502, 55.7612789578839], [37.57460410008208, 55.761250032054136], [37.57475686026738, 55.761250032054136], [37.5748179643415, 55.761230748167634], [37.57495544850827, 55.76124521108251], [37.57515403674916, 55.761192180394616], [37.57515403674916, 55.76117771747973], [37.57521514082328, 55.76114397067835], [37.57516931276769, 55.76112468679184], [37.57523041684181, 55.76110540290533], [37.57519986480475, 55.76109576096208], [37.57519986480475, 55.76107647707557], [37.57523041684181, 55.76106683513232], [37.5752762448974, 55.761071656103944], [37.57535262499005, 55.761062014160686], [37.57539845304564, 55.76104273027418], [37.575413729064174, 55.761071656103944], [37.57536790100858, 55.76108611901882], [37.575413729064174, 55.76109576096208], [37.575459557119764, 55.761081298047195], [37.575490109156824, 55.76109093999045], [37.575551213230945, 55.761071656103944], [37.575490109156824, 55.76104273027418], [37.575551213230945, 55.761023446387675], [37.575612317305065, 55.761033088330926], [37.575719249434776, 55.761023446387675], [37.5757803535089, 55.76099934152954], [37.5757803535089, 55.76098005764303], [37.575719249434776, 55.760970415699774], [37.575612317305065, 55.76098005764303], [37.575551213230945, 55.76099452055791], [37.575459557119764, 55.760970415699774], [37.575444281101234, 55.76094631084164], [37.575535937212415, 55.76091738501188], [37.575535937212415, 55.76089810112537], [37.575429005082704, 55.76085471238073], [37.57536790100858, 55.76086917529561], [37.57535262499005, 55.760893280153745], [37.57532207295299, 55.760902922096996], [37.57533734897152, 55.76098487861466], [37.57536790100858, 55.76100898347279], [37.57533734897152, 55.76101862541604], [37.57519986480475, 55.76101862541604], [37.57518458878622, 55.76098005764303], [37.57521514082328, 55.760970415699774], [37.57516931276769, 55.76095113181327], [37.57510820869357, 55.76098005764303], [37.57494017248974, 55.761004162501166], [37.57489434443415, 55.76098005764303], [37.57484851637856, 55.76100898347279], [37.57461937610061, 55.761033088330926], [37.574451339896775, 55.76104273027418], [37.574374959804125, 55.7610282673593], [37.574374959804125, 55.760975236671406], [37.574329131748534, 55.76095113181327], [37.574359683785595, 55.76093666889839], [37.574313855730004, 55.7608498914091], [37.574329131748534, 55.76083542849422], [37.574420787859715, 55.76083060752259], [37.574466615915306, 55.760811323636084], [37.574436063878245, 55.760724546146804], [37.574451339896775, 55.760705262260295], [37.574481891933836, 55.76071008323192], [37.574527719989426, 55.76069079934541], [37.574481891933836, 55.76068115740216], [37.574420787859715, 55.760685978373786], [37.574497167952366, 55.76066669448728], [37.574542996007956, 55.76068115740216], [37.57457354804502, 55.7606715154589], [37.57457354804502, 55.7606522315724], [37.5746652041562, 55.76068115740216], [37.57469575619326, 55.76072936711843], [37.57469575619326, 55.76076793489145], [37.57464992813767, 55.76077275586307], [37.57461937610061, 55.76080168169283], [37.57463465211914, 55.76084024946585], [37.574497167952366, 55.76084024946585], [37.574436063878245, 55.76086917529561], [37.574481891933836, 55.760883638210494], [37.57458882406355, 55.760883638210494], [37.57463465211914, 55.760864354323985], [37.5746652041562, 55.760873996267236], [37.5746652041562, 55.76088845918212], [37.57474158424885, 55.760893280153745], [37.57478741230444, 55.76087881723886], [37.57483324036003, 55.760845070437476], [37.57475686026738, 55.76082096557934], [37.57477213628591, 55.76080650266446], [37.57483324036003, 55.76079686072121], [37.57484851637856, 55.760763113919815], [37.57490962045268, 55.760763113919815], [37.57494017248974, 55.760753471976564], [37.57490962045268, 55.76066669448728], [37.57487906841562, 55.760657052544026], [37.57489434443415, 55.760628126714266], [37.57486379239709, 55.76061848477101], [37.57478741230444, 55.76061848477101], [37.57486379239709, 55.7605992008845], [37.57487906841562, 55.76057991699799], [37.57474158424885, 55.760555812139856], [37.5746652041562, 55.76056063311149], [37.57469575619326, 55.76054134922498], [37.57464992813767, 55.76053170728172], [37.57463465211914, 55.76047867659383], [37.57464992813767, 55.76045457173569], [37.57468048017473, 55.76044492979244], [37.57468048017473, 55.76042082493431], [37.57478741230444, 55.7604015410478], [37.57487906841562, 55.760396720076166], [37.57494017248974, 55.76038225716129], [37.57498600054533, 55.760396720076166], [37.57504710461945, 55.7604015410478], [37.57506238063798, 55.76045939270732], [37.57504710461945, 55.76048349756545], [37.57500127656386, 55.760497960480336], [37.57498600054533, 55.760546170196605], [37.57501655258239, 55.760555812139856], [37.57500127656386, 55.76058955894125], [37.57504710461945, 55.760604021856125], [37.57515403674916, 55.76082096557934], [37.57519986480475, 55.76083542849422], [37.57530679693446, 55.76083060752259], [37.57538317702711, 55.760845070437476], [37.575429005082704, 55.760845070437476], [37.575474833138294, 55.760816144607716], [37.575474833138294, 55.76080168169283], [37.575444281101234, 55.76079203974958], [37.575474833138294, 55.76072936711843], [37.575520661193885, 55.76071972517517], [37.575551213230945, 55.76072936711843], [37.575612317305065, 55.76071008323192], [37.575612317305065, 55.76068115740216], [37.575581765268005, 55.76066669448728], [37.575597041286535, 55.76063294768589], [37.575627593323595, 55.76060884282776], [37.575688697397716, 55.7605992008845], [37.575688697397716, 55.760575096026365], [37.575734525453306, 55.76056063311149], [37.57576507749037, 55.760497960480336], [37.57579562952743, 55.76048831853708], [37.57581090554596, 55.76043046687756], [37.57574980147184, 55.760416003962675], [37.57574980147184, 55.760387078132915], [37.57585673360155, 55.76038225716129], [37.57588728563861, 55.76036297327478], [37.57584145758302, 55.7603485103599], [37.575673421379186, 55.76036297327478], [37.575658145360656, 55.76029065870038], [37.575688697397716, 55.76028101675712], [37.575688697397716, 55.760256911898985], [37.575719249434776, 55.76023762801248], [37.575719249434776, 55.76014602955157], [37.575642869342126, 55.76011228275018], [37.575673421379186, 55.76010264080693], [37.575734525453306, 55.76011228275018], [37.57576507749037, 55.76010264080693], [37.57574980147184, 55.75999657943113], [37.57576507749037, 55.75997729554462], [37.57584145758302, 55.759958011658114], [37.57584145758302, 55.75994836971486], [37.57579562952743, 55.75993390679998], [37.57581090554596, 55.759861592225576], [37.5757803535089, 55.7598471293107], [37.57581090554596, 55.759832666395816], [37.5757803535089, 55.759823024452565], [37.575719249434776, 55.75975553084979], [37.575642869342126, 55.759721784048395], [37.575551213230945, 55.75975553084979], [37.575444281101234, 55.759741067934904], [37.57530679693446, 55.75976035182141], [37.57521514082328, 55.75975553084979], [37.57518458878622, 55.75976517279304], [37.57529152091593, 55.75981820348093], [37.57524569286034, 55.75989533902697], [37.57532207295299, 55.759909801941845], [37.57536790100858, 55.75989533902697], [37.575429005082704, 55.759900159998594], [37.575490109156824, 55.75993872777161], [37.575474833138294, 55.75996765360137], [37.575520661193885, 55.75998211651625], [37.575520661193885, 55.76000140040276], [37.575566489249475, 55.76001586331764], [37.575597041286535, 55.76008335692042], [37.575566489249475, 55.76007371497716], [37.575505385175354, 55.76007853594879], [37.575459557119764, 55.76009299886367], [37.575413729064174, 55.760088177892044], [37.575429005082704, 55.76007853594879], [37.57538317702711, 55.76006407303391], [37.57535262499005, 55.76006407303391], [37.57529152091593, 55.76007853594879], [37.57530679693446, 55.76010264080693], [37.57518458878622, 55.760117103721804], [37.57515403674916, 55.76011228275018], [37.57510820869357, 55.76012674566506], [37.57506238063798, 55.76014602955157], [37.57506238063798, 55.76018941829621], [37.57501655258239, 55.76023280704085], [37.57501655258239, 55.760295479672], [37.57489434443415, 55.760295479672], [37.57492489647121, 55.76027137481387], [37.5749707245268, 55.76026655384224], [37.5749707245268, 55.76025209092736], [37.57494017248974, 55.76024244898411], [37.57494017248974, 55.76019423926784], [37.57498600054533, 55.760150850523196], [37.5749707245268, 55.760121924693436], [37.57501655258239, 55.760088177892044], [37.57503182860092, 55.760030326232524], [37.57501655258239, 55.7599194438851], [37.57498600054533, 55.759861592225576], [37.57495544850827, 55.759851950282325], [37.57492489647121, 55.759861592225576], [37.57486379239709, 55.75983748736744], [37.57483324036003, 55.75983748736744], [37.57480268832297, 55.7598471293107], [37.5748179643415, 55.75987605514046], [37.57484851637856, 55.75988569708371], [37.57483324036003, 55.759900159998594], [37.574558272026486, 55.75991462291348], [37.574481891933836, 55.75995319068649], [37.574512443970896, 55.75996765360137], [37.574497167952366, 55.760039968175775], [37.574466615915306, 55.760049610119026], [37.574329131748534, 55.760059252062284], [37.574237475637354, 55.76007853594879], [37.574268027674414, 55.760088177892044], [37.574405511841185, 55.76009299886367], [37.574497167952366, 55.76007371497716], [37.574527719989426, 55.760088177892044], [37.574558272026486, 55.76018941829621], [37.574497167952366, 55.760199060239465], [37.574436063878245, 55.76018459732458], [37.574359683785595, 55.760208702182716], [37.574390235822655, 55.76023762801248], [37.574374959804125, 55.76023280704085], [37.574313855730004, 55.76024244898411], [37.574283303692944, 55.76023280704085], [37.574252751655884, 55.76024244898411], [37.574252751655884, 55.76032440550176], [37.574283303692944, 55.76033404744502], [37.574283303692944, 55.760387078132915], [37.574237475637354, 55.760416003962675], [37.57420692360029, 55.76052206533847], [37.57413054350764, 55.76061366379938], [37.57409999147058, 55.76069079934541], [37.57406943943352, 55.76071972517517], [37.5740083353594, 55.76071972517517], [37.57405416341499, 55.76066669448728], [37.57405416341499, 55.760628126714266], [37.57409999147058, 55.76061366379938], [37.57408471545205, 55.76057991699799], [37.57411526748911, 55.76057027505474], [37.57411526748911, 55.760546170196605], [37.5741610955447, 55.760526886310096], [37.57411526748911, 55.76051242339521], [37.57414581952617, 55.76048831853708], [37.57409999147058, 55.7604738556222], [37.57399305934087, 55.760469034650576], [37.57393195526675, 55.760435287849184], [37.5740083353594, 55.76041118299105], [37.5740083353594, 55.76037261521803], [37.57396250730381, 55.760358152303155], [37.57393195526675, 55.760367794246406], [37.57387085119263, 55.76036297327478], [37.57384029915557, 55.760377436189664], [37.57388612721116, 55.76039189910454], [37.57388612721116, 55.760416003962675], [37.57380974711851, 55.76044975076407], [37.57380974711851, 55.76045939270732], [37.5738555751741, 55.760464213678944], [37.57384029915557, 55.76048349756545], [37.57380974711851, 55.7604738556222], [37.57373336702586, 55.76048349756545], [37.57365698693321, 55.76045939270732], [37.57364171091468, 55.76048831853708], [37.57368753897027, 55.76053170728172], [37.57348895072938, 55.76057027505474], [37.57348895072938, 55.760517244366845], [37.57351950276644, 55.76050760242359], [37.57348895072938, 55.760497960480336], [37.57348895072938, 55.76031958453014], [37.57353477878497, 55.76033404744502], [37.57358060684056, 55.76031958453014], [37.57362643489615, 55.76028101675712], [37.57368753897027, 55.760276195785494], [37.57373336702586, 55.76026173287062], [37.57373336702586, 55.76024244898411], [37.57377919508145, 55.760227986069225], [37.57382502313704, 55.76025209092736], [37.5738555751741, 55.760247269955734], [37.57388612721116, 55.760256911898985], [37.57391667924822, 55.760247269955734], [37.57390140322969, 55.760218344125974], [37.57382502313704, 55.76019423926784], [37.57387085119263, 55.76010746177855], [37.57382502313704, 55.76008335692042], [37.57380974711851, 55.76005443109066], [37.57376391906292, 55.760039968175775], [37.57373336702586, 55.760039968175775], [37.57365698693321, 55.760059252062284], [37.57362643489615, 55.76007853594879], [37.57356533082203, 55.76007853594879], [37.57348895072938, 55.7600978198353], [37.57348895072938, 55.760049610119026], [37.57353477878497, 55.760030326232524], [37.57353477878497, 55.76001586331764], [37.57356533082203, 55.76000622137439], [37.57367226295174, 55.76000622137439], [37.57382502313704, 55.759958011658114], [37.57390140322969, 55.75994836971486], [37.57417637156323, 55.75988569708371], [37.574252751655884, 55.75988569708371], [37.574298579711474, 55.759871234168834], [37.574298579711474, 55.759861592225576], [37.574390235822655, 55.75982784542419], [37.574374959804125, 55.75976035182141], [37.574405511841185, 55.759741067934904], [37.574558272026486, 55.75973142599165], [37.57460410008208, 55.75970732113352], [37.57469575619326, 55.75971696307677], [37.57477213628591, 55.759692858218635], [37.57474158424885, 55.759663932388875], [37.57480268832297, 55.75960608072935], [37.57486379239709, 55.759615722672606], [37.57487906841562, 55.75964946947399], [37.57492489647121, 55.759663932388875], [37.57503182860092, 55.75962054364423], [37.57510820869357, 55.75962054364423], [37.5751234847121, 55.75959161781447], [37.57516931276769, 55.75957715489959], [37.57523041684181, 55.75957715489959], [37.57533734897152, 55.75953858712657], [37.57538317702711, 55.759562691984705], [37.575505385175354, 55.759553050041454], [37.575566489249475, 55.75956751295634], [37.575688697397716, 55.75953858712657], [37.57574980147184, 55.75951930324006], [37.5757803535089, 55.75949519838193], [37.5759331136942, 55.75945180963729], [37.57594838971273, 55.75941324186427], [37.57591783767567, 55.75939877894939], [37.57628446212039, 55.75939877894939], [37.57629973813892, 55.7594180628359], [37.57634556619451, 55.75942770477915], [37.57637611823157, 55.7594180628359], [37.57643722230569, 55.75944698866566], [37.576589982490994, 55.75944698866566], [37.576620534528054, 55.75943252575078], [37.576773294713355, 55.75944698866566], [37.576864950824536, 55.7594180628359], [37.576834398787476, 55.75939877894939], [37.57694133091719, 55.75939877894939], [37.576910778880126, 55.75940842089265], [37.576910778880126, 55.75944698866566], [37.57712464313955, 55.75946627255217], [37.57718574721367, 55.759456630608916], [37.57739961147309, 55.759456630608916], [37.57749126758427, 55.7594180628359], [37.57753709563986, 55.75944216769403], [37.57758292369545, 55.75942770477915], [37.57762875175104, 55.75943252575078], [37.57758292369545, 55.75944698866566], [37.57758292369545, 55.75946627255217], [37.5776593037881, 55.759485556438676], [37.57770513184369, 55.75946145158054], [37.57767457980663, 55.75944698866566], [37.577750959899284, 55.75944698866566], [37.577781511936344, 55.75943734672241], [37.577812063973404, 55.75945180963729], [37.577781511936344, 55.75947109352379], [37.577842616010464, 55.75948073546705], [37.577934272121645, 55.759403599921015], [37.5783161725849, 55.75939877894939], [37.57834672462196, 55.75941324186427], [37.57837727665902, 55.75939877894939], [37.579141077585525, 55.75939877894939], [37.579110525548465, 55.75947109352379], [37.579034145455815, 55.759475914495425], [37.579003593418754, 55.759485556438676], [37.578957765363164, 55.759485556438676], [37.57888138527051, 55.75947109352379], [37.57885083323345, 55.75948073546705], [37.57883555721492, 55.75950966129681], [37.57886610925198, 55.759553050041454], [37.57883555721492, 55.759562691984705], [37.57882028119639, 55.75958679684284], [37.57889666128904, 55.759615722672606], [37.57889666128904, 55.75963018558748], [37.57880500517786, 55.759673574332126], [37.57882028119639, 55.75973142599165], [37.57878972915933, 55.759741067934904], [37.57871334906668, 55.75973624696328], [37.57865224499256, 55.759721784048395], [37.57860641693697, 55.75973624696328], [37.57860641693697, 55.759832666395816], [37.57865224499256, 55.75984230833907], [37.57871334906668, 55.759823024452565], [37.5787744531408, 55.75982784542419], [37.57880500517786, 55.75984230833907], [37.57885083323345, 55.75982784542419], [37.57886610925198, 55.75980856153768], [37.578927213326104, 55.759823024452565], [37.578942489344634, 55.75983748736744], [37.57888138527051, 55.75989533902697], [37.579125801566995, 55.75993390679998], [37.579232733696706, 55.75991462291348], [37.5792785617523, 55.75994354874324], [37.579248009715236, 55.75997729554462], [37.579248009715236, 55.760049610119026], [37.579232733696706, 55.760030326232524], [37.579202181659646, 55.760020684289266], [37.579171629622586, 55.76002550526089], [37.579141077585525, 55.76000140040276], [37.579171629622586, 55.759991758459506], [37.579171629622586, 55.75997729554462], [37.579141077585525, 55.75996765360137], [37.579034145455815, 55.760011042346015], [37.578942489344634, 55.75998211651625], [37.57880500517786, 55.760039968175775], [37.57885083323345, 55.76008335692042], [37.57883555721492, 55.76017495538133], [37.578973041381694, 55.760218344125974], [37.579003593418754, 55.76023762801248], [37.578973041381694, 55.760276195785494], [37.579018869437284, 55.76029065870038], [37.579064697492875, 55.76029065870038], [37.579079973511405, 55.760329226473395], [37.579110525548465, 55.760338868416646], [37.579232733696706, 55.760309942586886], [37.57937021786348, 55.76026173287062], [37.57938549388201, 55.760247269955734], [37.57938549388201, 55.76023762801248], [37.57935494184495, 55.760227986069225], [37.57932438980789, 55.76023280704085], [37.57930911378936, 55.76021352315435], [37.57926328573377, 55.760199060239465], [37.579232733696706, 55.76016049246645], [37.579202181659646, 55.760150850523196], [37.579156353604056, 55.760150850523196], [37.579156353604056, 55.76014120857994], [37.579110525548465, 55.76013156663669], [37.579110525548465, 55.76011228275018], [37.579141077585525, 55.760117103721804], [37.57926328573377, 55.7600978198353], [37.57933966582642, 55.760121924693436], [37.57938549388201, 55.760121924693436], [37.57944659795613, 55.7600978198353], [37.57953825406731, 55.7600978198353], [37.5795840821229, 55.76007853594879], [37.57961463415996, 55.76002550526089], [37.57961463415996, 55.760011042346015], [37.57952297804878, 55.75999657943113], [37.57947714999319, 55.75997729554462], [37.57940076990054, 55.75998693748788], [37.57935494184495, 55.75989051805534], [37.57933966582642, 55.75974588890653], [37.57929383777083, 55.75972660502002], [37.57926328573377, 55.75973624696328], [37.579248009715236, 55.75976517279304], [37.579171629622586, 55.75976517279304], [37.579125801566995, 55.75975553084979], [37.579079973511405, 55.75976035182141], [37.579110525548465, 55.75972660502002], [37.579186905641116, 55.75970732113352], [37.579049421474345, 55.75965429044562], [37.579079973511405, 55.75963500655911], [37.579110525548465, 55.75963982753074], [37.579141077585525, 55.75963018558748], [37.579141077585525, 55.759615722672606], [37.579186905641116, 55.75963018558748], [37.57930911378936, 55.75960125975772], [37.57929383777083, 55.75955787101308], [37.57933966582642, 55.759543408098196], [37.57933966582642, 55.75951930324006], [37.579232733696706, 55.759485556438676], [37.579217457678176, 55.75946145158054], [37.57930911378936, 55.75943252575078], [37.57935494184495, 55.75944216769403], [37.57940076990054, 55.75942770477915], [37.57938549388201, 55.75939877894939], [37.57947714999319, 55.75939877894939], [37.57956880610437, 55.75952894518332], [37.57956880610437, 55.75955787101308], [37.57961463415996, 55.7595964387861], [37.57961463415996, 55.75962536461586], [37.57962991017849, 55.759644648502366], [37.57967573823408, 55.75965429044562], [37.57969101425261, 55.759615722672606], [37.57966046221555, 55.7595964387861], [37.57964518619702, 55.75954822906983], [37.57970629027114, 55.759524124211694], [37.57969101425261, 55.759504840325185], [37.57976739434526, 55.75957715489959], [37.57976739434526, 55.75963982753074], [37.57972156628967, 55.75965911141724], [37.57970629027114, 55.75968803724701], [37.57972156628967, 55.759741067934904], [37.57967573823408, 55.75972660502002], [37.57962991017849, 55.759750709878155], [37.57964518619702, 55.75982784542419], [37.57967573823408, 55.75983748736744], [37.57969101425261, 55.75988569708371], [37.57972156628967, 55.75990498097022], [37.57972156628967, 55.760068894005535], [37.57966046221555, 55.760208702182716], [37.57969101425261, 55.76024244898411], [37.5797368423082, 55.760256911898985], [37.57976739434526, 55.760256911898985], [37.57984377443791, 55.76023762801248], [37.5798896024935, 55.76017495538133], [37.57995070656762, 55.76016531343807], [37.58001181064174, 55.76017495538133], [37.5800423626788, 55.7602231650976], [37.58002708666027, 55.760305121615254], [37.57995070656762, 55.760329226473395], [37.57999653462321, 55.760338868416646], [37.57999653462321, 55.760406362019424], [37.5800423626788, 55.76044975076407], [37.57998125860468, 55.76048349756545], [37.57993543054909, 55.7604738556222], [37.5798896024935, 55.76048831853708], [37.57984377443791, 55.76048831853708], [37.57955353008584, 55.760555812139856], [37.57944659795613, 55.76057027505474], [37.57929383777083, 55.76061848477101], [37.579232733696706, 55.76061848477101], [37.579232733696706, 55.760594379912874], [37.579171629622586, 55.76054134922498], [37.579186905641116, 55.76052206533847], [37.57932438980789, 55.76048349756545], [37.5792785617523, 55.760469034650576], [37.579156353604056, 55.76050278145196], [37.579064697492875, 55.76044492979244], [37.579018869437284, 55.76044492979244], [37.578988317400224, 55.760435287849184], [37.578927213326104, 55.76045457173569], [37.57888138527051, 55.76043046687756], [37.57882028119639, 55.76043046687756], [37.57872862508521, 55.760464213678944], [37.57868279702962, 55.76045939270732], [37.57865224499256, 55.76044492979244], [37.57863696897403, 55.76032440550176], [37.57866752101109, 55.76031476355851], [37.57875917712227, 55.760309942586886], [37.57880500517786, 55.760295479672], [37.57880500517786, 55.76028101675712], [37.5787744531408, 55.76027137481387], [37.57874390110374, 55.760276195785494], [37.57869807304815, 55.76026655384224], [37.57863696897403, 55.76026655384224], [37.57859114091844, 55.76025209092736], [37.57856058888138, 55.76026173287062], [37.57854531286285, 55.7604738556222], [37.57859114091844, 55.76050278145196], [37.57857586489991, 55.76061366379938], [37.57860641693697, 55.760623305742634], [37.57866752101109, 55.76060884282776], [37.57868279702962, 55.76051242339521], [37.57874390110374, 55.76050760242359], [37.57883555721492, 55.760517244366845], [37.57888138527051, 55.760575096026365], [37.57891193730757, 55.76058473796962], [37.578973041381694, 55.760575096026365], [37.578957765363164, 55.760594379912874], [37.579049421474345, 55.760623305742634], [37.579110525548465, 55.760604021856125], [37.579125801566995, 55.760657052544026], [37.579171629622586, 55.76068115740216], [37.579186905641116, 55.760724546146804], [37.579248009715236, 55.76073900906168], [37.57930911378936, 55.7607775768347], [37.57930911378936, 55.76079203974958], [37.579202181659646, 55.76082096557934], [37.579095249529935, 55.76083060752259], [37.579034145455815, 55.76082096557934], [37.57888138527051, 55.76082096557934], [37.57880500517786, 55.76080650266446], [37.57880500517786, 55.76079686072121], [37.57871334906668, 55.76079203974958], [37.57860641693697, 55.76083542849422], [37.57863696897403, 55.76098487861466], [37.57866752101109, 55.76099452055791], [37.57871334906668, 55.76098969958628], [37.57874390110374, 55.76099934152954], [37.57883555721492, 55.76098005764303], [37.57886610925198, 55.76098487861466], [37.57889666128904, 55.760975236671406], [37.57891193730757, 55.760941489870014], [37.578988317400224, 55.76094631084164], [37.579034145455815, 55.760975236671406], [37.579018869437284, 55.76099452055791], [37.579049421474345, 55.761004162501166], [37.579095249529935, 55.761004162501166], [37.579217457678176, 55.760975236671406], [37.57933966582642, 55.76096077375652], [37.5797368423082, 55.760883638210494], [37.57981322240085, 55.760883638210494], [37.57987432647497, 55.760864354323985], [37.57992015453056, 55.76088845918212], [37.57992015453056, 55.76095113181327], [37.5798896024935, 55.76098005764303], [37.5798896024935, 55.76101862541604], [37.57992015453056, 55.7610282673593], [37.57998125860468, 55.76099934152954], [37.57998125860468, 55.76096559472815], [37.58005763869733, 55.760864354323985], [37.580225674901165, 55.760816144607716], [37.580332607030876, 55.760763113919815], [37.580393711104996, 55.76075829294819], [37.58050064323471, 55.760714904203546], [37.58057702332736, 55.760714904203546], [37.5806992314756, 55.760734188090055], [37.58079088758678, 55.760724546146804], [37.58086726767943, 55.76074383003331], [37.58089781971649, 55.76071008323192], [37.58088254369796, 55.76069562031704], [37.58083671564237, 55.76069079934541], [37.58082143962384, 55.76066669448728], [37.58086726767943, 55.76061848477101], [37.58091309573502, 55.76050760242359], [37.58098947582767, 55.76048349756545], [37.58105057990179, 55.760435287849184], [37.58111168397591, 55.76041118299105], [37.58106585592032, 55.760396720076166], [37.58109640795738, 55.760338868416646], [37.58121861610562, 55.760295479672], [37.581264444161214, 55.76019423926784], [37.581294996198274, 55.760170134409705], [37.581294996198274, 55.76030030064363], [37.581264444161214, 55.76031476355851], [37.581294996198274, 55.76032440550176], [37.581294996198274, 55.760517244366845], [37.58124916814268, 55.760536528253354], [37.58124916814268, 55.76055099116823], [37.58117278805003, 55.760575096026365], [37.58117278805003, 55.76058955894125], [37.58123389212415, 55.76060884282776], [37.581294996198274, 55.760604021856125], [37.581294996198274, 55.76063294768589], [37.581264444161214, 55.760628126714266], [37.58121861610562, 55.76064258962914], [37.58121861610562, 55.7606522315724], [37.581264444161214, 55.76066187351565], [37.581294996198274, 55.7606522315724], [37.581294996198274, 55.761071656103944], [37.58103530388326, 55.76112468679184], [37.58097419980914, 55.76111986582021], [37.58092837175355, 55.76110540290533], [37.58095892379061, 55.76109093999045], [37.58092837175355, 55.761081298047195], [37.5808519916609, 55.761081298047195], [37.58079088758678, 55.761071656103944], [37.58068395545707, 55.76111504484859], [37.58071450749413, 55.76117289650811], [37.58066867943854, 55.761211464281125], [37.58065340342001, 55.761259673997394], [37.58068395545707, 55.76134163051505], [37.58066867943854, 55.76136573537318], [37.58072978351266, 55.761380198288066], [37.58077561156825, 55.76137537731644], [37.58086726767943, 55.761317525656914], [37.58083671564237, 55.76128377885553], [37.58086726767943, 55.76127413691228], [37.58086726767943, 55.76125485302577], [37.58094364777208, 55.761230748167634], [37.58102002786473, 55.761225927196], [37.58106585592032, 55.761240390110885], [37.58109640795738, 55.761240390110885], [37.58114223601297, 55.761225927196], [37.58117278805003, 55.76119700136624], [37.58121861610562, 55.761211464281125], [37.581294996198274, 55.7612066433095], [37.581294996198274, 55.7612789578839], [37.581264444161214, 55.76129342079878], [37.581294996198274, 55.76130306274204], [37.581289964098055, 55.76133641252223], [37.5811575120315, 55.7613319885718], [37.58111168397591, 55.76131270468529], [37.58108113193885, 55.761322346628546], [37.58097419980914, 55.761317525656914], [37.58092837175355, 55.76133680954342], [37.58095892379061, 55.76134645148668], [37.5810047518462, 55.76134645148668], [37.58094364777208, 55.761370556344815], [37.58089781971649, 55.76136091440156], [37.58086726767943, 55.761370556344815], [37.58086726767943, 55.76138501925969], [37.58082143962384, 55.761399482174575], [37.58082143962384, 55.761428408004335], [37.58077561156825, 55.76144287091922], [37.58077561156825, 55.76146215480573], [37.58074505953119, 55.761476617720604], [37.58076033554972, 55.761510364521996], [37.58072978351266, 55.76152000646525], [37.58083671564237, 55.76165981464243], [37.58091309573502, 55.76167909852894], [37.58095892379061, 55.7616549936708], [37.5810047518462, 55.76165981464243], [37.58106585592032, 55.76164053075592], [37.58106585592032, 55.76162124686942], [37.58102002786473, 55.761606783954534], [37.58102002786473, 55.761587500068025], [37.58108113193885, 55.761558574238265], [37.58112695999444, 55.76155375326664], [37.58124916814268, 55.76159232103965], [37.581294996198274, 55.7615826790964], [37.581294996198274, 55.76164053075592], [37.581264444161214, 55.76165017269918], [37.58123389212415, 55.76162124686942], [37.58117278805003, 55.761606783954534], [37.58109640795738, 55.761635709784294], [37.58114223601297, 55.76166463561405], [37.58117278805003, 55.761669456585686], [37.58124916814268, 55.76165981464243], [37.58121861610562, 55.76168391950056], [37.58123389212415, 55.76171284533033], [37.5811575120315, 55.761736950188464], [37.58111168397591, 55.76172248727358], [37.58103530388326, 55.761746592131715], [37.58103530388326, 55.761775517961475], [37.58112695999444, 55.76178998087636], [37.58114223601297, 55.76180926476287], [37.581294996198274, 55.76185265350751], [37.581294996198274, 55.76186229545076], [37.5805464712903, 55.76186229545076], [37.58045481517912, 55.76174177116009], [37.58047009119765, 55.761717666301955], [37.58048536721618, 55.76174177116009], [37.58051591925324, 55.76175141310334], [37.5805464712903, 55.76174177116009], [37.58053119527177, 55.76170320338707], [37.58056174730883, 55.76169356144382], [37.58056174730883, 55.76167909852894], [37.58050064323471, 55.76159714201128], [37.580424263142056, 55.76157303715314], [37.580378435086466, 55.76157303715314], [37.580271502956755, 55.76154411132338], [37.580225674901165, 55.76155375326664], [37.580179846845574, 55.76154411132338], [37.580134018789984, 55.76155375326664], [37.580103466752924, 55.76154411132338], [37.5800423626788, 55.761558574238265], [37.57985905045644, 55.76156339520989], [37.57978267036379, 55.76157303715314], [37.5797368423082, 55.76159232103965], [37.57961463415996, 55.761587500068025], [37.57953825406731, 55.761606783954534], [37.57953825406731, 55.761616425897785], [37.57961463415996, 55.76164053075592], [37.57961463415996, 55.76167909852894], [37.57969101425261, 55.761775517961475], [37.57976739434526, 55.76179962281961], [37.57984377443791, 55.76179962281961], [37.57992015453056, 55.76178515990473], [37.57998125860468, 55.76178515990473], [37.58001181064174, 55.76177069698985], [37.57996598258615, 55.76175141310334], [37.57999653462321, 55.76174177116009], [37.57999653462321, 55.76170320338707], [37.580179846845574, 55.76168874047219], [37.580240950919695, 55.76170320338707], [37.580240950919695, 55.76178515990473], [37.580271502956755, 55.761794801847984], [37.580271502956755, 55.76181408573449], [37.580225674901165, 55.761833369621], [37.580240950919695, 55.76186229545076], [37.57940076990054, 55.76186229545076], [37.57933966582642, 55.76166463561405], [37.57932438980789, 55.761635709784294], [37.57929383777083, 55.76162606784104], [37.57930911378936, 55.7615826790964], [37.57926328573377, 55.761568216181516], [37.57926328573377, 55.76155375326664], [37.579217457678176, 55.76154411132338], [37.579125801566995, 55.761577858124774], [37.579125801566995, 55.76162124686942], [37.579156353604056, 55.76167909852894], [37.579202181659646, 55.76169356144382], [37.579171629622586, 55.761717666301955], [37.579171629622586, 55.76175141310334], [37.579232733696706, 55.76186229545076], [37.579003593418754, 55.76186229545076], [37.579049421474345, 55.76184301156425], [37.579018869437284, 55.761833369621], [37.578973041381694, 55.76183819059263], [37.57889666128904, 55.76182372767774], [37.579003593418754, 55.76178998087636], [37.579018869437284, 55.761746592131715], [37.578973041381694, 55.76173212921683], [37.57886610925198, 55.76172248727358], [37.57889666128904, 55.761698382415446], [37.578973041381694, 55.76168391950056], [37.578927213326104, 55.7616549936708], [37.578927213326104, 55.76164535172755], [37.578973041381694, 55.76163088881267], [37.578942489344634, 55.76162124686942], [37.57891193730757, 55.76162606784104], [37.57891193730757, 55.76159714201128], [37.57888138527051, 55.761587500068025], [37.57885083323345, 55.761587500068025], [37.57880500517786, 55.76160196298291], [37.57878972915933, 55.76157303715314], [37.57875917712227, 55.76156339520989], [37.5787744531408, 55.761539290351756], [37.57882028119639, 55.761529648408505], [37.57885083323345, 55.761457333834095], [37.57889666128904, 55.76143804994759], [37.57878972915933, 55.76141394508946], [37.57872862508521, 55.76142358703271], [37.57863696897403, 55.7614043031462], [37.57863696897403, 55.761370556344815], [37.57866752101109, 55.76136091440156], [37.57866752101109, 55.76134645148668], [37.57854531286285, 55.76131270468529], [37.57848420878873, 55.76132716760017], [37.57843838073314, 55.76131270468529], [37.57836200064049, 55.761269315940645], [37.57840782869608, 55.76123556913926], [37.57833144860343, 55.761211464281125], [37.57823979249225, 55.76123556913926], [37.57820924045519, 55.761221106224376], [37.57822451647372, 55.761182538451365], [37.57819396443666, 55.76117289650811], [37.57819396443666, 55.76114397067835], [37.57811758434401, 55.761110223876955], [37.577949548140175, 55.76112468679184], [37.577873168047525, 55.76114879164997], [37.57773568388075, 55.761163254564856], [37.57768985582516, 55.76117771747973], [37.57768985582516, 55.76118735942299], [37.577750959899284, 55.7612066433095], [37.57764402776957, 55.76123556913926], [37.57761347573251, 55.76123556913926], [37.57752181962133, 55.761211464281125], [37.57743016351015, 55.761240390110885], [37.57743016351015, 55.761221106224376], [37.57739961147309, 55.761211464281125], [37.57736905943603, 55.761221106224376], [37.57732323138044, 55.7612066433095], [37.57726212730632, 55.76123556913926], [37.57724685128779, 55.761259673997394], [37.5772010232322, 55.76126449496902], [37.57712464313955, 55.761259673997394], [37.57709409110249, 55.761269315940645], [37.5770482630469, 55.761269315940645], [37.5770482630469, 55.761240390110885], [37.57701771100984, 55.761230748167634], [37.57697188295425, 55.761230748167634], [37.576910778880126, 55.76124521108251], [37.576880226843066, 55.761269315940645], [37.576895502861596, 55.7612789578839], [37.576834398787476, 55.761288599827154], [37.576880226843066, 55.76127413691228], [37.576834398787476, 55.761259673997394], [37.576727466657765, 55.761269315940645], [37.576681638602174, 55.76129824177041], [37.57651360239834, 55.7612789578839], [37.57646777434275, 55.76129342079878], [37.57646777434275, 55.76136091440156], [37.57636084221304, 55.761380198288066], [37.57634556619451, 55.76135609342993], [37.57631501415745, 55.76134645148668], [37.57625391008333, 55.76133680954342], [37.57622335804627, 55.76134645148668], [37.57622335804627, 55.76139466120295], [37.57625391008333, 55.7614043031462], [37.57631501415745, 55.76139466120295], [37.5763913942501, 55.76143322897596], [37.57642194628716, 55.76142358703271], [37.57648305036128, 55.76145251286247], [37.57646777434275, 55.761476617720604], [37.57637611823157, 55.761447691890844], [37.57633029017598, 55.76146215480573], [37.57625391008333, 55.761457333834095], [37.57620808202774, 55.76143322897596], [37.57614697795362, 55.76144287091922], [37.57613170193509, 55.76147179674898], [37.57610114989803, 55.761476617720604], [37.57600949378685, 55.76147179674898], [37.57600949378685, 55.761447691890844], [37.57596366573126, 55.76143322897596], [37.57584145758302, 55.761447691890844], [37.575734525453306, 55.761447691890844], [37.575581765268005, 55.761476617720604], [37.575535937212415, 55.76145251286247], [37.575566489249475, 55.76143804994759], [37.575642869342126, 55.76143322897596], [37.575703973416246, 55.761447691890844], [37.57574980147184, 55.761418766061084], [37.575719249434776, 55.761399482174575], [37.575719249434776, 55.761370556344815], [37.575673421379186, 55.761351272458306], [37.575642869342126, 55.761351272458306], [37.575520661193885, 55.761389840231324], [37.575490109156824, 55.76138501925969], [37.575429005082704, 55.761418766061084], [37.57538317702711, 55.76139466120295], [37.57529152091593, 55.76139466120295], [37.57526096887887, 55.7614043031462], [37.57526096887887, 55.761447691890844], [37.575413729064174, 55.76147179674898], [37.575429005082704, 55.76149108063549], [37.575490109156824, 55.761510364521996], [37.575444281101234, 55.76152482743687], [37.575429005082704, 55.76154411132338], [37.575413729064174, 55.761606783954534], [37.575459557119764, 55.76162124686942], [37.57574980147184, 55.761616425897785], [37.57581090554596, 55.761577858124774], [37.57588728563861, 55.76159232103965], [37.57587200962008, 55.761606783954534], [37.57591783767567, 55.76162124686942], [37.57604004582391, 55.761616425897785], [37.57614697795362, 55.761587500068025], [37.57619280600921, 55.76159232103965], [37.57626918610186, 55.761568216181516], [37.57626918610186, 55.761529648408505], [37.57636084221304, 55.76151518549362], [37.57634556619451, 55.761558574238265], [37.57629973813892, 55.76157303715314], [37.57628446212039, 55.76160196298291], [37.5763913942501, 55.76162124686942], [37.57634556619451, 55.76165017269918], [37.57629973813892, 55.76164053075592], [37.57625391008333, 55.7616549936708], [37.57625391008333, 55.76166463561405], [37.57633029017598, 55.76167909852894], [37.57628446212039, 55.76169356144382], [37.5762386340648, 55.76168874047219], [37.57622335804627, 55.76164053075592], [37.57619280600921, 55.76162606784104], [37.57622335804627, 55.76161160492616], [37.57616225397215, 55.76159714201128], [37.57613170193509, 55.761606783954534], [37.57616225397215, 55.76162606784104], [37.57611642591656, 55.76165017269918], [37.57611642591656, 55.761756234074966], [37.57599421776832, 55.761717666301955], [37.57605532184244, 55.76170320338707], [37.57602476980538, 55.76169356144382], [37.57599421776832, 55.761698382415446], [37.57594838971273, 55.76168874047219], [37.575719249434776, 55.76168874047219], [37.575673421379186, 55.761698382415446], [37.575642869342126, 55.76168874047219], [37.575520661193885, 55.76168391950056], [37.575474833138294, 55.76170320338707], [37.575490109156824, 55.76177069698985], [37.575459557119764, 55.76178515990473], [37.575459557119764, 55.761756234074966], [37.575413729064174, 55.761736950188464], [37.575429005082704, 55.7617080243587], [37.57539845304564, 55.76169356144382], [37.575429005082704, 55.76168391950056], [37.575429005082704, 55.76166463561405], [37.57535262499005, 55.76163088881267], [37.57530679693446, 55.76163088881267], [37.57521514082328, 55.761669456585686], [37.5751234847121, 55.76168391950056], [37.5751234847121, 55.761698382415446], [37.57523041684181, 55.76175141310334], [37.57532207295299, 55.761775517961475], [37.57529152091593, 55.76179962281961], [37.57529152091593, 55.76184783253588], [37.57532207295299, 55.761857474479136], [37.57535262499005, 55.76184783253588], [37.57538317702711, 55.76186229545076], [37.57526096887887, 55.76186229545076], [37.57526096887887, 55.76183819059263], [37.57518458878622, 55.76182372767774], [37.57518458878622, 55.76178998087636], [37.57513876073063, 55.76177069698985], [37.57504710461945, 55.76177069698985], [37.57500127656386, 55.7617803389331], [37.57484851637856, 55.76177069698985], [37.57474158424885, 55.761804443791235], [37.57469575619326, 55.761833369621], [37.57463465211914, 55.76181890670612], [37.57458882406355, 55.761833369621], [37.57457354804502, 55.76186229545076], [37.574420787859715, 55.76186229545076], [37.574374959804125, 55.76184301156425], [37.574405511841185, 55.761828548649376], [37.574344407767065, 55.76180926476287], [37.574313855730004, 55.76181890670612], [37.574298579711474, 55.76178998087636], [37.574313855730004, 55.7617610550466], [37.574359683785595, 55.76174177116009], [37.574268027674414, 55.761727308245206], [37.574252751655884, 55.76170320338707], [37.57422219961882, 55.76169356144382], [37.57413054350764, 55.761698382415446], [37.57408471545205, 55.76171284533033], [37.57405416341499, 55.761698382415446], [37.57403888739646, 55.76164535172755], [37.57399305934087, 55.76162124686942], [37.57390140322969, 55.761635709784294], [37.57387085119263, 55.76163088881267], [37.57382502313704, 55.76164535172755], [37.57364171091468, 55.76165981464243], [37.57359588285909, 55.76167427755731], [37.57368753897027, 55.76170320338707], [37.57379447109998, 55.76168391950056], [37.57390140322969, 55.76169356144382], [37.57393195526675, 55.76170320338707], [37.57394723128528, 55.76171284533033], [37.57391667924822, 55.76172248727358], [37.57394723128528, 55.761775517961475], [37.57388612721116, 55.76179962281961], [37.57397778332234, 55.76181408573449], [37.5740083353594, 55.76186229545076], [37.5738555751741, 55.76186229545076], [37.57390140322969, 55.76184301156425], [37.57390140322969, 55.76181408573449], [37.5738555751741, 55.761804443791235], [37.57374864304439, 55.76183819059263], [37.57376391906292, 55.76186229545076], [37.57361115887762, 55.76186229545076], [37.57361115887762, 55.761833369621], [37.57358060684056, 55.76182372767774], [37.5735500548035, 55.761828548649376]]]}, "properties": {"id": 10, "bound": true, "edge_id": 10, "ID": "{a37a5390-bcb1-4780-b04e-2d8cc9793990}", "na_obj": "\u041a\u0440\u0430\u0441\u043d\u0430\u044f \u041f\u0440\u0435\u0441\u043d\u044f \u0443\u043b\u0438\u0446\u0430", "um_code": "011570", "no_omk": "-", "ao": "\u0426\u0410\u041e", "rajon": "\u041f\u0440\u0435\u0441\u043d\u0435\u043d\u0441\u043a\u0438\u0439", "status": "\u0421\u0443\u0449\u0435\u0441\u0442\u0432\u0443\u044e\u0449\u0438\u0435", "length": 116.0, "type_uds": "\u041e\u0434\u043d\u0430 \u043f\u0440\u043e\u0435\u0437\u0436\u0430\u044f \u0447\u0430\u0441\u0442\u044c", "rlane": "\u0414\u0430", "one_way": "\u043d\u0435\u0442", "kl_gp": "\u041c\u0430\u0433\u0438\u0441\u0442\u0440\u0430\u043b\u044c\u043d\u044b\u0435 \u0443\u043b\u0438\u0446\u044b \u043e\u0431\u0449\u0435\u0433\u043e\u0440\u043e\u0434\u0441\u043a\u043e\u0433\u043e \u0437\u043d\u0430\u0447\u0435\u043d\u0438\u044f I \u043a\u043b\u0430\u0441\u0441\u0430 \u0446\u0435\u043d\u0442\u0440\u0430", "class_active_2016": "\u041c\u0430\u0433\u0438\u0441\u0442\u0440\u0430\u043b\u044c\u043d\u044b\u0435 \u0443\u043b\u0438\u0446\u044b \u043e\u0431\u0449\u0435\u0433\u043e\u0440\u043e\u0434\u0441\u043a\u043e\u0433\u043e \u0437\u043d\u0430\u0447\u0435\u043d\u0438\u044f 2-\u0433\u043e \u043a\u043b\u0430\u0441\u0441\u0430 - \u0440\u0435\u0433\u0443\u043b\u0438\u0440\u0443\u0435\u043c\u043e\u0433\u043e \u0434\u0432\u0438\u0436\u0435\u043d\u0438\u044f", "offer_2016": "\u041c\u0430\u0433\u0438\u0441\u0442\u0440\u0430\u043b\u044c\u043d\u044b\u0435 \u0443\u043b\u0438\u0446\u044b \u043e\u0431\u0449\u0435\u0433\u043e\u0440\u043e\u0434\u0441\u043a\u043e\u0433\u043e \u0437\u043d\u0430\u0447\u0435\u043d\u0438\u044f 1-\u0433\u043e \u043a\u043b\u0430\u0441\u0441\u0430 - \u043d\u0435\u043f\u0440\u0435\u0440\u044b\u0432\u043d\u043e\u0433\u043e \u0434\u0432\u0438\u0436\u0435\u043d\u0438\u044f"}}, {"type": "Feature", "geometry": {"type": "Polygon", "coordinates": [[[37.57458882406355, 55.76024244898411], [37.574558272026486, 55.76026173287062], [37.574390235822655, 55.76026173287062], [37.574390235822655, 55.76023762801248], [37.574436063878245, 55.760227986069225], [37.574527719989426, 55.76023280704085], [37.57457354804502, 55.760218344125974], [37.57458882406355, 55.76024244898411]]]}, "properties": {"id": 11, "bound": true, "edge_id": 13, "ID": "{3988a16c-55f9-4695-85c2-93fe930f0a56}", "na_obj": "\u041a\u0440\u0430\u0441\u043d\u0430\u044f \u041f\u0440\u0435\u0441\u043d\u044f \u0443\u043b\u0438\u0446\u0430", "um_code": "011570", "no_omk": "-", "ao": "\u0426\u0410\u041e", "rajon": "\u041f\u0440\u0435\u0441\u043d\u0435\u043d\u0441\u043a\u0438\u0439", "status": "\u0421\u0443\u0449\u0435\u0441\u0442\u0432\u0443\u044e\u0449\u0438\u0435", "length": 106.6, "type_uds": "\u041e\u0434\u043d\u0430 \u043f\u0440\u043e\u0435\u0437\u0436\u0430\u044f \u0447\u0430\u0441\u0442\u044c", "rlane": "\u0414\u0430", "one_way": "\u043d\u0435\u0442", "kl_gp": "\u041c\u0430\u0433\u0438\u0441\u0442\u0440\u0430\u043b\u044c\u043d\u044b\u0435 \u0443\u043b\u0438\u0446\u044b \u043e\u0431\u0449\u0435\u0433\u043e\u0440\u043e\u0434\u0441\u043a\u043e\u0433\u043e \u0437\u043d\u0430\u0447\u0435\u043d\u0438\u044f I \u043a\u043b\u0430\u0441\u0441\u0430 \u0446\u0435\u043d\u0442\u0440\u0430", "class_active_2016": "\u041c\u0430\u0433\u0438\u0441\u0442\u0440\u0430\u043b\u044c\u043d\u044b\u0435 \u0443\u043b\u0438\u0446\u044b \u043e\u0431\u0449\u0435\u0433\u043e\u0440\u043e\u0434\u0441\u043a\u043e\u0433\u043e \u0437\u043d\u0430\u0447\u0435\u043d\u0438\u044f 2-\u0433\u043e \u043a\u043b\u0430\u0441\u0441\u0430 - \u0440\u0435\u0433\u0443\u043b\u0438\u0440\u0443\u0435\u043c\u043e\u0433\u043e \u0434\u0432\u0438\u0436\u0435\u043d\u0438\u044f", "offer_2016": "\u041c\u0430\u0433\u0438\u0441\u0442\u0440\u0430\u043b\u044c\u043d\u044b\u0435 \u0443\u043b\u0438\u0446\u044b \u043e\u0431\u0449\u0435\u0433\u043e\u0440\u043e\u0434\u0441\u043a\u043e\u0433\u043e \u0437\u043d\u0430\u0447\u0435\u043d\u0438\u044f 1-\u0433\u043e \u043a\u043b\u0430\u0441\u0441\u0430 - \u043d\u0435\u043f\u0440\u0435\u0440\u044b\u0432\u043d\u043e\u0433\u043e \u0434\u0432\u0438\u0436\u0435\u043d\u0438\u044f"}}, {"type": "Feature", "geometry": {"type": "Polygon", "coordinates": [[[37.57956880610437, 55.75945180963729], [37.57956880610437, 55.7594180628359], [37.57962991017849, 55.75939877894939], [37.57981322240085, 55.75939877894939], [37.57982849841938, 55.759456630608916], [37.57979794638232, 55.75947109352379], [37.57976739434526, 55.75943252575078], [37.5797368423082, 55.759422883807524], [37.57970629027114, 55.75943252575078], [37.57967573823408, 55.75950001935356], [37.57964518619702, 55.7594903774103], [37.57961463415996, 55.75949519838193], [37.57956880610437, 55.75945180963729]]]}, "properties": {"id": 12, "bound": true, "edge_id": 1, "ID": "{0816d47b-ee9b-4f91-95ba-d41b50de5106}", "na_obj": "\u041a\u043e\u043d\u044e\u0448\u043a\u043e\u0432\u0441\u043a\u0438\u0439 \u0411\u043e\u043b\u044c\u0448\u043e\u0439 \u043f\u0435\u0440\u0435\u0443\u043b\u043e\u043a", "um_code": "011010", "no_omk": "-", "ao": "\u0426\u0410\u041e", "rajon": "\u041f\u0440\u0435\u0441\u043d\u0435\u043d\u0441\u043a\u0438\u0439", "status": "\u0421\u0443\u0449\u0435\u0441\u0442\u0432\u0443\u044e\u0449\u0438\u0435", "length": 333.9, "type_uds": "\u041e\u0434\u043d\u0430 \u043f\u0440\u043e\u0435\u0437\u0436\u0430\u044f \u0447\u0430\u0441\u0442\u044c", "rlane": "\u0414\u0430", "one_way": "\u043d\u0435\u0442", "kl_gp": "\u041f\u0440\u043e\u0447\u0430\u044f \u0443\u043b\u0438\u0447\u043d\u043e-\u0434\u043e\u0440\u043e\u0436\u043d\u0430\u044f \u0441\u0435\u0442\u044c \u041c\u043e\u0441\u043a\u0432\u044b", "class_active_2016": "\u0423\u043b\u0438\u0446\u044b \u0438 \u0434\u043e\u0440\u043e\u0433\u0438 \u043c\u0435\u0441\u0442\u043d\u043e\u0433\u043e \u0437\u043d\u0430\u0447\u0435\u043d\u0438\u044f", "offer_2016": "\u0423\u043b\u0438\u0446\u044b \u0438 \u0434\u043e\u0440\u043e\u0433\u0438 \u043c\u0435\u0441\u0442\u043d\u043e\u0433\u043e \u0437\u043d\u0430\u0447\u0435\u043d\u0438\u044f"}}]}